{"type":"FeatureCollection","features":[{"type":"Feature","geometry":{"type":"Point","coordinates":[-148.975515,60.818883]},"properties":{"id":"ora-ak-0","name":"Seward Highway @ Portage Glacier Road MP 78.9","state":"AK","provider":"Alaska DOT","hls":null,"snapshot":"https://511.alaska.gov/map/Cctv/1","refreshMs":30000,"attribution":"Ora (Warner Varnado) · Alaska DOT"}},{"type":"Feature","geometry":{"type":"Point","coordinates":[-149.346632,60.929619]},"properties":{"id":"ora-ak-1","name":"Seward Highway @ Bird Point MP 96.3","state":"AK","provider":"Alaska DOT","hls":null,"snapshot":"https://511.alaska.gov/map/Cctv/10","refreshMs":30000,"attribution":"Ora (Warner Varnado) · Alaska DOT"}},{"type":"Feature","geometry":{"type":"Point","coordinates":[-149.850897,61.10922]},"properties":{"id":"ora-ak-2","name":"Seward Highway @ Huffman Road MP 120","state":"AK","provider":"Alaska DOT","hls":null,"snapshot":"https://511.alaska.gov/map/Cctv/17","refreshMs":30000,"attribution":"Ora (Warner Varnado) · Alaska DOT"}},{"type":"Feature","geometry":{"type":"Point","coordinates":[-149.576,61.3117]},"properties":{"id":"ora-ak-3","name":"Glenn Highway @ Eagle River Bridge MP 12.8","state":"AK","provider":"Alaska DOT","hls":null,"snapshot":"https://511.alaska.gov/map/Cctv/25","refreshMs":30000,"attribution":"Ora (Warner Varnado) · Alaska DOT"}},{"type":"Feature","geometry":{"type":"Point","coordinates":[-149.744807,61.107798]},"properties":{"id":"ora-ak-4","name":"Hillside Road @ Upper Huffman Road","state":"AK","provider":"Alaska DOT","hls":null,"snapshot":"https://511.alaska.gov/map/Cctv/33","refreshMs":30000,"attribution":"Ora (Warner Varnado) · Alaska DOT"}},{"type":"Feature","geometry":{"type":"Point","coordinates":[-149.729834,61.015621]},"properties":{"id":"ora-ak-5","name":"Seward Highway @ McHugh Creek MP 111.8","state":"AK","provider":"Alaska DOT","hls":null,"snapshot":"https://511.alaska.gov/map/Cctv/34","refreshMs":30000,"attribution":"Ora (Warner Varnado) · Alaska DOT"}},{"type":"Feature","geometry":{"type":"Point","coordinates":[-149.632437,61.27593]},"properties":{"id":"ora-ak-6","name":"Glenn Highway @ S Curves  MP 10","state":"AK","provider":"Alaska DOT","hls":null,"snapshot":"https://511.alaska.gov/map/Cctv/35","refreshMs":30000,"attribution":"Ora (Warner Varnado) · Alaska DOT"}},{"type":"Feature","geometry":{"type":"Point","coordinates":[-149.2455,61.4908]},"properties":{"id":"ora-ak-7","name":"Glenn Highway @ 2nd Knik River Bridge MP 31.1","state":"AK","provider":"Alaska DOT","hls":null,"snapshot":"https://511.alaska.gov/map/Cctv/36","refreshMs":30000,"attribution":"Ora (Warner Varnado) · Alaska DOT"}},{"type":"Feature","geometry":{"type":"Point","coordinates":[-149.745264,61.585003]},"properties":{"id":"ora-ak-8","name":"Parks Highway @ Hawk Lane MP 53.2","state":"AK","provider":"Alaska DOT","hls":null,"snapshot":"https://511.alaska.gov/map/Cctv/44","refreshMs":30000,"attribution":"Ora (Warner Varnado) · Alaska DOT"}},{"type":"Feature","geometry":{"type":"Point","coordinates":[-150.037939,62.129099]},"properties":{"id":"ora-ak-9","name":"Parks Highway @ Talkeetna Road MP 98.7","state":"AK","provider":"Alaska DOT","hls":null,"snapshot":"https://511.alaska.gov/map/Cctv/52","refreshMs":30000,"attribution":"Ora (Warner Varnado) · Alaska DOT"}},{"type":"Feature","geometry":{"type":"Point","coordinates":[-149.500788,60.640439]},"properties":{"id":"ora-ak-10","name":"Seward Highway @ Summit Lake MP 45.8","state":"AK","provider":"Alaska DOT","hls":null,"snapshot":"https://511.alaska.gov/map/Cctv/62","refreshMs":30000,"attribution":"Ora (Warner Varnado) · Alaska DOT"}},{"type":"Feature","geometry":{"type":"Point","coordinates":[-149.868074,61.193409]},"properties":{"id":"ora-ak-11","name":"Benson & New Seward Hwy","state":"AK","provider":"Alaska DOT","hls":null,"snapshot":"https://511.alaska.gov/map/Cctv/70","refreshMs":30000,"attribution":"Ora (Warner Varnado) · Alaska DOT"}},{"type":"Feature","geometry":{"type":"Point","coordinates":[-150.002009,60.487019]},"properties":{"id":"ora-ak-12","name":"Sterling Highway @ Russian River Ferry MP 54.8","state":"AK","provider":"Alaska DOT","hls":null,"snapshot":"https://511.alaska.gov/map/Cctv/71","refreshMs":30000,"attribution":"Ora (Warner Varnado) · Alaska DOT"}},{"type":"Feature","geometry":{"type":"Point","coordinates":[-149.733495,61.226054]},"properties":{"id":"ora-ak-13","name":"Glenn Hwy & Muldoon Road South Ramp","state":"AK","provider":"Alaska DOT","hls":null,"snapshot":"https://511.alaska.gov/map/Cctv/79","refreshMs":30000,"attribution":"Ora (Warner Varnado) · Alaska DOT"}},{"type":"Feature","geometry":{"type":"Point","coordinates":[-151.658884,60.047761]},"properties":{"id":"ora-ak-14","name":"Sterling Highway @ Ninilchik River Bridge MP 135.2","state":"AK","provider":"Alaska DOT","hls":null,"snapshot":"https://511.alaska.gov/map/Cctv/81","refreshMs":30000,"attribution":"Ora (Warner Varnado) · Alaska DOT"}},{"type":"Feature","geometry":{"type":"Point","coordinates":[-134.454085,58.320153]},"properties":{"id":"ora-ak-15","name":"Egan Drive/Glacier Highway @ MP 3","state":"AK","provider":"Alaska DOT","hls":null,"snapshot":"https://511.alaska.gov/map/Cctv/82","refreshMs":30000,"attribution":"Ora (Warner Varnado) · Alaska DOT"}},{"type":"Feature","geometry":{"type":"Point","coordinates":[-134.770122,58.449655]},"properties":{"id":"ora-ak-16","name":"Glacier Highway @ Cohen Drive MP 21","state":"AK","provider":"Alaska DOT","hls":null,"snapshot":"https://511.alaska.gov/map/Cctv/91","refreshMs":30000,"attribution":"Ora (Warner Varnado) · Alaska DOT"}},{"type":"Feature","geometry":{"type":"Point","coordinates":[-135.93196,59.413976]},"properties":{"id":"ora-ak-17","name":"Haines Highway @ Chilkat River Bridge MP 23.8","state":"AK","provider":"Alaska DOT","hls":null,"snapshot":"https://511.alaska.gov/map/Cctv/92","refreshMs":30000,"attribution":"Ora (Warner Varnado) · Alaska DOT"}},{"type":"Feature","geometry":{"type":"Point","coordinates":[-147.425977,61.82303]},"properties":{"id":"ora-ak-18","name":"Glenn Highway @ Gunsight Mountain MP 117","state":"AK","provider":"Alaska DOT","hls":null,"snapshot":"https://511.alaska.gov/map/Cctv/100","refreshMs":30000,"attribution":"Ora (Warner Varnado) · Alaska DOT"}},{"type":"Feature","geometry":{"type":"Point","coordinates":[-149.129,63.3277]},"properties":{"id":"ora-ak-19","name":"Parks Highway @ Broad Pass MP 201.4","state":"AK","provider":"Alaska DOT","hls":null,"snapshot":"https://511.alaska.gov/map/Cctv/108","refreshMs":30000,"attribution":"Ora (Warner Varnado) · Alaska DOT"}},{"type":"Feature","geometry":{"type":"Point","coordinates":[-149.88683,61.144712]},"properties":{"id":"ora-ak-20","name":"C St & Dimond","state":"AK","provider":"Alaska DOT","hls":null,"snapshot":"https://511.alaska.gov/map/Cctv/110","refreshMs":30000,"attribution":"Ora (Warner Varnado) · Alaska DOT"}},{"type":"Feature","geometry":{"type":"Point","coordinates":[-145.812607,61.110941]},"properties":{"id":"ora-ak-21","name":"Richardson Highway @ Sheep Creek MP 18.6","state":"AK","provider":"Alaska DOT","hls":null,"snapshot":"https://511.alaska.gov/map/Cctv/111","refreshMs":30000,"attribution":"Ora (Warner Varnado) · Alaska DOT"}},{"type":"Feature","geometry":{"type":"Point","coordinates":[-151.241596,60.55732]},"properties":{"id":"ora-ak-22","name":"Kenai Spur Hwy & Bridge Access","state":"AK","provider":"Alaska DOT","hls":null,"snapshot":"https://511.alaska.gov/map/Cctv/119","refreshMs":30000,"attribution":"Ora (Warner Varnado) · Alaska DOT"}},{"type":"Feature","geometry":{"type":"Point","coordinates":[-145.16183,61.708652]},"properties":{"id":"ora-ak-23","name":"Richardson Highway @ Edgerton Highway MP 82.7","state":"AK","provider":"Alaska DOT","hls":null,"snapshot":"https://511.alaska.gov/map/Cctv/120","refreshMs":30000,"attribution":"Ora (Warner Varnado) · Alaska DOT"}},{"type":"Feature","geometry":{"type":"Point","coordinates":[-146.69147,64.315701]},"properties":{"id":"ora-ak-24","name":"Richardson Highway @ Birch Lake MP 307.2","state":"AK","provider":"Alaska DOT","hls":null,"snapshot":"https://511.alaska.gov/map/Cctv/128","refreshMs":30000,"attribution":"Ora (Warner Varnado) · Alaska DOT"}},{"type":"Feature","geometry":{"type":"Point","coordinates":[-143.669369,62.902909]},"properties":{"id":"ora-ak-25","name":"Tok Cutoff @ Mentasta Pass MP 79.2","state":"AK","provider":"Alaska DOT","hls":null,"snapshot":"https://511.alaska.gov/map/Cctv/132","refreshMs":30000,"attribution":"Ora (Warner Varnado) · Alaska DOT"}},{"type":"Feature","geometry":{"type":"Point","coordinates":[-145.748738,63.415446]},"properties":{"id":"ora-ak-26","name":"Richardson Highway @ Trims DOT MS MP 218.2","state":"AK","provider":"Alaska DOT","hls":null,"snapshot":"https://511.alaska.gov/map/Cctv/140","refreshMs":30000,"attribution":"Ora (Warner Varnado) · Alaska DOT"}},{"type":"Feature","geometry":{"type":"Point","coordinates":[-143.9455,63.59155]},"properties":{"id":"ora-ak-27","name":"Alaska Highway @ Dot Lake MP 1355.2","state":"AK","provider":"Alaska DOT","hls":null,"snapshot":"https://511.alaska.gov/map/Cctv/148","refreshMs":30000,"attribution":"Ora (Warner Varnado) · Alaska DOT"}},{"type":"Feature","geometry":{"type":"Point","coordinates":[-145.73279,61.128452]},"properties":{"id":"ora-ak-28","name":"Richardson Highway @ Thompson Pass MP 25.7","state":"AK","provider":"Alaska DOT","hls":null,"snapshot":"https://511.alaska.gov/map/Cctv/156","refreshMs":30000,"attribution":"Ora (Warner Varnado) · Alaska DOT"}},{"type":"Feature","geometry":{"type":"Point","coordinates":[-147.8125,64.8415]},"properties":{"id":"ora-ak-29","name":"University Avenue Fairbanks @ Chena River Bridge","state":"AK","provider":"Alaska DOT","hls":null,"snapshot":"https://511.alaska.gov/map/Cctv/165","refreshMs":30000,"attribution":"Ora (Warner Varnado) · Alaska DOT"}},{"type":"Feature","geometry":{"type":"Point","coordinates":[-147.437112,65.046871]},"properties":{"id":"ora-ak-30","name":"Steese Highway @ Cleary Summit MP 20.9","state":"AK","provider":"Alaska DOT","hls":null,"snapshot":"https://511.alaska.gov/map/Cctv/166","refreshMs":30000,"attribution":"Ora (Warner Varnado) · Alaska DOT"}},{"type":"Feature","geometry":{"type":"Point","coordinates":[-136.272708,59.439289]},"properties":{"id":"ora-ak-31","name":"Haines Highway @ Klehini MP 36.6","state":"AK","provider":"Alaska DOT","hls":null,"snapshot":"https://511.alaska.gov/map/Cctv/174","refreshMs":30000,"attribution":"Ora (Warner Varnado) · Alaska DOT"}},{"type":"Feature","geometry":{"type":"Point","coordinates":[-149.768231,62.889492]},"properties":{"id":"ora-ak-32","name":"Parks Highway @ Little Coal Creek MP 163.2","state":"AK","provider":"Alaska DOT","hls":null,"snapshot":"https://511.alaska.gov/map/Cctv/175","refreshMs":30000,"attribution":"Ora (Warner Varnado) · Alaska DOT"}},{"type":"Feature","geometry":{"type":"Point","coordinates":[-148.81304,60.790241]},"properties":{"id":"ora-ak-33","name":"Whittier Access Road @ Tunnel MP 6.5 (Bear Valley)","state":"AK","provider":"Alaska DOT","hls":null,"snapshot":"https://511.alaska.gov/map/Cctv/184","refreshMs":30000,"attribution":"Ora (Warner Varnado) · Alaska DOT"}},{"type":"Feature","geometry":{"type":"Point","coordinates":[-134.502251,58.333031]},"properties":{"id":"ora-ak-34","name":"North Douglas Highway MP 4.4","state":"AK","provider":"Alaska DOT","hls":null,"snapshot":"https://511.alaska.gov/map/Cctv/192","refreshMs":30000,"attribution":"Ora (Warner Varnado) · Alaska DOT"}},{"type":"Feature","geometry":{"type":"Point","coordinates":[-145.283504,61.260581]},"properties":{"id":"ora-ak-35","name":"Richardson Highway @ Stuart Creek MP 45.7","state":"AK","provider":"Alaska DOT","hls":null,"snapshot":"https://511.alaska.gov/map/Cctv/193","refreshMs":30000,"attribution":"Ora (Warner Varnado) · Alaska DOT"}},{"type":"Feature","geometry":{"type":"Point","coordinates":[-146.276866,64.28219]},"properties":{"id":"ora-ak-36","name":"Richardson Highway @ Tenderfoot MP 292.6","state":"AK","provider":"Alaska DOT","hls":null,"snapshot":"https://511.alaska.gov/map/Cctv/195","refreshMs":30000,"attribution":"Ora (Warner Varnado) · Alaska DOT"}},{"type":"Feature","geometry":{"type":"Point","coordinates":[-141.010619,62.621359]},"properties":{"id":"ora-ak-37","name":"Alaska Highway @ Canadian Border MP 1221.8","state":"AK","provider":"Alaska DOT","hls":null,"snapshot":"https://511.alaska.gov/map/Cctv/200","refreshMs":30000,"attribution":"Ora (Warner Varnado) · Alaska DOT"}},{"type":"Feature","geometry":{"type":"Point","coordinates":[-148.631838,64.707598]},"properties":{"id":"ora-ak-38","name":"Parks Highway @ Nenana Hills MP 325.4","state":"AK","provider":"Alaska DOT","hls":null,"snapshot":"https://511.alaska.gov/map/Cctv/208","refreshMs":30000,"attribution":"Ora (Warner Varnado) · Alaska DOT"}},{"type":"Feature","geometry":{"type":"Point","coordinates":[-148.964518,63.809683]},"properties":{"id":"ora-ak-39","name":"Parks Highway @ Antler Creek MP 244","state":"AK","provider":"Alaska DOT","hls":null,"snapshot":"https://511.alaska.gov/map/Cctv/216","refreshMs":30000,"attribution":"Ora (Warner Varnado) · Alaska DOT"}},{"type":"Feature","geometry":{"type":"Point","coordinates":[-151.064853,60.483891]},"properties":{"id":"ora-ak-40","name":"Sterling Highway & Birch St/Park","state":"AK","provider":"Alaska DOT","hls":null,"snapshot":"https://511.alaska.gov/map/Cctv/217","refreshMs":30000,"attribution":"Ora (Warner Varnado) · Alaska DOT"}},{"type":"Feature","geometry":{"type":"Point","coordinates":[-149.276766,64.218261]},"properties":{"id":"ora-ak-41","name":"Parks Highway @ Rex Bridge MP 276","state":"AK","provider":"Alaska DOT","hls":null,"snapshot":"https://511.alaska.gov/map/Cctv/218","refreshMs":30000,"attribution":"Ora (Warner Varnado) · Alaska DOT"}},{"type":"Feature","geometry":{"type":"Point","coordinates":[-145.852834,62.10634]},"properties":{"id":"ora-ak-42","name":"Glenn Highway @ MP 176.6","state":"AK","provider":"Alaska DOT","hls":null,"snapshot":"https://511.alaska.gov/map/Cctv/226","refreshMs":30000,"attribution":"Ora (Warner Varnado) · Alaska DOT"}},{"type":"Feature","geometry":{"type":"Point","coordinates":[-149.18476,60.804228]},"properties":{"id":"ora-ak-43","name":"Seward Highway @ Turnagain Pass MP 69.9","state":"AK","provider":"Alaska DOT","hls":null,"snapshot":"https://511.alaska.gov/map/Cctv/234","refreshMs":30000,"attribution":"Ora (Warner Varnado) · Alaska DOT"}},{"type":"Feature","geometry":{"type":"Point","coordinates":[-149.35293,60.25128]},"properties":{"id":"ora-ak-44","name":"Seward Highway @ Divide MP12","state":"AK","provider":"Alaska DOT","hls":null,"snapshot":"https://511.alaska.gov/map/Cctv/242","refreshMs":30000,"attribution":"Ora (Warner Varnado) · Alaska DOT"}},{"type":"Feature","geometry":{"type":"Point","coordinates":[-149.554167,60.533264]},"properties":{"id":"ora-ak-45","name":"Sterling Highway @ Tern Lake MP 37","state":"AK","provider":"Alaska DOT","hls":null,"snapshot":"https://511.alaska.gov/map/Cctv/243","refreshMs":30000,"attribution":"Ora (Warner Varnado) · Alaska DOT"}},{"type":"Feature","geometry":{"type":"Point","coordinates":[-149.396087,61.438763]},"properties":{"id":"ora-ak-46","name":"Glenn Highway @ Thunderbird Falls MP 24.5","state":"AK","provider":"Alaska DOT","hls":null,"snapshot":"https://511.alaska.gov/map/Cctv/251","refreshMs":30000,"attribution":"Ora (Warner Varnado) · Alaska DOT"}},{"type":"Feature","geometry":{"type":"Point","coordinates":[-152.459724,57.530225]},"properties":{"id":"ora-ak-47","name":"Pasagshak Road Kodiak @ MP 3.8","state":"AK","provider":"Alaska DOT","hls":null,"snapshot":"https://511.alaska.gov/map/Cctv/257","refreshMs":30000,"attribution":"Ora (Warner Varnado) · Alaska DOT"}},{"type":"Feature","geometry":{"type":"Point","coordinates":[-150.208952,60.523121]},"properties":{"id":"ora-ak-48","name":"Sterling Highway @ Jean Lake Hill MP 62.2","state":"AK","provider":"Alaska DOT","hls":null,"snapshot":"https://511.alaska.gov/map/Cctv/265","refreshMs":30000,"attribution":"Ora (Warner Varnado) · Alaska DOT"}},{"type":"Feature","geometry":{"type":"Point","coordinates":[-132.54265,56.585419]},"properties":{"id":"ora-ak-49","name":"Mitkof Highway @ Blaquiere Point MP 33","state":"AK","provider":"Alaska DOT","hls":null,"snapshot":"https://511.alaska.gov/map/Cctv/266","refreshMs":30000,"attribution":"Ora (Warner Varnado) · Alaska DOT"}},{"type":"Feature","geometry":{"type":"Point","coordinates":[-132.65496,56.55018]},"properties":{"id":"ora-ak-50","name":"Mitkof Highway @ Banana Point 27.4","state":"AK","provider":"Alaska DOT","hls":null,"snapshot":"https://511.alaska.gov/map/Cctv/268","refreshMs":30000,"attribution":"Ora (Warner Varnado) · Alaska DOT"}},{"type":"Feature","geometry":{"type":"Point","coordinates":[-145.934595,61.059403]},"properties":{"id":"ora-ak-51","name":"Richardson Highway @ Keystone Canyon MP 12.3","state":"AK","provider":"Alaska DOT","hls":null,"snapshot":"https://511.alaska.gov/map/Cctv/269","refreshMs":30000,"attribution":"Ora (Warner Varnado) · Alaska DOT"}},{"type":"Feature","geometry":{"type":"Point","coordinates":[-148.726101,60.77614]},"properties":{"id":"ora-ak-52","name":"Camp Road @ Whittier Tunnel","state":"AK","provider":"Alaska DOT","hls":null,"snapshot":"https://511.alaska.gov/map/Cctv/277","refreshMs":30000,"attribution":"Ora (Warner Varnado) · Alaska DOT"}},{"type":"Feature","geometry":{"type":"Point","coordinates":[-149.250609,61.54686]},"properties":{"id":"ora-ak-53","name":"Glenn Highway @ MP 34.5","state":"AK","provider":"Alaska DOT","hls":null,"snapshot":"https://511.alaska.gov/map/Cctv/285","refreshMs":30000,"attribution":"Ora (Warner Varnado) · Alaska DOT"}},{"type":"Feature","geometry":{"type":"Point","coordinates":[-149.247159,61.553523]},"properties":{"id":"ora-ak-54","name":"Parks / Glenn Hwy Interchange","state":"AK","provider":"Alaska DOT","hls":null,"snapshot":"https://511.alaska.gov/map/Cctv/293","refreshMs":30000,"attribution":"Ora (Warner Varnado) · Alaska DOT"}},{"type":"Feature","geometry":{"type":"Point","coordinates":[-149.244717,61.554022]},"properties":{"id":"ora-ak-55","name":"Glenn Highway @ MP 35.2","state":"AK","provider":"Alaska DOT","hls":null,"snapshot":"https://511.alaska.gov/map/Cctv/301","refreshMs":30000,"attribution":"Ora (Warner Varnado) · Alaska DOT"}},{"type":"Feature","geometry":{"type":"Point","coordinates":[-149.829526,61.076423]},"properties":{"id":"ora-ak-56","name":"Seward Highway @ Potter Marsh MP 117.3","state":"AK","provider":"Alaska DOT","hls":null,"snapshot":"https://511.alaska.gov/map/Cctv/309","refreshMs":30000,"attribution":"Ora (Warner Varnado) · Alaska DOT"}},{"type":"Feature","geometry":{"type":"Point","coordinates":[-149.8151,61.2193]},"properties":{"id":"ora-ak-57","name":"Glenn Highway @ Bragaw","state":"AK","provider":"Alaska DOT","hls":null,"snapshot":"https://511.alaska.gov/map/Cctv/312","refreshMs":30000,"attribution":"Ora (Warner Varnado) · Alaska DOT"}},{"type":"Feature","geometry":{"type":"Point","coordinates":[-134.3748,58.2828]},"properties":{"id":"ora-ak-58","name":"Thane Road @ Snowslide Creek Avalanche Path MP 1.9","state":"AK","provider":"Alaska DOT","hls":null,"snapshot":"https://511.alaska.gov/map/Cctv/315","refreshMs":30000,"attribution":"Ora (Warner Varnado) · Alaska DOT"}},{"type":"Feature","geometry":{"type":"Point","coordinates":[-151.057212,60.486456]},"properties":{"id":"ora-ak-59","name":"Sterling Hwy & Kenai Spur Hwy","state":"AK","provider":"Alaska DOT","hls":null,"snapshot":"https://511.alaska.gov/map/Cctv/323","refreshMs":30000,"attribution":"Ora (Warner Varnado) · Alaska DOT"}},{"type":"Feature","geometry":{"type":"Point","coordinates":[-134.369739,58.2812]},"properties":{"id":"ora-ak-60","name":"Thane Road @ Snowslide Creek Avalanche Path MP 2.2","state":"AK","provider":"Alaska DOT","hls":null,"snapshot":"https://511.alaska.gov/map/Cctv/325","refreshMs":30000,"attribution":"Ora (Warner Varnado) · Alaska DOT"}},{"type":"Feature","geometry":{"type":"Point","coordinates":[-134.363908,58.279335]},"properties":{"id":"ora-ak-61","name":"Thane Road @ Middle Pass MP 2.5","state":"AK","provider":"Alaska DOT","hls":null,"snapshot":"https://511.alaska.gov/map/Cctv/326","refreshMs":30000,"attribution":"Ora (Warner Varnado) · Alaska DOT"}},{"type":"Feature","geometry":{"type":"Point","coordinates":[-134.353261,58.27399]},"properties":{"id":"ora-ak-62","name":"Thane Road @ Cross Bay MP 3.0","state":"AK","provider":"Alaska DOT","hls":null,"snapshot":"https://511.alaska.gov/map/Cctv/327","refreshMs":30000,"attribution":"Ora (Warner Varnado) · Alaska DOT"}},{"type":"Feature","geometry":{"type":"Point","coordinates":[-147.7104,64.8353]},"properties":{"id":"ora-ak-63","name":"Airport Way @ Eielson Street","state":"AK","provider":"Alaska DOT","hls":null,"snapshot":"https://511.alaska.gov/map/Cctv/328","refreshMs":30000,"attribution":"Ora (Warner Varnado) · Alaska DOT"}},{"type":"Feature","geometry":{"type":"Point","coordinates":[-147.5728,64.8105]},"properties":{"id":"ora-ak-64","name":"Badger Road @ Old Richardson Highway","state":"AK","provider":"Alaska DOT","hls":null,"snapshot":"https://511.alaska.gov/map/Cctv/336","refreshMs":30000,"attribution":"Ora (Warner Varnado) · Alaska DOT"}},{"type":"Feature","geometry":{"type":"Point","coordinates":[-147.739218,64.836853]},"properties":{"id":"ora-ak-65","name":"Airport Way @ Cowles Street Fairbanks","state":"AK","provider":"Alaska DOT","hls":null,"snapshot":"https://511.alaska.gov/map/Cctv/343","refreshMs":30000,"attribution":"Ora (Warner Varnado) · Alaska DOT"}},{"type":"Feature","geometry":{"type":"Point","coordinates":[-147.744991,64.828286]},"properties":{"id":"ora-ak-66","name":"Lathrop Street @ 21st Avenue Fairbanks","state":"AK","provider":"Alaska DOT","hls":null,"snapshot":"https://511.alaska.gov/map/Cctv/351","refreshMs":30000,"attribution":"Ora (Warner Varnado) · Alaska DOT"}},{"type":"Feature","geometry":{"type":"Point","coordinates":[-147.349962,64.770751]},"properties":{"id":"ora-ak-67","name":"Badger Road @ Elvira Avenue","state":"AK","provider":"Alaska DOT","hls":null,"snapshot":"https://511.alaska.gov/map/Cctv/359","refreshMs":30000,"attribution":"Ora (Warner Varnado) · Alaska DOT"}},{"type":"Feature","geometry":{"type":"Point","coordinates":[-132.87799,55.694]},"properties":{"id":"ora-ak-68","name":"Klawock Hwy @ Control Lake","state":"AK","provider":"Alaska DOT","hls":null,"snapshot":"https://511.alaska.gov/map/Cctv/366","refreshMs":30000,"attribution":"Ora (Warner Varnado) · Alaska DOT"}},{"type":"Feature","geometry":{"type":"Point","coordinates":[-132.84125,55.45805]},"properties":{"id":"ora-ak-69","name":"Hollis Highway","state":"AK","provider":"Alaska DOT","hls":null,"snapshot":"https://511.alaska.gov/map/Cctv/374","refreshMs":30000,"attribution":"Ora (Warner Varnado) · Alaska DOT"}},{"type":"Feature","geometry":{"type":"Point","coordinates":[-147.653931,64.943933]},"properties":{"id":"ora-ak-70","name":"Goldstream Road @ Old Steese Hwy","state":"AK","provider":"Alaska DOT","hls":null,"snapshot":"https://511.alaska.gov/map/Cctv/382","refreshMs":30000,"attribution":"Ora (Warner Varnado) · Alaska DOT"}},{"type":"Feature","geometry":{"type":"Point","coordinates":[-147.8686,64.8173]},"properties":{"id":"ora-ak-71","name":"Fairbanks International Airport","state":"AK","provider":"Alaska DOT","hls":null,"snapshot":"https://511.alaska.gov/map/Cctv/389","refreshMs":30000,"attribution":"Ora (Warner Varnado) · Alaska DOT"}},{"type":"Feature","geometry":{"type":"Point","coordinates":[-147.830188,64.900824]},"properties":{"id":"ora-ak-72","name":"Ballaine Road near Red Fox Drive","state":"AK","provider":"Alaska DOT","hls":null,"snapshot":"https://511.alaska.gov/map/Cctv/390","refreshMs":30000,"attribution":"Ora (Warner Varnado) · Alaska DOT"}},{"type":"Feature","geometry":{"type":"Point","coordinates":[-147.132182,64.692328]},"properties":{"id":"ora-ak-73","name":"Eielson AFB Main Gate @ Richardson Hwy","state":"AK","provider":"Alaska DOT","hls":null,"snapshot":"https://511.alaska.gov/map/Cctv/395","refreshMs":30000,"attribution":"Ora (Warner Varnado) · Alaska DOT"}},{"type":"Feature","geometry":{"type":"Point","coordinates":[-145.4834124,61.2079304]},"properties":{"id":"ora-ak-74","name":"Richardson Highway @ Tsina River MP 37","state":"AK","provider":"Alaska DOT","hls":null,"snapshot":"https://511.alaska.gov/map/Cctv/398","refreshMs":30000,"attribution":"Ora (Warner Varnado) · Alaska DOT"}},{"type":"Feature","geometry":{"type":"Point","coordinates":[-149.393218,60.949519]},"properties":{"id":"ora-ak-75","name":"Seward Highway @ MP 98.5","state":"AK","provider":"Alaska DOT","hls":null,"snapshot":"https://511.alaska.gov/map/Cctv/406","refreshMs":30000,"attribution":"Ora (Warner Varnado) · Alaska DOT"}},{"type":"Feature","geometry":{"type":"Point","coordinates":[-147.369992,64.884396]},"properties":{"id":"ora-ak-76","name":"Chena Hot Springs @ Roberts Roost Rd","state":"AK","provider":"Alaska DOT","hls":null,"snapshot":"https://511.alaska.gov/map/Cctv/408","refreshMs":30000,"attribution":"Ora (Warner Varnado) · Alaska DOT"}},{"type":"Feature","geometry":{"type":"Point","coordinates":[-149.247004,61.765153]},"properties":{"id":"ora-ak-77","name":"Hatcher Pass @ MP 15","state":"AK","provider":"Alaska DOT","hls":null,"snapshot":"https://511.alaska.gov/map/Cctv/412","refreshMs":30000,"attribution":"Ora (Warner Varnado) · Alaska DOT"}},{"type":"Feature","geometry":{"type":"Point","coordinates":[-142.180215,63.199797]},"properties":{"id":"ora-ak-78","name":"Alaska Highway MP 1285","state":"AK","provider":"Alaska DOT","hls":null,"snapshot":"https://511.alaska.gov/map/Cctv/414","refreshMs":30000,"attribution":"Ora (Warner Varnado) · Alaska DOT"}},{"type":"Feature","geometry":{"type":"Point","coordinates":[-144.947914,62.432327]},"properties":{"id":"ora-ak-79","name":"Tok Cutoff @ MP 18.5","state":"AK","provider":"Alaska DOT","hls":null,"snapshot":"https://511.alaska.gov/map/Cctv/416","refreshMs":30000,"attribution":"Ora (Warner Varnado) · Alaska DOT"}},{"type":"Feature","geometry":{"type":"Point","coordinates":[-147.674865,61.791121]},"properties":{"id":"ora-ak-80","name":"Glenn Highway @ MP 106","state":"AK","provider":"Alaska DOT","hls":null,"snapshot":"https://511.alaska.gov/map/Cctv/418","refreshMs":30000,"attribution":"Ora (Warner Varnado) · Alaska DOT"}},{"type":"Feature","geometry":{"type":"Point","coordinates":[-149.51233,68.12538]},"properties":{"id":"ora-ak-81","name":"Dalton Hwy @ Atigun Pass MP 244","state":"AK","provider":"Alaska DOT","hls":null,"snapshot":"https://511.alaska.gov/map/Cctv/420","refreshMs":30000,"attribution":"Ora (Warner Varnado) · Alaska DOT"}},{"type":"Feature","geometry":{"type":"Point","coordinates":[-149.733541,61.209735]},"properties":{"id":"ora-ak-82","name":"Debarr & Muldoon","state":"AK","provider":"Alaska DOT","hls":null,"snapshot":"https://511.alaska.gov/map/Cctv/424","refreshMs":30000,"attribution":"Ora (Warner Varnado) · Alaska DOT"}},{"type":"Feature","geometry":{"type":"Point","coordinates":[-149.863749,61.123067]},"properties":{"id":"ora-ak-83","name":"O'Malley & Old Seward Hwy","state":"AK","provider":"Alaska DOT","hls":null,"snapshot":"https://511.alaska.gov/map/Cctv/425","refreshMs":30000,"attribution":"Ora (Warner Varnado) · Alaska DOT"}},{"type":"Feature","geometry":{"type":"Point","coordinates":[-149.778406,61.180749]},"properties":{"id":"ora-ak-84","name":"Boniface & Tudor","state":"AK","provider":"Alaska DOT","hls":null,"snapshot":"https://511.alaska.gov/map/Cctv/426","refreshMs":30000,"attribution":"Ora (Warner Varnado) · Alaska DOT"}},{"type":"Feature","geometry":{"type":"Point","coordinates":[-149.148249,61.57073]},"properties":{"id":"ora-ak-85","name":"Glenn Hwy & S Inner Springer Loop/Claire","state":"AK","provider":"Alaska DOT","hls":null,"snapshot":"https://511.alaska.gov/map/Cctv/427","refreshMs":30000,"attribution":"Ora (Warner Varnado) · Alaska DOT"}},{"type":"Feature","geometry":{"type":"Point","coordinates":[-151.544286,59.641436]},"properties":{"id":"ora-ak-86","name":"Sterling Hwy & Main St","state":"AK","provider":"Alaska DOT","hls":null,"snapshot":"https://511.alaska.gov/map/Cctv/428","refreshMs":30000,"attribution":"Ora (Warner Varnado) · Alaska DOT"}},{"type":"Feature","geometry":{"type":"Point","coordinates":[-149.868062,61.195302]},"properties":{"id":"ora-ak-87","name":"New Seward Hwy & Northern Lights","state":"AK","provider":"Alaska DOT","hls":null,"snapshot":"https://511.alaska.gov/map/Cctv/429","refreshMs":30000,"attribution":"Ora (Warner Varnado) · Alaska DOT"}},{"type":"Feature","geometry":{"type":"Point","coordinates":[-149.778445,61.209744]},"properties":{"id":"ora-ak-88","name":"Boniface & Debarr","state":"AK","provider":"Alaska DOT","hls":null,"snapshot":"https://511.alaska.gov/map/Cctv/432","refreshMs":30000,"attribution":"Ora (Warner Varnado) · Alaska DOT"}},{"type":"Feature","geometry":{"type":"Point","coordinates":[-149.12246,61.599429]},"properties":{"id":"ora-ak-89","name":"Glenn Hwy & Palmer Wasilla Hwy / Evergreen Rd","state":"AK","provider":"Alaska DOT","hls":null,"snapshot":"https://511.alaska.gov/map/Cctv/433","refreshMs":30000,"attribution":"Ora (Warner Varnado) · Alaska DOT"}},{"type":"Feature","geometry":{"type":"Point","coordinates":[-149.838131,61.180877]},"properties":{"id":"ora-ak-90","name":"Lake Otis & Tudor","state":"AK","provider":"Alaska DOT","hls":null,"snapshot":"https://511.alaska.gov/map/Cctv/436","refreshMs":30000,"attribution":"Ora (Warner Varnado) · Alaska DOT"}},{"type":"Feature","geometry":{"type":"Point","coordinates":[-149.943475,61.173817]},"properties":{"id":"ora-ak-91","name":"International Airport & Jewel Lake/Spenard","state":"AK","provider":"Alaska DOT","hls":null,"snapshot":"https://511.alaska.gov/map/Cctv/437","refreshMs":30000,"attribution":"Ora (Warner Varnado) · Alaska DOT"}},{"type":"Feature","geometry":{"type":"Point","coordinates":[-149.778377,61.195257]},"properties":{"id":"ora-ak-92","name":"Boniface & Northern Lights","state":"AK","provider":"Alaska DOT","hls":null,"snapshot":"https://511.alaska.gov/map/Cctv/439","refreshMs":30000,"attribution":"Ora (Warner Varnado) · Alaska DOT"}},{"type":"Feature","geometry":{"type":"Point","coordinates":[-151.544387,59.63819]},"properties":{"id":"ora-ak-93","name":"Kachemak Bay at end of Main St","state":"AK","provider":"Alaska DOT","hls":null,"snapshot":"https://511.alaska.gov/map/Cctv/440","refreshMs":30000,"attribution":"Ora (Warner Varnado) · Alaska DOT"}},{"type":"Feature","geometry":{"type":"Point","coordinates":[-151.084417,60.474899]},"properties":{"id":"ora-ak-94","name":"Sterling Hwy & Kalifornsky Beach Rd","state":"AK","provider":"Alaska DOT","hls":null,"snapshot":"https://511.alaska.gov/map/Cctv/441","refreshMs":30000,"attribution":"Ora (Warner Varnado) · Alaska DOT"}},{"type":"Feature","geometry":{"type":"Point","coordinates":[-149.868176,61.180779]},"properties":{"id":"ora-ak-95","name":"Old Seward & Tudor","state":"AK","provider":"Alaska DOT","hls":null,"snapshot":"https://511.alaska.gov/map/Cctv/442","refreshMs":30000,"attribution":"Ora (Warner Varnado) · Alaska DOT"}},{"type":"Feature","geometry":{"type":"Point","coordinates":[-151.524764,59.642368]},"properties":{"id":"ora-ak-96","name":"Sterling Hwy & Lake St","state":"AK","provider":"Alaska DOT","hls":null,"snapshot":"https://511.alaska.gov/map/Cctv/444","refreshMs":30000,"attribution":"Ora (Warner Varnado) · Alaska DOT"}},{"type":"Feature","geometry":{"type":"Point","coordinates":[-149.808276,61.180812]},"properties":{"id":"ora-ak-97","name":"Elmore & Tudor","state":"AK","provider":"Alaska DOT","hls":null,"snapshot":"https://511.alaska.gov/map/Cctv/445","refreshMs":30000,"attribution":"Ora (Warner Varnado) · Alaska DOT"}},{"type":"Feature","geometry":{"type":"Point","coordinates":[-149.733504,61.195298]},"properties":{"id":"ora-ak-98","name":"Muldoon & Northern Lights Blvd","state":"AK","provider":"Alaska DOT","hls":null,"snapshot":"https://511.alaska.gov/map/Cctv/447","refreshMs":30000,"attribution":"Ora (Warner Varnado) · Alaska DOT"}},{"type":"Feature","geometry":{"type":"Point","coordinates":[-149.865291,61.188086]},"properties":{"id":"ora-ak-99","name":"36th & New Seward Hwy","state":"AK","provider":"Alaska DOT","hls":null,"snapshot":"https://511.alaska.gov/map/Cctv/448","refreshMs":30000,"attribution":"Ora (Warner Varnado) · Alaska DOT"}},{"type":"Feature","geometry":{"type":"Point","coordinates":[-149.826598,61.217554]},"properties":{"id":"ora-ak-100","name":"5th Avenue / Glenn Hwy & Airport Heights","state":"AK","provider":"Alaska DOT","hls":null,"snapshot":"https://511.alaska.gov/map/Cctv/449","refreshMs":30000,"attribution":"Ora (Warner Varnado) · Alaska DOT"}},{"type":"Feature","geometry":{"type":"Point","coordinates":[-149.836675,61.217521]},"properties":{"id":"ora-ak-101","name":"5th Avenue & Reeve Blvd","state":"AK","provider":"Alaska DOT","hls":null,"snapshot":"https://511.alaska.gov/map/Cctv/451","refreshMs":30000,"attribution":"Ora (Warner Varnado) · Alaska DOT"}},{"type":"Feature","geometry":{"type":"Point","coordinates":[-149.429696,61.580561]},"properties":{"id":"ora-ak-102","name":"Parks Hwy & Crusey St","state":"AK","provider":"Alaska DOT","hls":null,"snapshot":"https://511.alaska.gov/map/Cctv/452","refreshMs":30000,"attribution":"Ora (Warner Varnado) · Alaska DOT"}},{"type":"Feature","geometry":{"type":"Point","coordinates":[-151.52127,59.641592]},"properties":{"id":"ora-ak-103","name":"Beluga Lake, Homer","state":"AK","provider":"Alaska DOT","hls":null,"snapshot":"https://511.alaska.gov/map/Cctv/453","refreshMs":30000,"attribution":"Ora (Warner Varnado) · Alaska DOT"}},{"type":"Feature","geometry":{"type":"Point","coordinates":[-149.91312,61.193658]},"properties":{"id":"ora-ak-104","name":"Benson & Minnesota","state":"AK","provider":"Alaska DOT","hls":null,"snapshot":"https://511.alaska.gov/map/Cctv/454","refreshMs":30000,"attribution":"Ora (Warner Varnado) · Alaska DOT"}},{"type":"Feature","geometry":{"type":"Point","coordinates":[-149.88655,61.16667]},"properties":{"id":"ora-ak-105","name":"C St & Dowling","state":"AK","provider":"Alaska DOT","hls":null,"snapshot":"https://511.alaska.gov/map/Cctv/455","refreshMs":30000,"attribution":"Ora (Warner Varnado) · Alaska DOT"}},{"type":"Feature","geometry":{"type":"Point","coordinates":[-149.808965,61.167108]},"properties":{"id":"ora-ak-106","name":"Dowling & Elmore","state":"AK","provider":"Alaska DOT","hls":null,"snapshot":"https://511.alaska.gov/map/Cctv/456","refreshMs":30000,"attribution":"Ora (Warner Varnado) · Alaska DOT"}},{"type":"Feature","geometry":{"type":"Point","coordinates":[-149.409608,61.576942]},"properties":{"id":"ora-ak-107","name":"Parks Hwy & Palmer Wasilla Hwy","state":"AK","provider":"Alaska DOT","hls":null,"snapshot":"https://511.alaska.gov/map/Cctv/457","refreshMs":30000,"attribution":"Ora (Warner Varnado) · Alaska DOT"}},{"type":"Feature","geometry":{"type":"Point","coordinates":[-149.808235,61.177229]},"properties":{"id":"ora-ak-108","name":"Elmore & MLK","state":"AK","provider":"Alaska DOT","hls":null,"snapshot":"https://511.alaska.gov/map/Cctv/458","refreshMs":30000,"attribution":"Ora (Warner Varnado) · Alaska DOT"}},{"type":"Feature","geometry":{"type":"Point","coordinates":[-151.241097,60.552707]},"properties":{"id":"ora-ak-109","name":"Lower Kenai River from KSH & Bridge Access","state":"AK","provider":"Alaska DOT","hls":null,"snapshot":"https://511.alaska.gov/map/Cctv/459","refreshMs":30000,"attribution":"Ora (Warner Varnado) · Alaska DOT"}},{"type":"Feature","geometry":{"type":"Point","coordinates":[-149.130356,61.585115]},"properties":{"id":"ora-ak-110","name":"Glenn Hwy & E Inner Springer lp/Jay St","state":"AK","provider":"Alaska DOT","hls":null,"snapshot":"https://511.alaska.gov/map/Cctv/461","refreshMs":30000,"attribution":"Ora (Warner Varnado) · Alaska DOT"}},{"type":"Feature","geometry":{"type":"Point","coordinates":[-149.238058,61.599396]},"properties":{"id":"ora-ak-111","name":"Palmer Wasilla Hwy & Trunk Rd","state":"AK","provider":"Alaska DOT","hls":null,"snapshot":"https://511.alaska.gov/map/Cctv/463","refreshMs":30000,"attribution":"Ora (Warner Varnado) · Alaska DOT"}},{"type":"Feature","geometry":{"type":"Point","coordinates":[-149.913129,61.195311]},"properties":{"id":"ora-ak-112","name":"Minnesota & Northern Lights","state":"AK","provider":"Alaska DOT","hls":null,"snapshot":"https://511.alaska.gov/map/Cctv/466","refreshMs":30000,"attribution":"Ora (Warner Varnado) · Alaska DOT"}},{"type":"Feature","geometry":{"type":"Point","coordinates":[-149.724209,61.575468]},"properties":{"id":"ora-ak-113","name":"Parks Hwy & Big Lake Rd","state":"AK","provider":"Alaska DOT","hls":null,"snapshot":"https://511.alaska.gov/map/Cctv/467","refreshMs":30000,"attribution":"Ora (Warner Varnado) · Alaska DOT"}},{"type":"Feature","geometry":{"type":"Point","coordinates":[-149.118472,61.606666]},"properties":{"id":"ora-ak-114","name":"Glenn Hwy & Arctic St","state":"AK","provider":"Alaska DOT","hls":null,"snapshot":"https://511.alaska.gov/map/Cctv/472","refreshMs":30000,"attribution":"Ora (Warner Varnado) · Alaska DOT"}},{"type":"Feature","geometry":{"type":"Point","coordinates":[-149.444275,61.5700378]},"properties":{"id":"ora-ak-115","name":"Knik Goose Bay Rd & Palmer Wasilla Hwy","state":"AK","provider":"Alaska DOT","hls":null,"snapshot":"https://511.alaska.gov/map/Cctv/473","refreshMs":30000,"attribution":"Ora (Warner Varnado) · Alaska DOT"}},{"type":"Feature","geometry":{"type":"Point","coordinates":[-149.53068,61.550278]},"properties":{"id":"ora-ak-116","name":"KGB & Clapp","state":"AK","provider":"Alaska DOT","hls":null,"snapshot":"https://511.alaska.gov/map/Cctv/475","refreshMs":30000,"attribution":"Ora (Warner Varnado) · Alaska DOT"}},{"type":"Feature","geometry":{"type":"Point","coordinates":[-147.8520050049,64.8430175781]},"properties":{"id":"ora-ak-117","name":"Parks 357 DMS Inbound","state":"AK","provider":"Alaska DOT","hls":null,"snapshot":"https://511.alaska.gov/map/Cctv/476","refreshMs":30000,"attribution":"Ora (Warner Varnado) · Alaska DOT"}},{"type":"Feature","geometry":{"type":"Point","coordinates":[-147.6191101074,64.814453125]},"properties":{"id":"ora-ak-118","name":"Rich Hwy 358 Weigh Station DMS Inbound","state":"AK","provider":"Alaska DOT","hls":null,"snapshot":"https://511.alaska.gov/map/Cctv/477","refreshMs":30000,"attribution":"Ora (Warner Varnado) · Alaska DOT"}},{"type":"Feature","geometry":{"type":"Point","coordinates":[-147.6191101074,64.814453125]},"properties":{"id":"ora-ak-119","name":"Rich Hwy 358 Weigh Station DMS Outbound","state":"AK","provider":"Alaska DOT","hls":null,"snapshot":"https://511.alaska.gov/map/Cctv/478","refreshMs":30000,"attribution":"Ora (Warner Varnado) · Alaska DOT"}},{"type":"Feature","geometry":{"type":"Point","coordinates":[-147.8520050049,64.8430175781]},"properties":{"id":"ora-ak-120","name":"Parks 357 DMS Outbound","state":"AK","provider":"Alaska DOT","hls":null,"snapshot":"https://511.alaska.gov/map/Cctv/479","refreshMs":30000,"attribution":"Ora (Warner Varnado) · Alaska DOT"}},{"type":"Feature","geometry":{"type":"Point","coordinates":[-151.204231,60.517659]},"properties":{"id":"ora-ak-121","name":"Kalifornski Beach Rd & Bridge Access","state":"AK","provider":"Alaska DOT","hls":null,"snapshot":"https://511.alaska.gov/map/Cctv/488","refreshMs":30000,"attribution":"Ora (Warner Varnado) · Alaska DOT"}},{"type":"Feature","geometry":{"type":"Point","coordinates":[-151.206568,60.522266]},"properties":{"id":"ora-ak-122","name":"Kenai River from KGB","state":"AK","provider":"Alaska DOT","hls":null,"snapshot":"https://511.alaska.gov/map/Cctv/489","refreshMs":30000,"attribution":"Ora (Warner Varnado) · Alaska DOT"}}]}