{"type":"FeatureCollection","features":[{"type":"Feature","geometry":{"type":"Point","coordinates":[-85.650625,38.291639]},"properties":{"id":"ora-ky-0","name":"I-71 at I-264","state":"KY","provider":"Kentucky DOT","hls":null,"snapshot":"https://www.trimarc.org/images/milestone/CCTV_05_71_0048.jpg","refreshMs":30000,"attribution":"Ora (Warner Varnado) · Kentucky DOT"}},{"type":"Feature","geometry":{"type":"Point","coordinates":[-85.723783,38.262228]},"properties":{"id":"ora-ky-1","name":"I-71 at Frankfort Ave.","state":"KY","provider":"Kentucky DOT","hls":null,"snapshot":"https://www.trimarc.org/images/milestone/CCTV_05_71_0001.jpg","refreshMs":30000,"attribution":"Ora (Warner Varnado) · Kentucky DOT"}},{"type":"Feature","geometry":{"type":"Point","coordinates":[-85.829481,38.188042]},"properties":{"id":"ora-ky-2","name":"I-264 W. of Dixie Hwy.; E. of Crums Ln.","state":"KY","provider":"Kentucky DOT","hls":null,"snapshot":"https://www.trimarc.org/images/milestone/CCTV_05_264_0065.jpg","refreshMs":30000,"attribution":"Ora (Warner Varnado) · Kentucky DOT"}},{"type":"Feature","geometry":{"type":"Point","coordinates":[-85.828858,38.195394]},"properties":{"id":"ora-ky-3","name":"I-264 at Crums Ln.","state":"KY","provider":"Kentucky DOT","hls":null,"snapshot":"https://www.trimarc.org/images/milestone/CCTV_05_264_0060.jpg","refreshMs":30000,"attribution":"Ora (Warner Varnado) · Kentucky DOT"}},{"type":"Feature","geometry":{"type":"Point","coordinates":[-85.8151,38.240939]},"properties":{"id":"ora-ky-4","name":"I-264 at Virginia Ave./Dumesnil St.","state":"KY","provider":"Kentucky DOT","hls":null,"snapshot":"https://www.trimarc.org/images/milestone/CCTV_05_264_0027.jpg","refreshMs":30000,"attribution":"Ora (Warner Varnado) · Kentucky DOT"}},{"type":"Feature","geometry":{"type":"Point","coordinates":[-85.807478,38.267431]},"properties":{"id":"ora-ky-5","name":"I-264 at Bank St.","state":"KY","provider":"Kentucky DOT","hls":null,"snapshot":"https://www.trimarc.org/images/milestone/CCTV_05_264_0007.jpg","refreshMs":30000,"attribution":"Ora (Warner Varnado) · Kentucky DOT"}},{"type":"Feature","geometry":{"type":"Point","coordinates":[-85.806503,38.276903]},"properties":{"id":"ora-ky-6","name":"I-64 at I-264","state":"KY","provider":"Kentucky DOT","hls":null,"snapshot":"https://www.trimarc.org/images/milestone/CCTV_05_64_0012.jpg","refreshMs":30000,"attribution":"Ora (Warner Varnado) · Kentucky DOT"}},{"type":"Feature","geometry":{"type":"Point","coordinates":[-85.764833,38.258167]},"properties":{"id":"ora-ky-7","name":"I-64 at Frazier Museum","state":"KY","provider":"Kentucky DOT","hls":null,"snapshot":"https://www.trimarc.org/images/milestone/CCTV_05_64_0041.jpg","refreshMs":30000,"attribution":"Ora (Warner Varnado) · Kentucky DOT"}},{"type":"Feature","geometry":{"type":"Point","coordinates":[-85.765167,38.256016]},"properties":{"id":"ora-ky-8","name":"Intersection of 9th St & Market St","state":"KY","provider":"Kentucky DOT","hls":null,"snapshot":"https://www.trimarc.org/images/milestone/CCTV_05_9th_&_Market.jpg","refreshMs":30000,"attribution":"Ora (Warner Varnado) · Kentucky DOT"}},{"type":"Feature","geometry":{"type":"Point","coordinates":[-85.75339,38.25618]},"properties":{"id":"ora-ky-9","name":"2nd and Main","state":"KY","provider":"Kentucky DOT","hls":null,"snapshot":"https://www.trimarc.org/images/milestone/CCTV_05_2nd_&_Main.jpg","refreshMs":30000,"attribution":"Ora (Warner Varnado) · Kentucky DOT"}},{"type":"Feature","geometry":{"type":"Point","coordinates":[-83.64847,37.78989]},"properties":{"id":"ora-ky-10","name":"Mountain Pkwy near Slade","state":"KY","provider":"Kentucky DOT","hls":null,"snapshot":"https://www.trimarc.org/images/milestone/CCTV_10_MtnP_0364.jpg","refreshMs":30000,"attribution":"Ora (Warner Varnado) · Kentucky DOT"}},{"type":"Feature","geometry":{"type":"Point","coordinates":[-85.719869,38.178044]},"properties":{"id":"ora-ky-11","name":"I-65 at Grade Ln.","state":"KY","provider":"Kentucky DOT","hls":null,"snapshot":"https://www.trimarc.org/images/milestone/CCTV_05_65_1297.jpg","refreshMs":30000,"attribution":"Ora (Warner Varnado) · Kentucky DOT"}},{"type":"Feature","geometry":{"type":"Point","coordinates":[-82.64903,37.15974]},"properties":{"id":"ora-ky-12","name":"US 23 MP 1.1 @ US 119","state":"KY","provider":"Kentucky DOT","hls":null,"snapshot":"https://www.trimarc.org/images/milestone/CCTV_12_US23_0011.jpg","refreshMs":30000,"attribution":"Ora (Warner Varnado) · Kentucky DOT"}},{"type":"Feature","geometry":{"type":"Point","coordinates":[-83.556034,38.183649]},"properties":{"id":"ora-ky-13","name":"I-64 MP 133 @ KY 801","state":"KY","provider":"Kentucky DOT","hls":null,"snapshot":"https://www.trimarc.org/images/milestone/CCTV_09_64_1330.jpg","refreshMs":30000,"attribution":"Ora (Warner Varnado) · Kentucky DOT"}},{"type":"Feature","geometry":{"type":"Point","coordinates":[-83.786774,38.683252]},"properties":{"id":"ora-ky-14","name":"US 68 MP 18 @ Ohio River Brdg Maysville","state":"KY","provider":"Kentucky DOT","hls":null,"snapshot":"https://www.trimarc.org/images/milestone/CCTV_09_US68_0180.jpg","refreshMs":30000,"attribution":"Ora (Warner Varnado) · Kentucky DOT"}},{"type":"Feature","geometry":{"type":"Point","coordinates":[-85.88072,37.48138]},"properties":{"id":"ora-ky-15","name":"I-65 MP 77.5","state":"KY","provider":"Kentucky DOT","hls":null,"snapshot":"https://www.trimarc.org/images/milestone/CCTV_04_65_0775.jpg","refreshMs":30000,"attribution":"Ora (Warner Varnado) · Kentucky DOT"}},{"type":"Feature","geometry":{"type":"Point","coordinates":[-85.52121,37.77728]},"properties":{"id":"ora-ky-16","name":"Bluegrass Pkwy MP 18.5","state":"KY","provider":"Kentucky DOT","hls":null,"snapshot":"https://www.trimarc.org/images/milestone/CCTV_04_BP_0185.jpg","refreshMs":30000,"attribution":"Ora (Warner Varnado) · Kentucky DOT"}},{"type":"Feature","geometry":{"type":"Point","coordinates":[-85.541224,38.330691]},"properties":{"id":"ora-ky-17","name":"I-71 North of I-265 @ 11.6 MM","state":"KY","provider":"Kentucky DOT","hls":null,"snapshot":"https://www.trimarc.org/images/milestone/CCTV_05_71_0116.jpg","refreshMs":30000,"attribution":"Ora (Warner Varnado) · Kentucky DOT"}},{"type":"Feature","geometry":{"type":"Point","coordinates":[-85.618429,38.251788]},"properties":{"id":"ora-ky-18","name":"I-264 at Shelbyville Rd","state":"KY","provider":"Kentucky DOT","hls":null,"snapshot":"https://www.trimarc.org/images/milestone/CCTV_05_264_0199.jpg","refreshMs":30000,"attribution":"Ora (Warner Varnado) · Kentucky DOT"}},{"type":"Feature","geometry":{"type":"Point","coordinates":[-88.612239,37.026195]},"properties":{"id":"ora-ky-19","name":"I-24 MP 9.6","state":"KY","provider":"Kentucky DOT","hls":null,"snapshot":"https://www.trimarc.org/images/milestone/CCTV_01_24_0096.jpg","refreshMs":30000,"attribution":"Ora (Warner Varnado) · Kentucky DOT"}},{"type":"Feature","geometry":{"type":"Point","coordinates":[-88.654947,37.058328]},"properties":{"id":"ora-ky-20","name":"I-24 MP 6.4","state":"KY","provider":"Kentucky DOT","hls":null,"snapshot":"https://www.trimarc.org/images/milestone/CCTV_01_24_0064.jpg","refreshMs":30000,"attribution":"Ora (Warner Varnado) · Kentucky DOT"}},{"type":"Feature","geometry":{"type":"Point","coordinates":[-88.650398,37.052232]},"properties":{"id":"ora-ky-21","name":"I-24 MP 6.9","state":"KY","provider":"Kentucky DOT","hls":null,"snapshot":"https://www.trimarc.org/images/milestone/CCTV_01_24_0069.jpg","refreshMs":30000,"attribution":"Ora (Warner Varnado) · Kentucky DOT"}},{"type":"Feature","geometry":{"type":"Point","coordinates":[-84.69048,39.078321]},"properties":{"id":"ora-ky-22","name":"I-275 East of KY 237","state":"KY","provider":"Kentucky DOT","hls":null,"snapshot":"https://www.trimarc.org/images/milestone/CCTV_06_275_0060.jpg","refreshMs":30000,"attribution":"Ora (Warner Varnado) · Kentucky DOT"}},{"type":"Feature","geometry":{"type":"Point","coordinates":[-86.480727,36.96865]},"properties":{"id":"ora-ky-23","name":"Russellville Rd and Campbell Ln","state":"KY","provider":"Kentucky DOT","hls":null,"snapshot":"https://www.trimarc.org/images/milestone/CCTV_03_RussellvilleRd_and_CampbellLn.jpg","refreshMs":30000,"attribution":"Ora (Warner Varnado) · Kentucky DOT"}},{"type":"Feature","geometry":{"type":"Point","coordinates":[-86.467938,36.962272]},"properties":{"id":"ora-ky-24","name":"Nashville Rd and Campbell Ln","state":"KY","provider":"Kentucky DOT","hls":null,"snapshot":"https://www.trimarc.org/images/milestone/CCTV_03_NashvilleRd_and_CampbellLn.jpg","refreshMs":30000,"attribution":"Ora (Warner Varnado) · Kentucky DOT"}},{"type":"Feature","geometry":{"type":"Point","coordinates":[-83.95137,38.07703]},"properties":{"id":"ora-ky-25","name":"I-64 @ Maysville Rd EB","state":"KY","provider":"Kentucky DOT","hls":null,"snapshot":"https://www.trimarc.org/images/milestone/CCTV_07_64_1095.jpg","refreshMs":30000,"attribution":"Ora (Warner Varnado) · Kentucky DOT"}},{"type":"Feature","geometry":{"type":"Point","coordinates":[-85.500562,38.26974]},"properties":{"id":"ora-ky-26","name":"I-265 at Old Henry Rd.","state":"KY","provider":"Kentucky DOT","hls":null,"snapshot":"https://www.trimarc.org/images/milestone/CCTV_05_265_0287.jpg","refreshMs":30000,"attribution":"Ora (Warner Varnado) · Kentucky DOT"}},{"type":"Feature","geometry":{"type":"Point","coordinates":[-85.639506,38.339468]},"properties":{"id":"ora-ky-27","name":"KY841 south of Lewis and Clark Bridge","state":"KY","provider":"Kentucky DOT","hls":null,"snapshot":"https://www.trimarc.org/images/milestone/CCTV_05_841_0384.jpg","refreshMs":30000,"attribution":"Ora (Warner Varnado) · Kentucky DOT"}},{"type":"Feature","geometry":{"type":"Point","coordinates":[-84.600641,39.034924]},"properties":{"id":"ora-ky-28","name":"I-71/I-75 at I-275","state":"KY","provider":"Kentucky DOT","hls":null,"snapshot":"https://www.trimarc.org/images/milestone/CCTV_06_75_1847.jpg","refreshMs":30000,"attribution":"Ora (Warner Varnado) · Kentucky DOT"}},{"type":"Feature","geometry":{"type":"Point","coordinates":[-84.099435,37.073145]},"properties":{"id":"ora-ky-29","name":"I-75 SB @ 35.6 - Laurel Co.","state":"KY","provider":"Kentucky DOT","hls":null,"snapshot":"https://www.trimarc.org/images/milestone/CCTV_11_75_0356.jpg","refreshMs":30000,"attribution":"Ora (Warner Varnado) · Kentucky DOT"}},{"type":"Feature","geometry":{"type":"Point","coordinates":[-85.67002,38.2918]},"properties":{"id":"ora-ky-30","name":"I-71 at Blankenbaker Ln.","state":"KY","provider":"Kentucky DOT","hls":null,"snapshot":"https://www.trimarc.org/images/milestone/CCTV_05_71_0037.jpg","refreshMs":30000,"attribution":"Ora (Warner Varnado) · Kentucky DOT"}},{"type":"Feature","geometry":{"type":"Point","coordinates":[-84.713765,38.161461]},"properties":{"id":"ora-ky-31","name":"I-64 EB in Woodford Co @ MP 63.3","state":"KY","provider":"Kentucky DOT","hls":null,"snapshot":"https://www.trimarc.org/images/milestone/CCTV_07_64_0633.jpg","refreshMs":30000,"attribution":"Ora (Warner Varnado) · Kentucky DOT"}},{"type":"Feature","geometry":{"type":"Point","coordinates":[-84.330893,37.37771]},"properties":{"id":"ora-ky-32","name":"I-75 MP 62.1 @ US 25","state":"KY","provider":"Kentucky DOT","hls":null,"snapshot":"https://www.trimarc.org/images/milestone/CCTV_08_75_0621.jpg","refreshMs":30000,"attribution":"Ora (Warner Varnado) · Kentucky DOT"}},{"type":"Feature","geometry":{"type":"Point","coordinates":[-82.531973,37.504047]},"properties":{"id":"ora-ky-33","name":"US 23 MP 26.3 @ US 119","state":"KY","provider":"Kentucky DOT","hls":null,"snapshot":"https://www.trimarc.org/images/milestone/CCTV_12_US23_0263.jpg","refreshMs":30000,"attribution":"Ora (Warner Varnado) · Kentucky DOT"}},{"type":"Feature","geometry":{"type":"Point","coordinates":[-84.465439,39.073563]},"properties":{"id":"ora-ky-34","name":"I-471 SB at Highland Ave Overpass","state":"KY","provider":"Kentucky DOT","hls":null,"snapshot":"https://www.trimarc.org/images/milestone/CCTV_06_471_0023.jpg","refreshMs":30000,"attribution":"Ora (Warner Varnado) · Kentucky DOT"}},{"type":"Feature","geometry":{"type":"Point","coordinates":[-85.751936,38.207833]},"properties":{"id":"ora-ky-35","name":"I-65 next to Crittenden Dr.","state":"KY","provider":"Kentucky DOT","hls":null,"snapshot":"https://www.trimarc.org/images/milestone/CCTV_05_65_1327.jpg","refreshMs":30000,"attribution":"Ora (Warner Varnado) · Kentucky DOT"}},{"type":"Feature","geometry":{"type":"Point","coordinates":[-84.466639,39.051527]},"properties":{"id":"ora-ky-36","name":"I-471 NB just N of I-275","state":"KY","provider":"Kentucky DOT","hls":null,"snapshot":"https://www.trimarc.org/images/milestone/CCTV_06_471_0006.jpg","refreshMs":30000,"attribution":"Ora (Warner Varnado) · Kentucky DOT"}},{"type":"Feature","geometry":{"type":"Point","coordinates":[-85.70411,37.87192]},"properties":{"id":"ora-ky-37","name":"I-65 MP 107.9","state":"KY","provider":"Kentucky DOT","hls":null,"snapshot":"https://www.trimarc.org/images/milestone/CCTV_05_65_1079.jpg","refreshMs":30000,"attribution":"Ora (Warner Varnado) · Kentucky DOT"}},{"type":"Feature","geometry":{"type":"Point","coordinates":[-86.3917,36.97742]},"properties":{"id":"ora-ky-38","name":"I-65 SB @ MP 25.7","state":"KY","provider":"Kentucky DOT","hls":null,"snapshot":"https://www.trimarc.org/images/milestone/CCTV_03_65_0257.jpg","refreshMs":30000,"attribution":"Ora (Warner Varnado) · Kentucky DOT"}},{"type":"Feature","geometry":{"type":"Point","coordinates":[-85.736881,38.202653]},"properties":{"id":"ora-ky-39","name":"I-65 adj. to Fairgrounds","state":"KY","provider":"Kentucky DOT","hls":null,"snapshot":"https://www.trimarc.org/images/milestone/CCTV_05_65_1317.jpg","refreshMs":30000,"attribution":"Ora (Warner Varnado) · Kentucky DOT"}},{"type":"Feature","geometry":{"type":"Point","coordinates":[-85.688789,38.201636]},"properties":{"id":"ora-ky-40","name":"I-264 at Newburg Rd.","state":"KY","provider":"Kentucky DOT","hls":null,"snapshot":"https://www.trimarc.org/images/milestone/CCTV_05_264_0145.jpg","refreshMs":30000,"attribution":"Ora (Warner Varnado) · Kentucky DOT"}},{"type":"Feature","geometry":{"type":"Point","coordinates":[-82.94081,38.34451]},"properties":{"id":"ora-ky-41","name":"I-64 @ N Carol Malone Blvd EB","state":"KY","provider":"Kentucky DOT","hls":null,"snapshot":"https://www.trimarc.org/images/milestone/CCTV_09_64_1716.jpg","refreshMs":30000,"attribution":"Ora (Warner Varnado) · Kentucky DOT"}},{"type":"Feature","geometry":{"type":"Point","coordinates":[-84.488275,39.097694]},"properties":{"id":"ora-ky-42","name":"I-471 SB just S of Ky Rt 8","state":"KY","provider":"Kentucky DOT","hls":null,"snapshot":"https://www.trimarc.org/images/milestone/CCTV_06_471_0045.jpg","refreshMs":30000,"attribution":"Ora (Warner Varnado) · Kentucky DOT"}},{"type":"Feature","geometry":{"type":"Point","coordinates":[-85.748483,38.249331]},"properties":{"id":"ora-ky-43","name":"I-65 at UofL Medical Tower","state":"KY","provider":"Kentucky DOT","hls":null,"snapshot":"https://www.trimarc.org/images/milestone/CCTV_05_65_1359.jpg","refreshMs":30000,"attribution":"Ora (Warner Varnado) · Kentucky DOT"}},{"type":"Feature","geometry":{"type":"Point","coordinates":[-85.636525,38.228666]},"properties":{"id":"ora-ky-44","name":"I-264 @ Breckenridge Ln","state":"KY","provider":"Kentucky DOT","hls":null,"snapshot":"https://www.trimarc.org/images/milestone/CCTV_05_264_0179.jpg","refreshMs":30000,"attribution":"Ora (Warner Varnado) · Kentucky DOT"}},{"type":"Feature","geometry":{"type":"Point","coordinates":[-85.753083,38.212088]},"properties":{"id":"ora-ky-45","name":"I-65 at Eastern Pkwy","state":"KY","provider":"Kentucky DOT","hls":null,"snapshot":"https://www.trimarc.org/images/milestone/CCTV_05_65_1330.jpg","refreshMs":30000,"attribution":"Ora (Warner Varnado) · Kentucky DOT"}},{"type":"Feature","geometry":{"type":"Point","coordinates":[-84.89439,38.18076]},"properties":{"id":"ora-ky-46","name":"US 127 at US 60","state":"KY","provider":"Kentucky DOT","hls":null,"snapshot":"https://www.trimarc.org/images/milestone/CCTV_05_US127_0061.jpg","refreshMs":30000,"attribution":"Ora (Warner Varnado) · Kentucky DOT"}},{"type":"Feature","geometry":{"type":"Point","coordinates":[-84.466643,38.089307]},"properties":{"id":"ora-ky-47","name":"I-75 NB @ Russell Cave","state":"KY","provider":"Kentucky DOT","hls":null,"snapshot":"https://www.trimarc.org/images/milestone/CCTV_07_75_1140.jpg","refreshMs":30000,"attribution":"Ora (Warner Varnado) · Kentucky DOT"}},{"type":"Feature","geometry":{"type":"Point","coordinates":[-84.32302,37.815085]},"properties":{"id":"ora-ky-48","name":"I-75 @ Madison County NB","state":"KY","provider":"Kentucky DOT","hls":null,"snapshot":"https://www.trimarc.org/images/milestone/CCTV_07_75_0928.jpg","refreshMs":30000,"attribution":"Ora (Warner Varnado) · Kentucky DOT"}},{"type":"Feature","geometry":{"type":"Point","coordinates":[-85.901653,37.293922]},"properties":{"id":"ora-ky-49","name":"I-65 at Munfordville","state":"KY","provider":"Kentucky DOT","hls":null,"snapshot":"https://www.trimarc.org/images/milestone/CCTV_04_65_0643.jpg","refreshMs":30000,"attribution":"Ora (Warner Varnado) · Kentucky DOT"}},{"type":"Feature","geometry":{"type":"Point","coordinates":[-85.812678,38.274958]},"properties":{"id":"ora-ky-50","name":"I-64 near I-264 (West Louisville)","state":"KY","provider":"Kentucky DOT","hls":null,"snapshot":"https://www.trimarc.org/images/milestone/CCTV_05_64_0008.jpg","refreshMs":30000,"attribution":"Ora (Warner Varnado) · Kentucky DOT"}},{"type":"Feature","geometry":{"type":"Point","coordinates":[-84.81258,38.17666]},"properties":{"id":"ora-ky-51","name":"US 60 at Chenault Rd","state":"KY","provider":"Kentucky DOT","hls":null,"snapshot":"https://www.trimarc.org/images/milestone/CCTV_05_US60_0132.jpg","refreshMs":30000,"attribution":"Ora (Warner Varnado) · Kentucky DOT"}},{"type":"Feature","geometry":{"type":"Point","coordinates":[-86.2857,37.01453]},"properties":{"id":"ora-ky-52","name":"I-65 SB @ MP 32.7","state":"KY","provider":"Kentucky DOT","hls":null,"snapshot":"https://www.trimarc.org/images/milestone/CCTV_03_65_0327.jpg","refreshMs":30000,"attribution":"Ora (Warner Varnado) · Kentucky DOT"}},{"type":"Feature","geometry":{"type":"Point","coordinates":[-84.89768,38.166064]},"properties":{"id":"ora-ky-53","name":"US 127 at JCPenney","state":"KY","provider":"Kentucky DOT","hls":null,"snapshot":"https://www.trimarc.org/images/milestone/CCTV_05_US127_0050.jpg","refreshMs":30000,"attribution":"Ora (Warner Varnado) · Kentucky DOT"}},{"type":"Feature","geometry":{"type":"Point","coordinates":[-84.515153,37.1529]},"properties":{"id":"ora-ky-54","name":"KY80 EB @ MP 26.5","state":"KY","provider":"Kentucky DOT","hls":null,"snapshot":"https://www.trimarc.org/images/milestone/CCTV_08_KY80_0265.jpg","refreshMs":30000,"attribution":"Ora (Warner Varnado) · Kentucky DOT"}},{"type":"Feature","geometry":{"type":"Point","coordinates":[-86.37676,37.00855]},"properties":{"id":"ora-ky-55","name":"KY 446 WB @ MP 0.2 - at US 31W","state":"KY","provider":"Kentucky DOT","hls":null,"snapshot":"https://www.trimarc.org/images/milestone/CCTV_03_KY446_0002.jpg","refreshMs":30000,"attribution":"Ora (Warner Varnado) · Kentucky DOT"}},{"type":"Feature","geometry":{"type":"Point","coordinates":[-84.836624,38.206019]},"properties":{"id":"ora-ky-56","name":"US 60 at US 460","state":"KY","provider":"Kentucky DOT","hls":null,"snapshot":"https://www.trimarc.org/images/milestone/CCTV_05_US60_0107.jpg","refreshMs":30000,"attribution":"Ora (Warner Varnado) · Kentucky DOT"}},{"type":"Feature","geometry":{"type":"Point","coordinates":[-84.324346,37.82502]},"properties":{"id":"ora-ky-57","name":"I-75 @ Madison County SB","state":"KY","provider":"Kentucky DOT","hls":null,"snapshot":"https://www.trimarc.org/images/milestone/CCTV_07_75_0933.jpg","refreshMs":30000,"attribution":"Ora (Warner Varnado) · Kentucky DOT"}},{"type":"Feature","geometry":{"type":"Point","coordinates":[-84.389634,37.962826]},"properties":{"id":"ora-ky-58","name":"I-75 SB @ Athens Boonesboro","state":"KY","provider":"Kentucky DOT","hls":null,"snapshot":"https://www.trimarc.org/images/milestone/CCTV_07_75_1039.jpg","refreshMs":30000,"attribution":"Ora (Warner Varnado) · Kentucky DOT"}},{"type":"Feature","geometry":{"type":"Point","coordinates":[-84.30883,37.34237]},"properties":{"id":"ora-ky-59","name":"I-75 SB @ MP 59.0","state":"KY","provider":"Kentucky DOT","hls":null,"snapshot":"https://www.trimarc.org/images/milestone/CCTV_08_75_0590.jpg","refreshMs":30000,"attribution":"Ora (Warner Varnado) · Kentucky DOT"}},{"type":"Feature","geometry":{"type":"Point","coordinates":[-82.81018,37.07569]},"properties":{"id":"ora-ky-60","name":"US 119 MP 12.3 @ Pine Mountain (Whitesburg)","state":"KY","provider":"Kentucky DOT","hls":null,"snapshot":"https://www.trimarc.org/images/milestone/CCTV_12_US119_0123.jpg","refreshMs":30000,"attribution":"Ora (Warner Varnado) · Kentucky DOT"}},{"type":"Feature","geometry":{"type":"Point","coordinates":[-84.5023,37.1592]},"properties":{"id":"ora-ky-61","name":"KY80 at KY461 @ MP 27.4","state":"KY","provider":"Kentucky DOT","hls":null,"snapshot":"https://www.trimarc.org/images/milestone/CCTV_08_KY80_0274.jpg","refreshMs":30000,"attribution":"Ora (Warner Varnado) · Kentucky DOT"}},{"type":"Feature","geometry":{"type":"Point","coordinates":[-84.486575,37.174116]},"properties":{"id":"ora-ky-62","name":"KY461 at Pin Oak Dr @ MP 1.3","state":"KY","provider":"Kentucky DOT","hls":null,"snapshot":"https://www.trimarc.org/images/milestone/CCTV_08_KY461_0013.jpg","refreshMs":30000,"attribution":"Ora (Warner Varnado) · Kentucky DOT"}},{"type":"Feature","geometry":{"type":"Point","coordinates":[-86.427169,36.954659]},"properties":{"id":"ora-ky-63","name":"Scottsville Rd and Lovers Ln","state":"KY","provider":"Kentucky DOT","hls":null,"snapshot":"https://www.trimarc.org/images/milestone/CCTV_03_ScottsvilleRd_and_LoversLn.jpg","refreshMs":30000,"attribution":"Ora (Warner Varnado) · Kentucky DOT"}},{"type":"Feature","geometry":{"type":"Point","coordinates":[-84.529903,38.147294]},"properties":{"id":"ora-ky-64","name":"I-75 at Ironworks","state":"KY","provider":"Kentucky DOT","hls":null,"snapshot":"https://www.trimarc.org/images/milestone/CCTV_07_75_1199.jpg","refreshMs":30000,"attribution":"Ora (Warner Varnado) · Kentucky DOT"}},{"type":"Feature","geometry":{"type":"Point","coordinates":[-85.84911,37.67383]},"properties":{"id":"ora-ky-65","name":"I-65 MP 91.1 @ Western KY Pkwy","state":"KY","provider":"Kentucky DOT","hls":null,"snapshot":"https://www.trimarc.org/images/milestone/CCTV_04_65_0911.jpg","refreshMs":30000,"attribution":"Ora (Warner Varnado) · Kentucky DOT"}},{"type":"Feature","geometry":{"type":"Point","coordinates":[-85.675979,38.109725]},"properties":{"id":"ora-ky-66","name":"I-265 at Preston Hwy","state":"KY","provider":"Kentucky DOT","hls":null,"snapshot":"https://www.trimarc.org/images/milestone/CCTV_05_265_0117.jpg","refreshMs":30000,"attribution":"Ora (Warner Varnado) · Kentucky DOT"}},{"type":"Feature","geometry":{"type":"Point","coordinates":[-85.64376,38.11777]},"properties":{"id":"ora-ky-67","name":"I-265 at Smyrna Pkwy","state":"KY","provider":"Kentucky DOT","hls":null,"snapshot":"https://www.trimarc.org/images/milestone/CCTV_05_265_0135.jpg","refreshMs":30000,"attribution":"Ora (Warner Varnado) · Kentucky DOT"}},{"type":"Feature","geometry":{"type":"Point","coordinates":[-85.584026,38.141809]},"properties":{"id":"ora-ky-68","name":"I-265 at Bardstown Rd","state":"KY","provider":"Kentucky DOT","hls":null,"snapshot":"https://www.trimarc.org/images/milestone/CCTV_05_265_0173.jpg","refreshMs":30000,"attribution":"Ora (Warner Varnado) · Kentucky DOT"}},{"type":"Feature","geometry":{"type":"Point","coordinates":[-84.341893,37.885952]},"properties":{"id":"ora-ky-69","name":"Clays Ferry Bridge - I-75 NB @ MP 97.9","state":"KY","provider":"Kentucky DOT","hls":null,"snapshot":"https://www.trimarc.org/images/milestone/CCTV_07_75_0979.jpg","refreshMs":30000,"attribution":"Ora (Warner Varnado) · Kentucky DOT"}},{"type":"Feature","geometry":{"type":"Point","coordinates":[-85.584431,38.313175]},"properties":{"id":"ora-ky-70","name":"I-71 at I-265","state":"KY","provider":"Kentucky DOT","hls":null,"snapshot":"https://www.trimarc.org/images/milestone/CCTV_05_71_0089.jpg","refreshMs":30000,"attribution":"Ora (Warner Varnado) · Kentucky DOT"}},{"type":"Feature","geometry":{"type":"Point","coordinates":[-84.525968,38.115594]},"properties":{"id":"ora-ky-71","name":"I-75 SB at I-64 Northern Split","state":"KY","provider":"Kentucky DOT","hls":null,"snapshot":"https://www.trimarc.org/images/milestone/CCTV_07_75_1177.jpg","refreshMs":30000,"attribution":"Ora (Warner Varnado) · Kentucky DOT"}},{"type":"Feature","geometry":{"type":"Point","coordinates":[-85.509157,38.189286]},"properties":{"id":"ora-ky-72","name":"I-265 at Taylorsville Rd","state":"KY","provider":"Kentucky DOT","hls":null,"snapshot":"https://www.trimarc.org/images/milestone/CCTV_05_265_0231.jpg","refreshMs":30000,"attribution":"Ora (Warner Varnado) · Kentucky DOT"}},{"type":"Feature","geometry":{"type":"Point","coordinates":[-84.484981,38.099763]},"properties":{"id":"ora-ky-73","name":"I-75 NB @ Newtown Pike","state":"KY","provider":"Kentucky DOT","hls":null,"snapshot":"https://www.trimarc.org/images/milestone/CCTV_07_75_1152.jpg","refreshMs":30000,"attribution":"Ora (Warner Varnado) · Kentucky DOT"}},{"type":"Feature","geometry":{"type":"Point","coordinates":[-85.827581,38.206231]},"properties":{"id":"ora-ky-74","name":"I-264 at Cane Run Rd.","state":"KY","provider":"Kentucky DOT","hls":null,"snapshot":"https://www.trimarc.org/images/milestone/CCTV_05_264_0052.jpg","refreshMs":30000,"attribution":"Ora (Warner Varnado) · Kentucky DOT"}},{"type":"Feature","geometry":{"type":"Point","coordinates":[-85.503818,38.241681]},"properties":{"id":"ora-ky-75","name":"I-265 at Shelbyville Rd.","state":"KY","provider":"Kentucky DOT","hls":null,"snapshot":"https://www.trimarc.org/images/milestone/CCTV_05_265_0268.jpg","refreshMs":30000,"attribution":"Ora (Warner Varnado) · Kentucky DOT"}},{"type":"Feature","geometry":{"type":"Point","coordinates":[-85.805725,38.253936]},"properties":{"id":"ora-ky-76","name":"I-264 at River Park Dr.","state":"KY","provider":"Kentucky DOT","hls":null,"snapshot":"https://www.trimarc.org/images/milestone/CCTV_05_264_0016.jpg","refreshMs":30000,"attribution":"Ora (Warner Varnado) · Kentucky DOT"}},{"type":"Feature","geometry":{"type":"Point","coordinates":[-84.337381,37.882156]},"properties":{"id":"ora-ky-77","name":"Clays Ferry Bridge - I-75 SB @ MP 97.5","state":"KY","provider":"Kentucky DOT","hls":null,"snapshot":"https://www.trimarc.org/images/milestone/CCTV_07_75_0976.jpg","refreshMs":30000,"attribution":"Ora (Warner Varnado) · Kentucky DOT"}},{"type":"Feature","geometry":{"type":"Point","coordinates":[-85.608779,38.233218]},"properties":{"id":"ora-ky-78","name":"I-64 W of Oxmoor Farm Overpass","state":"KY","provider":"Kentucky DOT","hls":null,"snapshot":"https://www.trimarc.org/images/milestone/CCTV_05_64_0131.jpg","refreshMs":30000,"attribution":"Ora (Warner Varnado) · Kentucky DOT"}},{"type":"Feature","geometry":{"type":"Point","coordinates":[-85.671682,38.210332]},"properties":{"id":"ora-ky-79","name":"I-264 at Bardstown Rd.","state":"KY","provider":"Kentucky DOT","hls":null,"snapshot":"https://www.trimarc.org/images/milestone/CCTV_05_264_0156.jpg","refreshMs":30000,"attribution":"Ora (Warner Varnado) · Kentucky DOT"}},{"type":"Feature","geometry":{"type":"Point","coordinates":[-85.547249,38.297018]},"properties":{"id":"ora-ky-80","name":"I-265 at Westport Rd.","state":"KY","provider":"Kentucky DOT","hls":null,"snapshot":"https://www.trimarc.org/images/milestone/CCTV_05_265_0325.jpg","refreshMs":30000,"attribution":"Ora (Warner Varnado) · Kentucky DOT"}},{"type":"Feature","geometry":{"type":"Point","coordinates":[-85.515304,38.28645]},"properties":{"id":"ora-ky-81","name":"I-265 at LaGrange Rd.","state":"KY","provider":"Kentucky DOT","hls":null,"snapshot":"https://www.trimarc.org/images/milestone/CCTV_05_265_0305.jpg","refreshMs":30000,"attribution":"Ora (Warner Varnado) · Kentucky DOT"}},{"type":"Feature","geometry":{"type":"Point","coordinates":[-85.83312,37.70229]},"properties":{"id":"ora-ky-82","name":"I-65 @ Bluegrass Pkwy","state":"KY","provider":"Kentucky DOT","hls":null,"snapshot":"https://www.trimarc.org/images/milestone/CCTV_04_65_0933.jpg","refreshMs":30000,"attribution":"Ora (Warner Varnado) · Kentucky DOT"}},{"type":"Feature","geometry":{"type":"Point","coordinates":[-84.85062,38.16248]},"properties":{"id":"ora-ky-83","name":"I-64 at the 55.6 MM","state":"KY","provider":"Kentucky DOT","hls":null,"snapshot":"https://www.trimarc.org/images/milestone/CCTV_05_64_0556.jpg","refreshMs":30000,"attribution":"Ora (Warner Varnado) · Kentucky DOT"}},{"type":"Feature","geometry":{"type":"Point","coordinates":[-85.575605,38.30701]},"properties":{"id":"ora-ky-84","name":"KY22 East at I-265","state":"KY","provider":"Kentucky DOT","hls":null,"snapshot":"https://www.trimarc.org/images/milestone/CCTV_05_DMS05112_KY22-EB.jpg","refreshMs":30000,"attribution":"Ora (Warner Varnado) · Kentucky DOT"}},{"type":"Feature","geometry":{"type":"Point","coordinates":[-85.738092,38.190428]},"properties":{"id":"ora-ky-85","name":"I-264 at Freedom Way","state":"KY","provider":"Kentucky DOT","hls":null,"snapshot":"https://www.trimarc.org/images/milestone/CCTV_05_264_0116.jpg","refreshMs":30000,"attribution":"Ora (Warner Varnado) · Kentucky DOT"}},{"type":"Feature","geometry":{"type":"Point","coordinates":[-85.635885,38.279806]},"properties":{"id":"ora-ky-86","name":"I-264 at Brownsboro Rd","state":"KY","provider":"Kentucky DOT","hls":null,"snapshot":"https://www.trimarc.org/images/milestone/CCTV_05_264_0221.jpg","refreshMs":30000,"attribution":"Ora (Warner Varnado) · Kentucky DOT"}},{"type":"Feature","geometry":{"type":"Point","coordinates":[-85.72608,38.260707]},"properties":{"id":"ora-ky-87","name":"I-64 WB at the 6.1 MM","state":"KY","provider":"Kentucky DOT","hls":null,"snapshot":"https://www.trimarc.org/images/milestone/CCTV_05_64_0061_EB.jpg","refreshMs":30000,"attribution":"Ora (Warner Varnado) · Kentucky DOT"}},{"type":"Feature","geometry":{"type":"Point","coordinates":[-85.744935,38.267017]},"properties":{"id":"ora-ky-88","name":"I-65 on the Kennedy Bridge at MP 137","state":"KY","provider":"Kentucky DOT","hls":null,"snapshot":"https://www.trimarc.org/images/milestone/CCTV_05_65_1370.jpg","refreshMs":30000,"attribution":"Ora (Warner Varnado) · Kentucky DOT"}},{"type":"Feature","geometry":{"type":"Point","coordinates":[-85.741321,38.25885]},"properties":{"id":"ora-ky-89","name":"I-65 south at the Kennedy Bridge","state":"KY","provider":"Kentucky DOT","hls":null,"snapshot":"https://www.trimarc.org/images/milestone/CCTV_05_65_1365.jpg","refreshMs":30000,"attribution":"Ora (Warner Varnado) · Kentucky DOT"}},{"type":"Feature","geometry":{"type":"Point","coordinates":[-85.584868,38.315675]},"properties":{"id":"ora-ky-90","name":"KY841 at I-71","state":"KY","provider":"Kentucky DOT","hls":null,"snapshot":"https://www.trimarc.org/images/milestone/CCTV_05_841_0349.jpg","refreshMs":30000,"attribution":"Ora (Warner Varnado) · Kentucky DOT"}},{"type":"Feature","geometry":{"type":"Point","coordinates":[-85.597479,38.317716]},"properties":{"id":"ora-ky-91","name":"KY841 near I-71","state":"KY","provider":"Kentucky DOT","hls":null,"snapshot":"https://www.trimarc.org/images/milestone/CCTV_05_841_0356.jpg","refreshMs":30000,"attribution":"Ora (Warner Varnado) · Kentucky DOT"}},{"type":"Feature","geometry":{"type":"Point","coordinates":[-85.606409,38.319108]},"properties":{"id":"ora-ky-92","name":"KY841 near US42 exit","state":"KY","provider":"Kentucky DOT","hls":null,"snapshot":"https://www.trimarc.org/images/milestone/CCTV_05_841_0361.jpg","refreshMs":30000,"attribution":"Ora (Warner Varnado) · Kentucky DOT"}},{"type":"Feature","geometry":{"type":"Point","coordinates":[-85.615962,38.321369]},"properties":{"id":"ora-ky-93","name":"KY841 at US42 entrance ramp","state":"KY","provider":"Kentucky DOT","hls":null,"snapshot":"https://www.trimarc.org/images/milestone/CCTV_05_841_0366.jpg","refreshMs":30000,"attribution":"Ora (Warner Varnado) · Kentucky DOT"}},{"type":"Feature","geometry":{"type":"Point","coordinates":[-85.618942,38.323321]},"properties":{"id":"ora-ky-94","name":"KY841 at tunnel entrance","state":"KY","provider":"Kentucky DOT","hls":null,"snapshot":"https://www.trimarc.org/images/milestone/CCTV_05_841_0369.jpg","refreshMs":30000,"attribution":"Ora (Warner Varnado) · Kentucky DOT"}},{"type":"Feature","geometry":{"type":"Point","coordinates":[-85.626076,38.327656]},"properties":{"id":"ora-ky-95","name":"KY841 at tunnel entrance","state":"KY","provider":"Kentucky DOT","hls":null,"snapshot":"https://www.trimarc.org/images/milestone/CCTV_05_841_0373.jpg","refreshMs":30000,"attribution":"Ora (Warner Varnado) · Kentucky DOT"}},{"type":"Feature","geometry":{"type":"Point","coordinates":[-85.628654,38.32977]},"properties":{"id":"ora-ky-96","name":"KY841 near Harrods Creek","state":"KY","provider":"Kentucky DOT","hls":null,"snapshot":"https://www.trimarc.org/images/milestone/CCTV_05_841_0375.jpg","refreshMs":30000,"attribution":"Ora (Warner Varnado) · Kentucky DOT"}},{"type":"Feature","geometry":{"type":"Point","coordinates":[-85.634538,38.335008]},"properties":{"id":"ora-ky-97","name":"KY841 at MP 38","state":"KY","provider":"Kentucky DOT","hls":null,"snapshot":"https://www.trimarc.org/images/milestone/CCTV_05_841_0380.jpg","refreshMs":30000,"attribution":"Ora (Warner Varnado) · Kentucky DOT"}},{"type":"Feature","geometry":{"type":"Point","coordinates":[-85.740429,38.260815]},"properties":{"id":"ora-ky-98","name":"I-64 at the 5.3 MM","state":"KY","provider":"Kentucky DOT","hls":null,"snapshot":"https://www.trimarc.org/images/milestone/CCTV_05_64_0053.jpg","refreshMs":30000,"attribution":"Ora (Warner Varnado) · Kentucky DOT"}},{"type":"Feature","geometry":{"type":"Point","coordinates":[-85.735298,38.261047]},"properties":{"id":"ora-ky-99","name":"I-64 at the 5.5 MM","state":"KY","provider":"Kentucky DOT","hls":null,"snapshot":"https://www.trimarc.org/images/milestone/CCTV_05_64_0055.jpg","refreshMs":30000,"attribution":"Ora (Warner Varnado) · Kentucky DOT"}},{"type":"Feature","geometry":{"type":"Point","coordinates":[-85.730324,38.261042]},"properties":{"id":"ora-ky-100","name":"I-64 at the 5.8 MM","state":"KY","provider":"Kentucky DOT","hls":null,"snapshot":"https://www.trimarc.org/images/milestone/CCTV_05_64_0058.jpg","refreshMs":30000,"attribution":"Ora (Warner Varnado) · Kentucky DOT"}},{"type":"Feature","geometry":{"type":"Point","coordinates":[-85.725886,38.26136]},"properties":{"id":"ora-ky-101","name":"I-64 at 6.3 MM","state":"KY","provider":"Kentucky DOT","hls":null,"snapshot":"https://www.trimarc.org/images/milestone/CCTV_05_64_0061_WB.jpg","refreshMs":30000,"attribution":"Ora (Warner Varnado) · Kentucky DOT"}},{"type":"Feature","geometry":{"type":"Point","coordinates":[-85.742095,38.254501]},"properties":{"id":"ora-ky-102","name":"I-65 near I-64 and I-71","state":"KY","provider":"Kentucky DOT","hls":null,"snapshot":"https://www.trimarc.org/images/milestone/CCTV_05_65_1362.jpg","refreshMs":30000,"attribution":"Ora (Warner Varnado) · Kentucky DOT"}},{"type":"Feature","geometry":{"type":"Point","coordinates":[-85.742209,38.262257]},"properties":{"id":"ora-ky-103","name":"I-65 on the Kennedy Bridge at MP 136.8","state":"KY","provider":"Kentucky DOT","hls":null,"snapshot":"https://www.trimarc.org/images/milestone/CCTV_05_65_1368.jpg","refreshMs":30000,"attribution":"Ora (Warner Varnado) · Kentucky DOT"}},{"type":"Feature","geometry":{"type":"Point","coordinates":[-84.52272,39.08087]},"properties":{"id":"ora-ky-104","name":"I-71/I-75 at 12th St","state":"KY","provider":"Kentucky DOT","hls":null,"snapshot":"https://www.trimarc.org/images/milestone/CCTV_06_75_1908.jpg","refreshMs":30000,"attribution":"Ora (Warner Varnado) · Kentucky DOT"}},{"type":"Feature","geometry":{"type":"Point","coordinates":[-84.521547,39.064305]},"properties":{"id":"ora-ky-105","name":"I-71/I-75 at Cut in the Hill","state":"KY","provider":"Kentucky DOT","hls":null,"snapshot":"https://www.trimarc.org/images/milestone/CCTV_06_75_1896.jpg","refreshMs":30000,"attribution":"Ora (Warner Varnado) · Kentucky DOT"}},{"type":"Feature","geometry":{"type":"Point","coordinates":[-84.549766,39.049779]},"properties":{"id":"ora-ky-106","name":"I-71/I-75 at Dixie Hwy","state":"KY","provider":"Kentucky DOT","hls":null,"snapshot":"https://www.trimarc.org/images/milestone/CCTV_06_75_1877.jpg","refreshMs":30000,"attribution":"Ora (Warner Varnado) · Kentucky DOT"}},{"type":"Feature","geometry":{"type":"Point","coordinates":[-84.566327,39.05143]},"properties":{"id":"ora-ky-107","name":"I-71/I-75 at N of Buttermilk Pike","state":"KY","provider":"Kentucky DOT","hls":null,"snapshot":"https://www.trimarc.org/images/milestone/CCTV_06_75_1868.jpg","refreshMs":30000,"attribution":"Ora (Warner Varnado) · Kentucky DOT"}},{"type":"Feature","geometry":{"type":"Point","coordinates":[-84.522802,39.086807]},"properties":{"id":"ora-ky-108","name":"I-71/I-75 N on Brent Spence Bridge","state":"KY","provider":"Kentucky DOT","hls":null,"snapshot":"https://www.trimarc.org/images/milestone/CCTV_06_75_1912.jpg","refreshMs":30000,"attribution":"Ora (Warner Varnado) · Kentucky DOT"}},{"type":"Feature","geometry":{"type":"Point","coordinates":[-84.471483,39.081178]},"properties":{"id":"ora-ky-109","name":"I-471 at Grand Ave","state":"KY","provider":"Kentucky DOT","hls":null,"snapshot":"https://www.trimarc.org/images/milestone/CCTV_06_471_0029.jpg","refreshMs":30000,"attribution":"Ora (Warner Varnado) · Kentucky DOT"}},{"type":"Feature","geometry":{"type":"Point","coordinates":[-84.670966,39.073604]},"properties":{"id":"ora-ky-110","name":"I-275 at Petersburg Rd Overpass","state":"KY","provider":"Kentucky DOT","hls":null,"snapshot":"https://www.trimarc.org/images/milestone/CCTV_06_275_0048.jpg","refreshMs":30000,"attribution":"Ora (Warner Varnado) · Kentucky DOT"}},{"type":"Feature","geometry":{"type":"Point","coordinates":[-84.57494,39.04637]},"properties":{"id":"ora-ky-111","name":"I-71/I-75 at Buttermilk Pike","state":"KY","provider":"Kentucky DOT","hls":null,"snapshot":"https://www.trimarc.org/images/milestone/CCTV_06_75_1863.jpg","refreshMs":30000,"attribution":"Ora (Warner Varnado) · Kentucky DOT"}},{"type":"Feature","geometry":{"type":"Point","coordinates":[-84.539028,39.059474]},"properties":{"id":"ora-ky-112","name":"I-71/I-75 at Kyles Ln","state":"KY","provider":"Kentucky DOT","hls":null,"snapshot":"https://www.trimarc.org/images/milestone/CCTV_06_75_1886.jpg","refreshMs":30000,"attribution":"Ora (Warner Varnado) · Kentucky DOT"}},{"type":"Feature","geometry":{"type":"Point","coordinates":[-85.567799,38.31277]},"properties":{"id":"ora-ky-113","name":"KY22 West at I-265","state":"KY","provider":"Kentucky DOT","hls":null,"snapshot":"https://www.trimarc.org/images/milestone/CCTV_05_DMS05111_KY22-WB.jpg","refreshMs":30000,"attribution":"Ora (Warner Varnado) · Kentucky DOT"}},{"type":"Feature","geometry":{"type":"Point","coordinates":[-84.793139,39.087752]},"properties":{"id":"ora-ky-114","name":"I-275 at KY 8/Petersburg Exit","state":"KY","provider":"Kentucky DOT","hls":null,"snapshot":"https://www.trimarc.org/images/milestone/CCTV_06_275_0116.jpg","refreshMs":30000,"attribution":"Ora (Warner Varnado) · Kentucky DOT"}},{"type":"Feature","geometry":{"type":"Point","coordinates":[-84.135172,36.900847]},"properties":{"id":"ora-ky-115","name":"I-75 NB @ 23.4 - Whitley Co","state":"KY","provider":"Kentucky DOT","hls":null,"snapshot":"https://www.trimarc.org/images/milestone/CCTV_11_75_0234.jpg","refreshMs":30000,"attribution":"Ora (Warner Varnado) · Kentucky DOT"}},{"type":"Feature","geometry":{"type":"Point","coordinates":[-84.74395,39.084599]},"properties":{"id":"ora-ky-116","name":"I-275 West of KY 237","state":"KY","provider":"Kentucky DOT","hls":null,"snapshot":"https://www.trimarc.org/images/milestone/CCTV_06_275_0089.jpg","refreshMs":30000,"attribution":"Ora (Warner Varnado) · Kentucky DOT"}},{"type":"Feature","geometry":{"type":"Point","coordinates":[-85.597315,38.307349]},"properties":{"id":"ora-ky-117","name":"I-71 at MM 8.5 just south of I-265","state":"KY","provider":"Kentucky DOT","hls":null,"snapshot":"https://www.trimarc.org/images/milestone/CCTV_05_71_0082.jpg","refreshMs":30000,"attribution":"Ora (Warner Varnado) · Kentucky DOT"}},{"type":"Feature","geometry":{"type":"Point","coordinates":[-85.739411,38.259705]},"properties":{"id":"ora-ky-118","name":"I-64 near I-65","state":"KY","provider":"Kentucky DOT","hls":null,"snapshot":"https://www.trimarc.org/images/milestone/CCTV_05_64_0054-1.jpg","refreshMs":30000,"attribution":"Ora (Warner Varnado) · Kentucky DOT"}},{"type":"Feature","geometry":{"type":"Point","coordinates":[-85.739358,38.259696]},"properties":{"id":"ora-ky-119","name":"I-64 near I-65","state":"KY","provider":"Kentucky DOT","hls":null,"snapshot":"https://www.trimarc.org/images/milestone/CCTV_05_64_0054-2.jpg","refreshMs":30000,"attribution":"Ora (Warner Varnado) · Kentucky DOT"}},{"type":"Feature","geometry":{"type":"Point","coordinates":[-85.80641,37.73531]},"properties":{"id":"ora-ky-120","name":"I-65 MP 96.2","state":"KY","provider":"Kentucky DOT","hls":null,"snapshot":"https://www.trimarc.org/images/milestone/CCTV_04_65_0962.jpg","refreshMs":30000,"attribution":"Ora (Warner Varnado) · Kentucky DOT"}},{"type":"Feature","geometry":{"type":"Point","coordinates":[-84.613453,39.025822]},"properties":{"id":"ora-ky-121","name":"I-71/I-75 at Donaldson Hwy","state":"KY","provider":"Kentucky DOT","hls":null,"snapshot":"https://www.trimarc.org/images/milestone/CCTV_06_75_1838.jpg","refreshMs":30000,"attribution":"Ora (Warner Varnado) · Kentucky DOT"}},{"type":"Feature","geometry":{"type":"Point","coordinates":[-84.633224,39.011906]},"properties":{"id":"ora-ky-122","name":"I-71/I-75 at Turfway Rd","state":"KY","provider":"Kentucky DOT","hls":null,"snapshot":"https://www.trimarc.org/images/milestone/CCTV_06_75_1823.jpg","refreshMs":30000,"attribution":"Ora (Warner Varnado) · Kentucky DOT"}},{"type":"Feature","geometry":{"type":"Point","coordinates":[-84.64842,39.001342]},"properties":{"id":"ora-ky-123","name":"I-71/I-75 at Burlington Pike","state":"KY","provider":"Kentucky DOT","hls":null,"snapshot":"https://www.trimarc.org/images/milestone/CCTV_06_75_1812.jpg","refreshMs":30000,"attribution":"Ora (Warner Varnado) · Kentucky DOT"}},{"type":"Feature","geometry":{"type":"Point","coordinates":[-84.642151,38.984552]},"properties":{"id":"ora-ky-124","name":"I-71/I-75 at US-42","state":"KY","provider":"Kentucky DOT","hls":null,"snapshot":"https://www.trimarc.org/images/milestone/CCTV_06_75_1801.jpg","refreshMs":30000,"attribution":"Ora (Warner Varnado) · Kentucky DOT"}},{"type":"Feature","geometry":{"type":"Point","coordinates":[-84.626084,39.055124]},"properties":{"id":"ora-ky-125","name":"I-275 at Mineola Pike","state":"KY","provider":"Kentucky DOT","hls":null,"snapshot":"https://www.trimarc.org/images/milestone/CCTV_06_275_0020.jpg","refreshMs":30000,"attribution":"Ora (Warner Varnado) · Kentucky DOT"}},{"type":"Feature","geometry":{"type":"Point","coordinates":[-84.64961,39.06969]},"properties":{"id":"ora-ky-126","name":"I-275 East of KY 212/Airport","state":"KY","provider":"Kentucky DOT","hls":null,"snapshot":"https://www.trimarc.org/images/milestone/CCTV_06_275_0037.jpg","refreshMs":30000,"attribution":"Ora (Warner Varnado) · Kentucky DOT"}},{"type":"Feature","geometry":{"type":"Point","coordinates":[-84.708573,39.081008]},"properties":{"id":"ora-ky-127","name":"I-275 at KY 237","state":"KY","provider":"Kentucky DOT","hls":null,"snapshot":"https://www.trimarc.org/images/milestone/CCTV_06_275_0070.jpg","refreshMs":30000,"attribution":"Ora (Warner Varnado) · Kentucky DOT"}},{"type":"Feature","geometry":{"type":"Point","coordinates":[-84.81325,39.093536]},"properties":{"id":"ora-ky-128","name":"I-275 East of KY/IN Border","state":"KY","provider":"Kentucky DOT","hls":null,"snapshot":"https://www.trimarc.org/images/milestone/CCTV_06_275_0128.jpg","refreshMs":30000,"attribution":"Ora (Warner Varnado) · Kentucky DOT"}},{"type":"Feature","geometry":{"type":"Point","coordinates":[-84.634987,38.957018]},"properties":{"id":"ora-ky-129","name":"I-71/I-75 at Mt. Zion Rd","state":"KY","provider":"Kentucky DOT","hls":null,"snapshot":"https://www.trimarc.org/images/milestone/CCTV_06_75_1781.jpg","refreshMs":30000,"attribution":"Ora (Warner Varnado) · Kentucky DOT"}},{"type":"Feature","geometry":{"type":"Point","coordinates":[-84.629714,38.9251]},"properties":{"id":"ora-ky-130","name":"I-71/I-75 north of Richwood Rd","state":"KY","provider":"Kentucky DOT","hls":null,"snapshot":"https://www.trimarc.org/images/milestone/CCTV_06_75_1758.jpg","refreshMs":30000,"attribution":"Ora (Warner Varnado) · Kentucky DOT"}},{"type":"Feature","geometry":{"type":"Point","coordinates":[-84.62551,38.87687]},"properties":{"id":"ora-ky-131","name":"I-71/I-75 KY Split","state":"KY","provider":"Kentucky DOT","hls":null,"snapshot":"https://www.trimarc.org/images/milestone/CCTV_06_75_1725.jpg","refreshMs":30000,"attribution":"Ora (Warner Varnado) · Kentucky DOT"}},{"type":"Feature","geometry":{"type":"Point","coordinates":[-84.468169,39.062522]},"properties":{"id":"ora-ky-132","name":"I-471 South of US-27","state":"KY","provider":"Kentucky DOT","hls":null,"snapshot":"https://www.trimarc.org/images/milestone/CCTV_06_471_0014.jpg","refreshMs":30000,"attribution":"Ora (Warner Varnado) · Kentucky DOT"}},{"type":"Feature","geometry":{"type":"Point","coordinates":[-84.458049,39.04603]},"properties":{"id":"ora-ky-133","name":"I-275 at I-471","state":"KY","provider":"Kentucky DOT","hls":null,"snapshot":"https://www.trimarc.org/images/milestone/CCTV_06_275_0748.jpg","refreshMs":30000,"attribution":"Ora (Warner Varnado) · Kentucky DOT"}},{"type":"Feature","geometry":{"type":"Point","coordinates":[-84.446461,39.049601]},"properties":{"id":"ora-ky-134","name":"I-275 at US-27 Overpass","state":"KY","provider":"Kentucky DOT","hls":null,"snapshot":"https://www.trimarc.org/images/milestone/CCTV_06_275_0741.jpg","refreshMs":30000,"attribution":"Ora (Warner Varnado) · Kentucky DOT"}},{"type":"Feature","geometry":{"type":"Point","coordinates":[-84.625566,38.876548]},"properties":{"id":"ora-ky-135","name":"I-71/I-75","state":"KY","provider":"Kentucky DOT","hls":null,"snapshot":"https://www.trimarc.org/images/milestone/CCTV_06_71_0770.jpg","refreshMs":30000,"attribution":"Ora (Warner Varnado) · Kentucky DOT"}},{"type":"Feature","geometry":{"type":"Point","coordinates":[-85.547304,38.32726]},"properties":{"id":"ora-ky-136","name":"I-71 South at MP 11.2","state":"KY","provider":"Kentucky DOT","hls":null,"snapshot":"https://www.trimarc.org/images/milestone/CCTV_05_71_0112.jpg","refreshMs":30000,"attribution":"Ora (Warner Varnado) · Kentucky DOT"}},{"type":"Feature","geometry":{"type":"Point","coordinates":[-85.741213,38.26242]},"properties":{"id":"ora-ky-137","name":"I-65 on the Lincoln Bridge at MP 136.7","state":"KY","provider":"Kentucky DOT","hls":null,"snapshot":"https://www.trimarc.org/images/milestone/CCTV_05_65_1367.jpg","refreshMs":30000,"attribution":"Ora (Warner Varnado) · Kentucky DOT"}},{"type":"Feature","geometry":{"type":"Point","coordinates":[-84.478558,37.157533]},"properties":{"id":"ora-ky-138","name":"KY80 WB @ MP 28.7","state":"KY","provider":"Kentucky DOT","hls":null,"snapshot":"https://www.trimarc.org/images/milestone/CCTV_08_KY80_0287.jpg","refreshMs":30000,"attribution":"Ora (Warner Varnado) · Kentucky DOT"}},{"type":"Feature","geometry":{"type":"Point","coordinates":[-82.609506,38.380039]},"properties":{"id":"ora-ky-139","name":"I-64 @ MP 190.6","state":"KY","provider":"Kentucky DOT","hls":null,"snapshot":"https://www.trimarc.org/images/milestone/CCTV_09_64_1906.jpg","refreshMs":30000,"attribution":"Ora (Warner Varnado) · Kentucky DOT"}},{"type":"Feature","geometry":{"type":"Point","coordinates":[-88.350134,36.99056]},"properties":{"id":"ora-ky-140","name":"I-24 MP 24.8","state":"KY","provider":"Kentucky DOT","hls":null,"snapshot":"https://www.trimarc.org/images/milestone/CCTV_01_24_0248.jpg","refreshMs":30000,"attribution":"Ora (Warner Varnado) · Kentucky DOT"}},{"type":"Feature","geometry":{"type":"Point","coordinates":[-84.572846,39.026161]},"properties":{"id":"ora-ky-141","name":"I-275 at Dixie Hwy","state":"KY","provider":"Kentucky DOT","hls":null,"snapshot":"https://www.trimarc.org/images/milestone/CCTV_06_275_0823.jpg","refreshMs":30000,"attribution":"Ora (Warner Varnado) · Kentucky DOT"}},{"type":"Feature","geometry":{"type":"Point","coordinates":[-88.680325,37.07819]},"properties":{"id":"ora-ky-142","name":"I-24 MP 4.4 @ US 60","state":"KY","provider":"Kentucky DOT","hls":null,"snapshot":"https://www.trimarc.org/images/milestone/CCTV_01_24_0044.jpg","refreshMs":30000,"attribution":"Ora (Warner Varnado) · Kentucky DOT"}},{"type":"Feature","geometry":{"type":"Point","coordinates":[-84.766628,38.778835]},"properties":{"id":"ora-ky-143","name":"I-71 SB at the 66.9 MM","state":"KY","provider":"Kentucky DOT","hls":null,"snapshot":"https://www.trimarc.org/images/milestone/CCTV_06_71_0669.jpg","refreshMs":30000,"attribution":"Ora (Warner Varnado) · Kentucky DOT"}},{"type":"Feature","geometry":{"type":"Point","coordinates":[-85.733829,38.195874]},"properties":{"id":"ora-ky-144","name":"I-65 over Phillips Ln","state":"KY","provider":"Kentucky DOT","hls":null,"snapshot":"https://www.trimarc.org/images/milestone/CCTV_05_65_1313.jpg","refreshMs":30000,"attribution":"Ora (Warner Varnado) · Kentucky DOT"}},{"type":"Feature","geometry":{"type":"Point","coordinates":[-88.689012,37.09917]},"properties":{"id":"ora-ky-145","name":"I-24 MP 2.8 @ KY 305","state":"KY","provider":"Kentucky DOT","hls":null,"snapshot":"https://www.trimarc.org/images/milestone/CCTV_01_24_0028.jpg","refreshMs":30000,"attribution":"Ora (Warner Varnado) · Kentucky DOT"}},{"type":"Feature","geometry":{"type":"Point","coordinates":[-85.74418,37.80725]},"properties":{"id":"ora-ky-146","name":"I-65 MP 102.8","state":"KY","provider":"Kentucky DOT","hls":null,"snapshot":"https://www.trimarc.org/images/milestone/CCTV_04_65_1028.jpg","refreshMs":30000,"attribution":"Ora (Warner Varnado) · Kentucky DOT"}},{"type":"Feature","geometry":{"type":"Point","coordinates":[-85.743809,38.266064]},"properties":{"id":"ora-ky-147","name":"I-65 on the Lincoln Bridge at MP 136.9","state":"KY","provider":"Kentucky DOT","hls":null,"snapshot":"https://www.trimarc.org/images/milestone/CCTV_05_65_1369.jpg","refreshMs":30000,"attribution":"Ora (Warner Varnado) · Kentucky DOT"}},{"type":"Feature","geometry":{"type":"Point","coordinates":[-84.665229,38.851326]},"properties":{"id":"ora-ky-148","name":"I-71 SB at the 73.9 MM","state":"KY","provider":"Kentucky DOT","hls":null,"snapshot":"https://www.trimarc.org/images/milestone/CCTV_06_71_0739.jpg","refreshMs":30000,"attribution":"Ora (Warner Varnado) · Kentucky DOT"}},{"type":"Feature","geometry":{"type":"Point","coordinates":[-84.511388,39.02147]},"properties":{"id":"ora-ky-149","name":"I-275 at Taylor Mill","state":"KY","provider":"Kentucky DOT","hls":null,"snapshot":"https://www.trimarc.org/images/milestone/CCTV_06_275_0788.jpg","refreshMs":30000,"attribution":"Ora (Warner Varnado) · Kentucky DOT"}},{"type":"Feature","geometry":{"type":"Point","coordinates":[-84.470374,39.033299]},"properties":{"id":"ora-ky-150","name":"I-275 East of Johns Hill Road","state":"KY","provider":"Kentucky DOT","hls":null,"snapshot":"https://www.trimarc.org/images/milestone/CCTV_06_275_0762.jpg","refreshMs":30000,"attribution":"Ora (Warner Varnado) · Kentucky DOT"}},{"type":"Feature","geometry":{"type":"Point","coordinates":[-84.552739,39.02674]},"properties":{"id":"ora-ky-151","name":"I-275 East of Turkeyfoot Road Mile 81.2","state":"KY","provider":"Kentucky DOT","hls":null,"snapshot":"https://www.trimarc.org/images/milestone/CCTV_06_275_0812.jpg","refreshMs":30000,"attribution":"Ora (Warner Varnado) · Kentucky DOT"}},{"type":"Feature","geometry":{"type":"Point","coordinates":[-85.96209,37.16846]},"properties":{"id":"ora-ky-152","name":"I-65 SB @ MP 54.8","state":"KY","provider":"Kentucky DOT","hls":null,"snapshot":"https://www.trimarc.org/images/milestone/CCTV_04_65_0548.jpg","refreshMs":30000,"attribution":"Ora (Warner Varnado) · Kentucky DOT"}},{"type":"Feature","geometry":{"type":"Point","coordinates":[-85.840112,37.692111]},"properties":{"id":"ora-ky-153","name":"I-65 MP 92.6","state":"KY","provider":"Kentucky DOT","hls":null,"snapshot":"https://www.trimarc.org/images/milestone/CCTV_04_65_0926.jpg","refreshMs":30000,"attribution":"Ora (Warner Varnado) · Kentucky DOT"}},{"type":"Feature","geometry":{"type":"Point","coordinates":[-85.719975,38.157736]},"properties":{"id":"ora-ky-154","name":"I-65 at Fern Valley Rd.","state":"KY","provider":"Kentucky DOT","hls":null,"snapshot":"https://www.trimarc.org/images/milestone/CCTV_05_65_1283.jpg","refreshMs":30000,"attribution":"Ora (Warner Varnado) · Kentucky DOT"}},{"type":"Feature","geometry":{"type":"Point","coordinates":[-86.228125,37.039858]},"properties":{"id":"ora-ky-155","name":"I-65 NB @ MP 36.5","state":"KY","provider":"Kentucky DOT","hls":null,"snapshot":"https://www.trimarc.org/images/milestone/CCTV_03_65_0365.jpg","refreshMs":30000,"attribution":"Ora (Warner Varnado) · Kentucky DOT"}},{"type":"Feature","geometry":{"type":"Point","coordinates":[-84.419791,38.039483]},"properties":{"id":"ora-ky-156","name":"I-75 NB @ Winchester Rd","state":"KY","provider":"Kentucky DOT","hls":null,"snapshot":"https://www.trimarc.org/images/milestone/CCTV_07_75_1096.jpg","refreshMs":30000,"attribution":"Ora (Warner Varnado) · Kentucky DOT"}},{"type":"Feature","geometry":{"type":"Point","coordinates":[-84.411121,38.022068]},"properties":{"id":"ora-ky-157","name":"I-75 NB @ Man O War","state":"KY","provider":"Kentucky DOT","hls":null,"snapshot":"https://www.trimarc.org/images/milestone/CCTV_07_75_1083.jpg","refreshMs":30000,"attribution":"Ora (Warner Varnado) · Kentucky DOT"}},{"type":"Feature","geometry":{"type":"Point","coordinates":[-84.430616,38.054268]},"properties":{"id":"ora-ky-158","name":"I-75 SB @ Southern Split","state":"KY","provider":"Kentucky DOT","hls":null,"snapshot":"https://www.trimarc.org/images/milestone/CCTV_07_75_1109.jpg","refreshMs":30000,"attribution":"Ora (Warner Varnado) · Kentucky DOT"}},{"type":"Feature","geometry":{"type":"Point","coordinates":[-86.568705,36.645986]},"properties":{"id":"ora-ky-159","name":"I-65 MP 0.5 Simpson Co","state":"KY","provider":"Kentucky DOT","hls":null,"snapshot":"https://www.trimarc.org/images/milestone/CCTV_03_65_0005.jpg","refreshMs":30000,"attribution":"Ora (Warner Varnado) · Kentucky DOT"}},{"type":"Feature","geometry":{"type":"Point","coordinates":[-84.445859,38.066883]},"properties":{"id":"ora-ky-160","name":"I-75 SB @ Bryan Station","state":"KY","provider":"Kentucky DOT","hls":null,"snapshot":"https://www.trimarc.org/images/milestone/CCTV_07_75_1120.jpg","refreshMs":30000,"attribution":"Ora (Warner Varnado) · Kentucky DOT"}},{"type":"Feature","geometry":{"type":"Point","coordinates":[-85.955216,37.61869]},"properties":{"id":"ora-ky-161","name":"WK Pkwy MP 129.0","state":"KY","provider":"Kentucky DOT","hls":null,"snapshot":"https://www.trimarc.org/images/milestone/CCTV_04_WKP_1290.jpg","refreshMs":30000,"attribution":"Ora (Warner Varnado) · Kentucky DOT"}},{"type":"Feature","geometry":{"type":"Point","coordinates":[-87.437173,36.644468]},"properties":{"id":"ora-ky-162","name":"US 41 ALT SB @ MP 0.3","state":"KY","provider":"Kentucky DOT","hls":null,"snapshot":"https://www.trimarc.org/images/milestone/CCTV_02_US41ALT_0003.jpg","refreshMs":30000,"attribution":"Ora (Warner Varnado) · Kentucky DOT"}},{"type":"Feature","geometry":{"type":"Point","coordinates":[-85.8413,37.69196]},"properties":{"id":"ora-ky-163","name":"I-65 MP 92.4","state":"KY","provider":"Kentucky DOT","hls":null,"snapshot":"https://www.trimarc.org/images/milestone/CCTV_04_65_0924.jpg","refreshMs":30000,"attribution":"Ora (Warner Varnado) · Kentucky DOT"}},{"type":"Feature","geometry":{"type":"Point","coordinates":[-85.77965,38.266553]},"properties":{"id":"ora-ky-164","name":"I-64 East at 22nd Street","state":"KY","provider":"Kentucky DOT","hls":null,"snapshot":"https://www.trimarc.org/images/milestone/CCTV_05_64_0030.jpg","refreshMs":30000,"attribution":"Ora (Warner Varnado) · Kentucky DOT"}},{"type":"Feature","geometry":{"type":"Point","coordinates":[-86.44817,36.8725]},"properties":{"id":"ora-ky-165","name":"I-65 NB @ MP 17.8","state":"KY","provider":"Kentucky DOT","hls":null,"snapshot":"https://www.trimarc.org/images/milestone/CCTV_03_65_0178.jpg","refreshMs":30000,"attribution":"Ora (Warner Varnado) · Kentucky DOT"}},{"type":"Feature","geometry":{"type":"Point","coordinates":[-84.558993,38.295204]},"properties":{"id":"ora-ky-166","name":"I-75 @ Scott County SB","state":"KY","provider":"Kentucky DOT","hls":null,"snapshot":"https://www.trimarc.org/images/milestone/CCTV_07_75_1305.jpg","refreshMs":30000,"attribution":"Ora (Warner Varnado) · Kentucky DOT"}},{"type":"Feature","geometry":{"type":"Point","coordinates":[-84.546851,38.248]},"properties":{"id":"ora-ky-167","name":"I-75 @ Scott County NB","state":"KY","provider":"Kentucky DOT","hls":null,"snapshot":"https://www.trimarc.org/images/milestone/CCTV_07_75_1272.jpg","refreshMs":30000,"attribution":"Ora (Warner Varnado) · Kentucky DOT"}},{"type":"Feature","geometry":{"type":"Point","coordinates":[-86.496758,36.953878]},"properties":{"id":"ora-ky-168","name":"Natcher Pkwy SB @ MP 4.9","state":"KY","provider":"Kentucky DOT","hls":null,"snapshot":"https://www.trimarc.org/images/milestone/CCTV_03_NatP_0068.jpg","refreshMs":30000,"attribution":"Ora (Warner Varnado) · Kentucky DOT"}},{"type":"Feature","geometry":{"type":"Point","coordinates":[-84.894644,38.159056]},"properties":{"id":"ora-ky-169","name":"I-64 WB @ MP 53.1","state":"KY","provider":"Kentucky DOT","hls":null,"snapshot":"https://www.trimarc.org/images/milestone/CCTV_05_64_0531.jpg","refreshMs":30000,"attribution":"Ora (Warner Varnado) · Kentucky DOT"}},{"type":"Feature","geometry":{"type":"Point","coordinates":[-87.440427,36.654513]},"properties":{"id":"ora-ky-170","name":"US 41 ALT NB @ MP 1.0","state":"KY","provider":"Kentucky DOT","hls":null,"snapshot":"https://www.trimarc.org/images/milestone/CCTV_02_US41ALT_0010.jpg","refreshMs":30000,"attribution":"Ora (Warner Varnado) · Kentucky DOT"}},{"type":"Feature","geometry":{"type":"Point","coordinates":[-87.447352,36.678014]},"properties":{"id":"ora-ky-171","name":"US 41 ALT SB @ MP 2.8 - Gate 7 Ft Campgell","state":"KY","provider":"Kentucky DOT","hls":null,"snapshot":"https://www.trimarc.org/images/milestone/CCTV_02_US41ALT_0028.jpg","refreshMs":30000,"attribution":"Ora (Warner Varnado) · Kentucky DOT"}},{"type":"Feature","geometry":{"type":"Point","coordinates":[-85.87815,37.55403]},"properties":{"id":"ora-ky-172","name":"I-65 MP 82.7","state":"KY","provider":"Kentucky DOT","hls":null,"snapshot":"https://www.trimarc.org/images/milestone/CCTV_04_65_0827.jpg","refreshMs":30000,"attribution":"Ora (Warner Varnado) · Kentucky DOT"}},{"type":"Feature","geometry":{"type":"Point","coordinates":[-87.472866,36.831821]},"properties":{"id":"ora-ky-173","name":"US 41 ALT NB @ MP 13.5 - Pennyrile Overpass","state":"KY","provider":"Kentucky DOT","hls":null,"snapshot":"https://www.trimarc.org/images/milestone/CCTV_02_US41ALT_0135.jpg","refreshMs":30000,"attribution":"Ora (Warner Varnado) · Kentucky DOT"}},{"type":"Feature","geometry":{"type":"Point","coordinates":[-85.85793,37.64781]},"properties":{"id":"ora-ky-174","name":"I-65 MP 89.2","state":"KY","provider":"Kentucky DOT","hls":null,"snapshot":"https://www.trimarc.org/images/milestone/CCTV_04_65_0892.jpg","refreshMs":30000,"attribution":"Ora (Warner Varnado) · Kentucky DOT"}},{"type":"Feature","geometry":{"type":"Point","coordinates":[-84.159137,38.016586]},"properties":{"id":"ora-ky-175","name":"I-64 @ Clark County","state":"KY","provider":"Kentucky DOT","hls":null,"snapshot":"https://www.trimarc.org/images/milestone/CCTV_07_64_0971.jpg","refreshMs":30000,"attribution":"Ora (Warner Varnado) · Kentucky DOT"}},{"type":"Feature","geometry":{"type":"Point","coordinates":[-87.440701,36.665415]},"properties":{"id":"ora-ky-176","name":"KY 911 WB @ MP 0.1","state":"KY","provider":"Kentucky DOT","hls":null,"snapshot":"https://www.trimarc.org/images/milestone/CCTV_02_KY911_0001.jpg","refreshMs":30000,"attribution":"Ora (Warner Varnado) · Kentucky DOT"}},{"type":"Feature","geometry":{"type":"Point","coordinates":[-87.446923,36.676534]},"properties":{"id":"ora-ky-177","name":"US 41 ALT @ MP 2.5 - Gate 7 Ft Campbell","state":"KY","provider":"Kentucky DOT","hls":null,"snapshot":"https://www.trimarc.org/images/milestone/CCTV_02_US41ALT_0025.jpg","refreshMs":30000,"attribution":"Ora (Warner Varnado) · Kentucky DOT"}},{"type":"Feature","geometry":{"type":"Point","coordinates":[-87.350857,36.648675]},"properties":{"id":"ora-ky-178","name":"I-24 WB @ MP 92.6","state":"KY","provider":"Kentucky DOT","hls":null,"snapshot":"https://www.trimarc.org/images/milestone/CCTV_02_24_0926.jpg","refreshMs":30000,"attribution":"Ora (Warner Varnado) · Kentucky DOT"}},{"type":"Feature","geometry":{"type":"Point","coordinates":[-85.88253,37.42621]},"properties":{"id":"ora-ky-179","name":"I-65 NB @ MP 73.7","state":"KY","provider":"Kentucky DOT","hls":null,"snapshot":"https://www.trimarc.org/images/milestone/CCTV_04_65_0737.jpg","refreshMs":30000,"attribution":"Ora (Warner Varnado) · Kentucky DOT"}},{"type":"Feature","geometry":{"type":"Point","coordinates":[-87.443424,36.665242]},"properties":{"id":"ora-ky-180","name":"US 41 ALT @ KY 911 Intersection","state":"KY","provider":"Kentucky DOT","hls":null,"snapshot":"https://www.trimarc.org/images/milestone/CCTV_02_US41ALT_0017.jpg","refreshMs":30000,"attribution":"Ora (Warner Varnado) · Kentucky DOT"}},{"type":"Feature","geometry":{"type":"Point","coordinates":[-87.436028,36.640966]},"properties":{"id":"ora-ky-181","name":"US 41 ALT @ State Line Rd","state":"KY","provider":"Kentucky DOT","hls":null,"snapshot":"https://www.trimarc.org/images/milestone/CCTV_02_US41ALT_0000.jpg","refreshMs":30000,"attribution":"Ora (Warner Varnado) · Kentucky DOT"}},{"type":"Feature","geometry":{"type":"Point","coordinates":[-85.820302,38.276904]},"properties":{"id":"ora-ky-182","name":"I-64 WB on Sherman Minton Brdg (upper deck)","state":"KY","provider":"Kentucky DOT","hls":null,"snapshot":"https://www.trimarc.org/images/milestone/CCTV_05_64_0003_WB.jpg","refreshMs":30000,"attribution":"Ora (Warner Varnado) · Kentucky DOT"}},{"type":"Feature","geometry":{"type":"Point","coordinates":[-85.820291,38.276882]},"properties":{"id":"ora-ky-183","name":"I-64 EB on Sherman Minton Brdg (lower deck)","state":"KY","provider":"Kentucky DOT","hls":null,"snapshot":"https://www.trimarc.org/images/milestone/CCTV_05_64_0003_EB.jpg","refreshMs":30000,"attribution":"Ora (Warner Varnado) · Kentucky DOT"}},{"type":"Feature","geometry":{"type":"Point","coordinates":[-85.684672,38.242286]},"properties":{"id":"ora-ky-184","name":"I-64 E. of Cochran Hill Tunnel","state":"KY","provider":"Kentucky DOT","hls":null,"snapshot":"https://www.trimarc.org/images/milestone/CCTV_05_64_0088.jpg","refreshMs":30000,"attribution":"Ora (Warner Varnado) · Kentucky DOT"}},{"type":"Feature","geometry":{"type":"Point","coordinates":[-85.507728,38.223081]},"properties":{"id":"ora-ky-185","name":"I-64 at I-265","state":"KY","provider":"Kentucky DOT","hls":null,"snapshot":"https://www.trimarc.org/images/milestone/CCTV_05_64_0189.jpg","refreshMs":30000,"attribution":"Ora (Warner Varnado) · Kentucky DOT"}},{"type":"Feature","geometry":{"type":"Point","coordinates":[-85.658056,38.236033]},"properties":{"id":"ora-ky-186","name":"I-64 at Cannons Ln.","state":"KY","provider":"Kentucky DOT","hls":null,"snapshot":"https://www.trimarc.org/images/milestone/CCTV_05_64_0104.jpg","refreshMs":30000,"attribution":"Ora (Warner Varnado) · Kentucky DOT"}},{"type":"Feature","geometry":{"type":"Point","coordinates":[-85.641708,38.23575]},"properties":{"id":"ora-ky-187","name":"I-64 at Breckenridge Ln.","state":"KY","provider":"Kentucky DOT","hls":null,"snapshot":"https://www.trimarc.org/images/milestone/CCTV_05_64_0114.jpg","refreshMs":30000,"attribution":"Ora (Warner Varnado) · Kentucky DOT"}},{"type":"Feature","geometry":{"type":"Point","coordinates":[-85.539453,38.224303]},"properties":{"id":"ora-ky-188","name":"I-64 at Blankenbaker Ln.","state":"KY","provider":"Kentucky DOT","hls":null,"snapshot":"https://www.trimarc.org/images/milestone/CCTV_05_64_0171.jpg","refreshMs":30000,"attribution":"Ora (Warner Varnado) · Kentucky DOT"}},{"type":"Feature","geometry":{"type":"Point","coordinates":[-85.505781,38.224239]},"properties":{"id":"ora-ky-189","name":"I-265 at I-64","state":"KY","provider":"Kentucky DOT","hls":null,"snapshot":"https://www.trimarc.org/images/milestone/CCTV_05_265_0256.jpg","refreshMs":30000,"attribution":"Ora (Warner Varnado) · Kentucky DOT"}},{"type":"Feature","geometry":{"type":"Point","coordinates":[-85.493911,38.222058]},"properties":{"id":"ora-ky-190","name":"I-64 at English Station Rd.","state":"KY","provider":"Kentucky DOT","hls":null,"snapshot":"https://www.trimarc.org/images/milestone/CCTV_05_64_0195.jpg","refreshMs":30000,"attribution":"Ora (Warner Varnado) · Kentucky DOT"}},{"type":"Feature","geometry":{"type":"Point","coordinates":[-85.72845,38.189794]},"properties":{"id":"ora-ky-191","name":"I-65 at I-264","state":"KY","provider":"Kentucky DOT","hls":null,"snapshot":"https://www.trimarc.org/images/milestone/CCTV_05_65_1307.jpg","refreshMs":30000,"attribution":"Ora (Warner Varnado) · Kentucky DOT"}},{"type":"Feature","geometry":{"type":"Point","coordinates":[-85.721336,38.256016]},"properties":{"id":"ora-ky-192","name":"I-64 at Mellwood Ave.","state":"KY","provider":"Kentucky DOT","hls":null,"snapshot":"https://www.trimarc.org/images/milestone/CCTV_05_64_0068.jpg","refreshMs":30000,"attribution":"Ora (Warner Varnado) · Kentucky DOT"}},{"type":"Feature","geometry":{"type":"Point","coordinates":[-85.700581,38.24755]},"properties":{"id":"ora-ky-193","name":"I-64 at Grinstead Dr.","state":"KY","provider":"Kentucky DOT","hls":null,"snapshot":"https://www.trimarc.org/images/milestone/CCTV_05_64_0079.jpg","refreshMs":30000,"attribution":"Ora (Warner Varnado) · Kentucky DOT"}},{"type":"Feature","geometry":{"type":"Point","coordinates":[-85.787427,38.274263]},"properties":{"id":"ora-ky-194","name":"I-64 West of 22nd St.","state":"KY","provider":"Kentucky DOT","hls":null,"snapshot":"https://www.trimarc.org/images/milestone/CCTV_05_64_0022.jpg","refreshMs":30000,"attribution":"Ora (Warner Varnado) · Kentucky DOT"}},{"type":"Feature","geometry":{"type":"Point","coordinates":[-85.697725,38.274619]},"properties":{"id":"ora-ky-195","name":"I-71 at Zorn Ave.","state":"KY","provider":"Kentucky DOT","hls":null,"snapshot":"https://www.trimarc.org/images/milestone/CCTV_05_71_0018.jpg","refreshMs":30000,"attribution":"Ora (Warner Varnado) · Kentucky DOT"}},{"type":"Feature","geometry":{"type":"Point","coordinates":[-85.679264,38.286186]},"properties":{"id":"ora-ky-196","name":"I-71 at Indian Hills Ave.","state":"KY","provider":"Kentucky DOT","hls":null,"snapshot":"https://www.trimarc.org/images/milestone/CCTV_05_71_0030.jpg","refreshMs":30000,"attribution":"Ora (Warner Varnado) · Kentucky DOT"}},{"type":"Feature","geometry":{"type":"Point","coordinates":[-87.525268,37.863695]},"properties":{"id":"ora-ky-197","name":"I-69 at MP 154.3","state":"KY","provider":"Kentucky DOT","hls":null,"snapshot":"https://www.trimarc.org/images/milestone/CCTV_02_69_1543.jpg","refreshMs":30000,"attribution":"Ora (Warner Varnado) · Kentucky DOT"}},{"type":"Feature","geometry":{"type":"Point","coordinates":[-86.809492,37.383328]},"properties":{"id":"ora-ky-198","name":"I-165 at MP 41.2","state":"KY","provider":"Kentucky DOT","hls":null,"snapshot":"https://www.trimarc.org/images/milestone/CCTV_02_165_0412.jpg","refreshMs":30000,"attribution":"Ora (Warner Varnado) · Kentucky DOT"}},{"type":"Feature","geometry":{"type":"Point","coordinates":[-84.809925,38.174047]},"properties":{"id":"ora-ky-199","name":"I-64 @ MP 58.0","state":"KY","provider":"Kentucky DOT","hls":null,"snapshot":"https://www.trimarc.org/images/milestone/CCTV_05_64_0580.jpg","refreshMs":30000,"attribution":"Ora (Warner Varnado) · Kentucky DOT"}},{"type":"Feature","geometry":{"type":"Point","coordinates":[-85.765308,38.258642]},"properties":{"id":"ora-ky-200","name":"I-64 at 9th St","state":"KY","provider":"Kentucky DOT","hls":null,"snapshot":"https://www.trimarc.org/images/milestone/CCTV_05_64_0040.jpg","refreshMs":30000,"attribution":"Ora (Warner Varnado) · Kentucky DOT"}},{"type":"Feature","geometry":{"type":"Point","coordinates":[-85.697315,37.978285]},"properties":{"id":"ora-ky-201","name":"I-65 NB @ MP 115.6","state":"KY","provider":"Kentucky DOT","hls":null,"snapshot":"https://www.trimarc.org/images/milestone/CCTV_05_65_1156.jpg","refreshMs":30000,"attribution":"Ora (Warner Varnado) · Kentucky DOT"}},{"type":"Feature","geometry":{"type":"Point","coordinates":[-84.83357,38.74184]},"properties":{"id":"ora-ky-202","name":"I-71 at MM 61.8","state":"KY","provider":"Kentucky DOT","hls":null,"snapshot":"https://www.trimarc.org/images/milestone/CCTV_06_71_0618.jpg","refreshMs":30000,"attribution":"Ora (Warner Varnado) · Kentucky DOT"}},{"type":"Feature","geometry":{"type":"Point","coordinates":[-85.121671,38.646823]},"properties":{"id":"ora-ky-203","name":"I-71 at MP 44.3","state":"KY","provider":"Kentucky DOT","hls":null,"snapshot":"https://www.trimarc.org/images/milestone/CCTV_06_71_0443.jpg","refreshMs":30000,"attribution":"Ora (Warner Varnado) · Kentucky DOT"}},{"type":"Feature","geometry":{"type":"Point","coordinates":[-85.608349,38.301333]},"properties":{"id":"ora-ky-204","name":"I-71 N. at Barbour Ln Overpass","state":"KY","provider":"Kentucky DOT","hls":null,"snapshot":"https://www.trimarc.org/images/milestone/CCTV_05_71_0074.jpg","refreshMs":30000,"attribution":"Ora (Warner Varnado) · Kentucky DOT"}},{"type":"Feature","geometry":{"type":"Point","coordinates":[-84.106255,36.617959]},"properties":{"id":"ora-ky-205","name":"I-75 NB @ 1.8 - Whitley Co","state":"KY","provider":"Kentucky DOT","hls":null,"snapshot":"https://www.trimarc.org/images/milestone/CCTV_11_75_0018.jpg","refreshMs":30000,"attribution":"Ora (Warner Varnado) · Kentucky DOT"}},{"type":"Feature","geometry":{"type":"Point","coordinates":[-87.55765,37.79746]},"properties":{"id":"ora-ky-206","name":"I-69 at MP 148.1","state":"KY","provider":"Kentucky DOT","hls":null,"snapshot":"https://www.trimarc.org/images/milestone/CCTV_02_69_1481.jpg","refreshMs":30000,"attribution":"Ora (Warner Varnado) · Kentucky DOT"}},{"type":"Feature","geometry":{"type":"Point","coordinates":[-87.56449,37.80988]},"properties":{"id":"ora-ky-207","name":"I-69 at MP 149.1","state":"KY","provider":"Kentucky DOT","hls":null,"snapshot":"https://www.trimarc.org/images/milestone/CCTV_02_69_1491.jpg","refreshMs":30000,"attribution":"Ora (Warner Varnado) · Kentucky DOT"}},{"type":"Feature","geometry":{"type":"Point","coordinates":[-87.5626,37.82126]},"properties":{"id":"ora-ky-208","name":"I-69 at MP 149.9","state":"KY","provider":"Kentucky DOT","hls":null,"snapshot":"https://www.trimarc.org/images/milestone/CCTV_02_69_1499.jpg","refreshMs":30000,"attribution":"Ora (Warner Varnado) · Kentucky DOT"}},{"type":"Feature","geometry":{"type":"Point","coordinates":[-87.56666,37.83032]},"properties":{"id":"ora-ky-209","name":"I-69 at MP 150.6","state":"KY","provider":"Kentucky DOT","hls":null,"snapshot":"https://www.trimarc.org/images/milestone/CCTV_02_69_1506.jpg","refreshMs":30000,"attribution":"Ora (Warner Varnado) · Kentucky DOT"}},{"type":"Feature","geometry":{"type":"Point","coordinates":[-87.565056,37.84925]},"properties":{"id":"ora-ky-210","name":"I-69 at MP 151.9","state":"KY","provider":"Kentucky DOT","hls":null,"snapshot":"https://www.trimarc.org/images/milestone/CCTV_02_69_1519.jpg","refreshMs":30000,"attribution":"Ora (Warner Varnado) · Kentucky DOT"}},{"type":"Feature","geometry":{"type":"Point","coordinates":[-87.546303,37.854956]},"properties":{"id":"ora-ky-211","name":"I-69 at MP 153.0","state":"KY","provider":"Kentucky DOT","hls":null,"snapshot":"https://www.trimarc.org/images/milestone/CCTV_02_69_1530.jpg","refreshMs":30000,"attribution":"Ora (Warner Varnado) · Kentucky DOT"}},{"type":"Feature","geometry":{"type":"Point","coordinates":[-87.442836,37.213489]},"properties":{"id":"ora-ky-212","name":"I-69 at MP 106.2","state":"KY","provider":"Kentucky DOT","hls":null,"snapshot":"https://www.trimarc.org/images/milestone/CCTV_02_69_1062.jpg","refreshMs":30000,"attribution":"Ora (Warner Varnado) · Kentucky DOT"}},{"type":"Feature","geometry":{"type":"Point","coordinates":[-85.744449,38.258674]},"properties":{"id":"ora-ky-213","name":"I-64 near Slugger Field","state":"KY","provider":"Kentucky DOT","hls":null,"snapshot":"https://www.trimarc.org/images/milestone/CCTV_05_64_0050.jpg","refreshMs":30000,"attribution":"Ora (Warner Varnado) · Kentucky DOT"}},{"type":"Feature","geometry":{"type":"Point","coordinates":[-85.577975,38.223081]},"properties":{"id":"ora-ky-214","name":"I-64 at Hurstbourne Ln.","state":"KY","provider":"Kentucky DOT","hls":null,"snapshot":"https://www.trimarc.org/images/milestone/CCTV_05_64_0150.jpg","refreshMs":30000,"attribution":"Ora (Warner Varnado) · Kentucky DOT"}},{"type":"Feature","geometry":{"type":"Point","coordinates":[-85.812508,38.185242]},"properties":{"id":"ora-ky-215","name":"I-264 at Dixie Hwy.","state":"KY","provider":"Kentucky DOT","hls":null,"snapshot":"https://www.trimarc.org/images/milestone/CCTV_05_264_0075.jpg","refreshMs":30000,"attribution":"Ora (Warner Varnado) · Kentucky DOT"}},{"type":"Feature","geometry":{"type":"Point","coordinates":[-85.780981,38.189347]},"properties":{"id":"ora-ky-216","name":"I-264 at Taylor Blvd.","state":"KY","provider":"Kentucky DOT","hls":null,"snapshot":"https://www.trimarc.org/images/milestone/CCTV_05_264_0093.jpg","refreshMs":30000,"attribution":"Ora (Warner Varnado) · Kentucky DOT"}},{"type":"Feature","geometry":{"type":"Point","coordinates":[-87.52987,37.76256]},"properties":{"id":"ora-ky-217","name":"I-69 NB at MP 145.2","state":"KY","provider":"Kentucky DOT","hls":null,"snapshot":"https://www.trimarc.org/images/milestone/CCTV_02_69_1452.jpg","refreshMs":30000,"attribution":"Ora (Warner Varnado) · Kentucky DOT"}},{"type":"Feature","geometry":{"type":"Point","coordinates":[-88.084531,37.071709]},"properties":{"id":"ora-ky-218","name":"I-69 MP 68.1","state":"KY","provider":"Kentucky DOT","hls":null,"snapshot":"https://www.trimarc.org/images/milestone/CCTV_01_69_0681.jpg","refreshMs":30000,"attribution":"Ora (Warner Varnado) · Kentucky DOT"}},{"type":"Feature","geometry":{"type":"Point","coordinates":[-85.29653,38.45707]},"properties":{"id":"ora-ky-219","name":"I-71 SB at MP 27.8","state":"KY","provider":"Kentucky DOT","hls":null,"snapshot":"https://www.trimarc.org/images/milestone/CCTV_05_71_0278.jpg","refreshMs":30000,"attribution":"Ora (Warner Varnado) · Kentucky DOT"}},{"type":"Feature","geometry":{"type":"Point","coordinates":[-85.708436,38.195539]},"properties":{"id":"ora-ky-220","name":"I-264 at Poplar Level Rd.","state":"KY","provider":"Kentucky DOT","hls":null,"snapshot":"https://www.trimarc.org/images/milestone/CCTV_05_264_0133.jpg","refreshMs":30000,"attribution":"Ora (Warner Varnado) · Kentucky DOT"}},{"type":"Feature","geometry":{"type":"Point","coordinates":[-85.646294,38.288479]},"properties":{"id":"ora-ky-221","name":"I-264 at I-71","state":"KY","provider":"Kentucky DOT","hls":null,"snapshot":"https://www.trimarc.org/images/milestone/CCTV_05_71_0051.jpg","refreshMs":30000,"attribution":"Ora (Warner Varnado) · Kentucky DOT"}},{"type":"Feature","geometry":{"type":"Point","coordinates":[-85.639967,38.292244]},"properties":{"id":"ora-ky-222","name":"I-71 N. of I-264","state":"KY","provider":"Kentucky DOT","hls":null,"snapshot":"https://www.trimarc.org/images/milestone/CCTV_05_71_0055.jpg","refreshMs":30000,"attribution":"Ora (Warner Varnado) · Kentucky DOT"}},{"type":"Feature","geometry":{"type":"Point","coordinates":[-87.52932,36.7543]},"properties":{"id":"ora-ky-223","name":"I-24 at MP 80.0","state":"KY","provider":"Kentucky DOT","hls":null,"snapshot":"https://www.trimarc.org/images/milestone/CCTV_02_24_0800.jpg","refreshMs":30000,"attribution":"Ora (Warner Varnado) · Kentucky DOT"}},{"type":"Feature","geometry":{"type":"Point","coordinates":[-86.486435,36.988637]},"properties":{"id":"ora-ky-224","name":"Morgantown Rd and Veterans Memorial Ln","state":"KY","provider":"Kentucky DOT","hls":null,"snapshot":"https://www.trimarc.org/images/milestone/CCTV_03_MorgantownRd_and_VeteransMemorialLn.jpg","refreshMs":30000,"attribution":"Ora (Warner Varnado) · Kentucky DOT"}},{"type":"Feature","geometry":{"type":"Point","coordinates":[-85.705892,38.136886]},"properties":{"id":"ora-ky-225","name":"I-65 at Outer Loop","state":"KY","provider":"Kentucky DOT","hls":null,"snapshot":"https://www.trimarc.org/images/milestone/CCTV_05_65_1267.jpg","refreshMs":30000,"attribution":"Ora (Warner Varnado) · Kentucky DOT"}},{"type":"Feature","geometry":{"type":"Point","coordinates":[-85.700872,38.114503]},"properties":{"id":"ora-ky-226","name":"I-65 at I-265","state":"KY","provider":"Kentucky DOT","hls":null,"snapshot":"https://www.trimarc.org/images/milestone/CCTV_05_65_1252.jpg","refreshMs":30000,"attribution":"Ora (Warner Varnado) · Kentucky DOT"}},{"type":"Feature","geometry":{"type":"Point","coordinates":[-85.597533,38.229639]},"properties":{"id":"ora-ky-227","name":"I-64 at Oxmoor Farm Rd.","state":"KY","provider":"Kentucky DOT","hls":null,"snapshot":"https://www.trimarc.org/images/milestone/CCTV_05_64_0138.jpg","refreshMs":30000,"attribution":"Ora (Warner Varnado) · Kentucky DOT"}},{"type":"Feature","geometry":{"type":"Point","coordinates":[-85.416036,38.218206]},"properties":{"id":"ora-ky-228","name":"I-64 at Clark Station","state":"KY","provider":"Kentucky DOT","hls":null,"snapshot":"https://www.trimarc.org/images/milestone/CCTV_05_64_0238.jpg","refreshMs":30000,"attribution":"Ora (Warner Varnado) · Kentucky DOT"}},{"type":"Feature","geometry":{"type":"Point","coordinates":[-85.40785,38.217033]},"properties":{"id":"ora-ky-229","name":"I-64 at Jeff./Shelby Co. Line","state":"KY","provider":"Kentucky DOT","hls":null,"snapshot":"https://www.trimarc.org/images/milestone/CCTV_05_64_0242.jpg","refreshMs":30000,"attribution":"Ora (Warner Varnado) · Kentucky DOT"}},{"type":"Feature","geometry":{"type":"Point","coordinates":[-85.822056,38.220994]},"properties":{"id":"ora-ky-230","name":"I-264 at Bells Ln.","state":"KY","provider":"Kentucky DOT","hls":null,"snapshot":"https://www.trimarc.org/images/milestone/CCTV_05_264_0041.jpg","refreshMs":30000,"attribution":"Ora (Warner Varnado) · Kentucky DOT"}},{"type":"Feature","geometry":{"type":"Point","coordinates":[-85.6234,38.26465]},"properties":{"id":"ora-ky-231","name":"I-264 at Westport Rd.","state":"KY","provider":"Kentucky DOT","hls":null,"snapshot":"https://www.trimarc.org/images/milestone/CCTV_05_264_0208.jpg","refreshMs":30000,"attribution":"Ora (Warner Varnado) · Kentucky DOT"}},{"type":"Feature","geometry":{"type":"Point","coordinates":[-85.650111,38.221628]},"properties":{"id":"ora-ky-232","name":"I-264 at Taylorsville Rd","state":"KY","provider":"Kentucky DOT","hls":null,"snapshot":"https://www.trimarc.org/images/milestone/CCTV_05_264_0170.jpg","refreshMs":30000,"attribution":"Ora (Warner Varnado) · Kentucky DOT"}},{"type":"Feature","geometry":{"type":"Point","coordinates":[-85.779346,38.120618]},"properties":{"id":"ora-ky-233","name":"KY 841 at New Cut Rd.","state":"KY","provider":"Kentucky DOT","hls":null,"snapshot":"https://www.trimarc.org/images/milestone/CCTV_05_841_0060.jpg","refreshMs":30000,"attribution":"Ora (Warner Varnado) · Kentucky DOT"}},{"type":"Feature","geometry":{"type":"Point","coordinates":[-87.455099,36.704193]},"properties":{"id":"ora-ky-234","name":"US 41 ALT NB @ MP 4.5 - I-24 Overpass","state":"KY","provider":"Kentucky DOT","hls":null,"snapshot":"https://www.trimarc.org/images/milestone/CCTV_02_US41ALT_0045.jpg","refreshMs":30000,"attribution":"Ora (Warner Varnado) · Kentucky DOT"}},{"type":"Feature","geometry":{"type":"Point","coordinates":[-86.00705,37.12137]},"properties":{"id":"ora-ky-235","name":"I-65 SB @ MP 50.5","state":"KY","provider":"Kentucky DOT","hls":null,"snapshot":"https://www.trimarc.org/images/milestone/CCTV_03_65_0505.jpg","refreshMs":30000,"attribution":"Ora (Warner Varnado) · Kentucky DOT"}},{"type":"Feature","geometry":{"type":"Point","coordinates":[-86.05878,37.03713]},"properties":{"id":"ora-ky-236","name":"Louie B Nunn Pkwy WB @ MP 3.4","state":"KY","provider":"Kentucky DOT","hls":null,"snapshot":"https://www.trimarc.org/images/milestone/CCTV_03_LBNP_0034.jpg","refreshMs":30000,"attribution":"Ora (Warner Varnado) · Kentucky DOT"}},{"type":"Feature","geometry":{"type":"Point","coordinates":[-86.50375,36.91903]},"properties":{"id":"ora-ky-237","name":"US 31W NB @ MP 7.0","state":"KY","provider":"Kentucky DOT","hls":null,"snapshot":"https://www.trimarc.org/images/milestone/CCTV_03_US31W_0070.jpg","refreshMs":30000,"attribution":"Ora (Warner Varnado) · Kentucky DOT"}},{"type":"Feature","geometry":{"type":"Point","coordinates":[-86.377939,36.894242]},"properties":{"id":"ora-ky-238","name":"US 231 NB @ MP 5.3 - at Natcher Pkwy","state":"KY","provider":"Kentucky DOT","hls":null,"snapshot":"https://www.trimarc.org/images/milestone/CCTV_03_US231_0053.jpg","refreshMs":30000,"attribution":"Ora (Warner Varnado) · Kentucky DOT"}},{"type":"Feature","geometry":{"type":"Point","coordinates":[-86.41758,36.93326]},"properties":{"id":"ora-ky-239","name":"I-65 NB @ MP 22.3 - at US 231","state":"KY","provider":"Kentucky DOT","hls":null,"snapshot":"https://www.trimarc.org/images/milestone/CCTV_03_65_0223.jpg","refreshMs":30000,"attribution":"Ora (Warner Varnado) · Kentucky DOT"}},{"type":"Feature","geometry":{"type":"Point","coordinates":[-85.460008,38.221514]},"properties":{"id":"ora-ky-240","name":"I-64 at Echo Trail","state":"KY","provider":"Kentucky DOT","hls":null,"snapshot":"https://www.trimarc.org/images/milestone/CCTV_05_64_0214.jpg","refreshMs":30000,"attribution":"Ora (Warner Varnado) · Kentucky DOT"}}]}