{"type":"FeatureCollection","features":[{"type":"Feature","geometry":{"type":"Point","coordinates":[-70.75567,43.09848]},"properties":{"id":"ora-me-0","name":"95 NS 0.6 CCTV AX MTA\t","state":"ME","provider":"Maine DOT (NewEngland511)","hls":null,"snapshot":"https://www.newengland511.org/map/Cctv/759","refreshMs":30000,"attribution":"Ora (Warner Varnado) · Maine DOT (NewEngland511)"}},{"type":"Feature","geometry":{"type":"Point","coordinates":[-69.22858,44.80757]},"properties":{"id":"ora-me-1","name":"I-95 Mile 161 SB (Plymouth)","state":"ME","provider":"Maine DOT (NewEngland511)","hls":null,"snapshot":"https://www.newengland511.org/map/Cctv/2076","refreshMs":30000,"attribution":"Ora (Warner Varnado) · Maine DOT (NewEngland511)"}},{"type":"Feature","geometry":{"type":"Point","coordinates":[-68.987197,44.763561]},"properties":{"id":"ora-me-2","name":"I-95 Mile 174 SB (Carmel)","state":"ME","provider":"Maine DOT (NewEngland511)","hls":null,"snapshot":"https://www.newengland511.org/map/Cctv/2077","refreshMs":30000,"attribution":"Ora (Warner Varnado) · Maine DOT (NewEngland511)"}},{"type":"Feature","geometry":{"type":"Point","coordinates":[-70.07909,43.89141]},"properties":{"id":"ora-me-3","name":"I-295 Mile 24 NB (Freeport)","state":"ME","provider":"Maine DOT (NewEngland511)","hls":null,"snapshot":"https://www.newengland511.org/map/Cctv/2079","refreshMs":30000,"attribution":"Ora (Warner Varnado) · Maine DOT (NewEngland511)"}},{"type":"Feature","geometry":{"type":"Point","coordinates":[-69.96859,43.95124]},"properties":{"id":"ora-me-4","name":"I-295 Mile 31 NB (Topsham)","state":"ME","provider":"Maine DOT (NewEngland511)","hls":null,"snapshot":"https://www.newengland511.org/map/Cctv/2080","refreshMs":30000,"attribution":"Ora (Warner Varnado) · Maine DOT (NewEngland511)"}},{"type":"Feature","geometry":{"type":"Point","coordinates":[-69.52216,44.64495]},"properties":{"id":"ora-me-5","name":"I-95 Mile 138 NB (Clinton)","state":"ME","provider":"Maine DOT (NewEngland511)","hls":null,"snapshot":"https://www.newengland511.org/map/Cctv/2081","refreshMs":30000,"attribution":"Ora (Warner Varnado) · Maine DOT (NewEngland511)"}},{"type":"Feature","geometry":{"type":"Point","coordinates":[-69.40029,44.791]},"properties":{"id":"ora-me-6","name":"I-95 Mile 150 NB (Pittsfield)","state":"ME","provider":"Maine DOT (NewEngland511)","hls":null,"snapshot":"https://www.newengland511.org/map/Cctv/2082","refreshMs":30000,"attribution":"Ora (Warner Varnado) · Maine DOT (NewEngland511)"}},{"type":"Feature","geometry":{"type":"Point","coordinates":[-69.21415,44.79801]},"properties":{"id":"ora-me-7","name":"I-95 Mile 161 NB (Plymouth)","state":"ME","provider":"Maine DOT (NewEngland511)","hls":null,"snapshot":"https://www.newengland511.org/map/Cctv/2084","refreshMs":30000,"attribution":"Ora (Warner Varnado) · Maine DOT (NewEngland511)"}},{"type":"Feature","geometry":{"type":"Point","coordinates":[-68.965732,44.759422]},"properties":{"id":"ora-me-8","name":"I-95 Mile 174 NB (Newburgh)","state":"ME","provider":"Maine DOT (NewEngland511)","hls":null,"snapshot":"https://www.newengland511.org/map/Cctv/2085","refreshMs":30000,"attribution":"Ora (Warner Varnado) · Maine DOT (NewEngland511)"}},{"type":"Feature","geometry":{"type":"Point","coordinates":[-68.83739,44.77763]},"properties":{"id":"ora-me-9","name":"I-95 Mile 180 NB (Bangor)","state":"ME","provider":"Maine DOT (NewEngland511)","hls":null,"snapshot":"https://www.newengland511.org/map/Cctv/2086","refreshMs":30000,"attribution":"Ora (Warner Varnado) · Maine DOT (NewEngland511)"}},{"type":"Feature","geometry":{"type":"Point","coordinates":[-68.69754,44.87988]},"properties":{"id":"ora-me-10","name":"I-95 Mile 191 NB (Orono)","state":"ME","provider":"Maine DOT (NewEngland511)","hls":null,"snapshot":"https://www.newengland511.org/map/Cctv/2087","refreshMs":30000,"attribution":"Ora (Warner Varnado) · Maine DOT (NewEngland511)"}},{"type":"Feature","geometry":{"type":"Point","coordinates":[-68.51049,45.616124]},"properties":{"id":"ora-me-11","name":"I-95 Mile 244 NB (Medway)","state":"ME","provider":"Maine DOT (NewEngland511)","hls":null,"snapshot":"https://www.newengland511.org/map/Cctv/2088","refreshMs":30000,"attribution":"Ora (Warner Varnado) · Maine DOT (NewEngland511)"}},{"type":"Feature","geometry":{"type":"Point","coordinates":[-68.409793,45.878858]},"properties":{"id":"ora-me-12","name":"I-95 Mile 264 NB (Sherman)","state":"ME","provider":"Maine DOT (NewEngland511)","hls":null,"snapshot":"https://www.newengland511.org/map/Cctv/2089","refreshMs":30000,"attribution":"Ora (Warner Varnado) · Maine DOT (NewEngland511)"}},{"type":"Feature","geometry":{"type":"Point","coordinates":[-68.283805,46.02601]},"properties":{"id":"ora-me-13","name":"I-95 Mile 277 NB (Island Falls)","state":"ME","provider":"Maine DOT (NewEngland511)","hls":null,"snapshot":"https://www.newengland511.org/map/Cctv/2090","refreshMs":30000,"attribution":"Ora (Warner Varnado) · Maine DOT (NewEngland511)"}},{"type":"Feature","geometry":{"type":"Point","coordinates":[-68.140228,46.114631]},"properties":{"id":"ora-me-14","name":"I-95 Mile 286 NB (Oakfield)","state":"ME","provider":"Maine DOT (NewEngland511)","hls":null,"snapshot":"https://www.newengland511.org/map/Cctv/2091","refreshMs":30000,"attribution":"Ora (Warner Varnado) · Maine DOT (NewEngland511)"}},{"type":"Feature","geometry":{"type":"Point","coordinates":[-68.03305,46.14197]},"properties":{"id":"ora-me-15","name":"I-95 Mile 291 NB (Smyrna)","state":"ME","provider":"Maine DOT (NewEngland511)","hls":null,"snapshot":"https://www.newengland511.org/map/Cctv/2092","refreshMs":30000,"attribution":"Ora (Warner Varnado) · Maine DOT (NewEngland511)"}},{"type":"Feature","geometry":{"type":"Point","coordinates":[-69.92681,44.00419]},"properties":{"id":"ora-me-16","name":"I-295 Mile 37 SB (Bowdoinham)","state":"ME","provider":"Maine DOT (NewEngland511)","hls":null,"snapshot":"https://www.newengland511.org/map/Cctv/2094","refreshMs":30000,"attribution":"Ora (Warner Varnado) · Maine DOT (NewEngland511)"}},{"type":"Feature","geometry":{"type":"Point","coordinates":[-69.875709,44.089481]},"properties":{"id":"ora-me-17","name":"I-295 Mile 43 SB (Bowdoinham)","state":"ME","provider":"Maine DOT (NewEngland511)","hls":null,"snapshot":"https://www.newengland511.org/map/Cctv/2095","refreshMs":30000,"attribution":"Ora (Warner Varnado) · Maine DOT (NewEngland511)"}},{"type":"Feature","geometry":{"type":"Point","coordinates":[-69.53424,44.63403]},"properties":{"id":"ora-me-18","name":"I-95 Mile 138 SB (Clinton)","state":"ME","provider":"Maine DOT (NewEngland511)","hls":null,"snapshot":"https://www.newengland511.org/map/Cctv/2098","refreshMs":30000,"attribution":"Ora (Warner Varnado) · Maine DOT (NewEngland511)"}},{"type":"Feature","geometry":{"type":"Point","coordinates":[-69.29977,44.83606]},"properties":{"id":"ora-me-19","name":"I-95 Mile 157 SB (Palmrya)","state":"ME","provider":"Maine DOT (NewEngland511)","hls":null,"snapshot":"https://www.newengland511.org/map/Cctv/2099","refreshMs":30000,"attribution":"Ora (Warner Varnado) · Maine DOT (NewEngland511)"}},{"type":"Feature","geometry":{"type":"Point","coordinates":[-69.11393,44.78587]},"properties":{"id":"ora-me-20","name":"I-95 Mile 167 SB (Etna)","state":"ME","provider":"Maine DOT (NewEngland511)","hls":null,"snapshot":"https://www.newengland511.org/map/Cctv/2100","refreshMs":30000,"attribution":"Ora (Warner Varnado) · Maine DOT (NewEngland511)"}},{"type":"Feature","geometry":{"type":"Point","coordinates":[-68.60567,45.36761]},"properties":{"id":"ora-me-21","name":"I-95 Mile 227 SB (Lincoln)","state":"ME","provider":"Maine DOT (NewEngland511)","hls":null,"snapshot":"https://www.newengland511.org/map/Cctv/2101","refreshMs":30000,"attribution":"Ora (Warner Varnado) · Maine DOT (NewEngland511)"}},{"type":"Feature","geometry":{"type":"Point","coordinates":[-68.281082,46.001426]},"properties":{"id":"ora-me-22","name":"I-95 Mile 276 SB (Island Falls)","state":"ME","provider":"Maine DOT (NewEngland511)","hls":null,"snapshot":"https://www.newengland511.org/map/Cctv/2102","refreshMs":30000,"attribution":"Ora (Warner Varnado) · Maine DOT (NewEngland511)"}},{"type":"Feature","geometry":{"type":"Point","coordinates":[-68.169276,46.106773]},"properties":{"id":"ora-me-23","name":"I-95 Mile 285 SB (Oakfield)","state":"ME","provider":"Maine DOT (NewEngland511)","hls":null,"snapshot":"https://www.newengland511.org/map/Cctv/2103","refreshMs":30000,"attribution":"Ora (Warner Varnado) · Maine DOT (NewEngland511)"}},{"type":"Feature","geometry":{"type":"Point","coordinates":[-68.70582,44.96763]},"properties":{"id":"ora-me-24","name":"I-95 Mile 197 NB (Old Town)","state":"ME","provider":"Maine DOT (NewEngland511)","hls":null,"snapshot":"https://www.newengland511.org/map/Cctv/2105","refreshMs":30000,"attribution":"Ora (Warner Varnado) · Maine DOT (NewEngland511)"}},{"type":"Feature","geometry":{"type":"Point","coordinates":[-68.60242,45.38977]},"properties":{"id":"ora-me-25","name":"I-95 Mile 227 NB (Lincoln)","state":"ME","provider":"Maine DOT (NewEngland511)","hls":null,"snapshot":"https://www.newengland511.org/map/Cctv/2106","refreshMs":30000,"attribution":"Ora (Warner Varnado) · Maine DOT (NewEngland511)"}},{"type":"Feature","geometry":{"type":"Point","coordinates":[-68.70547,44.97592]},"properties":{"id":"ora-me-26","name":"I-95 Mile 199 SB (Old Town)","state":"ME","provider":"Maine DOT (NewEngland511)","hls":null,"snapshot":"https://www.newengland511.org/map/Cctv/2107","refreshMs":30000,"attribution":"Ora (Warner Varnado) · Maine DOT (NewEngland511)"}},{"type":"Feature","geometry":{"type":"Point","coordinates":[-68.70753,44.94122]},"properties":{"id":"ora-me-27","name":"I-95 Mile 197 SB (Old Town)","state":"ME","provider":"Maine DOT (NewEngland511)","hls":null,"snapshot":"https://www.newengland511.org/map/Cctv/2108","refreshMs":30000,"attribution":"Ora (Warner Varnado) · Maine DOT (NewEngland511)"}},{"type":"Feature","geometry":{"type":"Point","coordinates":[-68.8739,44.76923]},"properties":{"id":"ora-me-28","name":"I-95 Mile 180 SB (Hermon)","state":"ME","provider":"Maine DOT (NewEngland511)","hls":null,"snapshot":"https://www.newengland511.org/map/Cctv/2112","refreshMs":30000,"attribution":"Ora (Warner Varnado) · Maine DOT (NewEngland511)"}},{"type":"Feature","geometry":{"type":"Point","coordinates":[-68.42367,45.856781]},"properties":{"id":"ora-me-29","name":"I-95 Mile 264 SB (Sherman)","state":"ME","provider":"Maine DOT (NewEngland511)","hls":null,"snapshot":"https://www.newengland511.org/map/Cctv/2116","refreshMs":30000,"attribution":"Ora (Warner Varnado) · Maine DOT (NewEngland511)"}},{"type":"Feature","geometry":{"type":"Point","coordinates":[-70.22761,43.73624]},"properties":{"id":"ora-me-30","name":"I-295 Mile 10 NB (Falmouth)","state":"ME","provider":"Maine DOT (NewEngland511)","hls":null,"snapshot":"https://www.newengland511.org/map/Cctv/2117","refreshMs":30000,"attribution":"Ora (Warner Varnado) · Maine DOT (NewEngland511)"}},{"type":"Feature","geometry":{"type":"Point","coordinates":[-69.81386,44.32154]},"properties":{"id":"ora-me-31","name":"I-95 Mile 109 NB (Augusta)","state":"ME","provider":"Maine DOT (NewEngland511)","hls":null,"snapshot":"https://www.newengland511.org/map/Cctv/2119","refreshMs":30000,"attribution":"Ora (Warner Varnado) · Maine DOT (NewEngland511)"}},{"type":"Feature","geometry":{"type":"Point","coordinates":[-69.83538,44.16323]},"properties":{"id":"ora-me-32","name":"I-295 Mile 49 SB (Richmond)","state":"ME","provider":"Maine DOT (NewEngland511)","hls":null,"snapshot":"https://www.newengland511.org/map/Cctv/2121","refreshMs":30000,"attribution":"Ora (Warner Varnado) · Maine DOT (NewEngland511)"}},{"type":"Feature","geometry":{"type":"Point","coordinates":[-69.82604,44.19862]},"properties":{"id":"ora-me-33","name":"I-295 Mile 51 SB (Gardiner)","state":"ME","provider":"Maine DOT (NewEngland511)","hls":null,"snapshot":"https://www.newengland511.org/map/Cctv/2122","refreshMs":30000,"attribution":"Ora (Warner Varnado) · Maine DOT (NewEngland511)"}},{"type":"Feature","geometry":{"type":"Point","coordinates":[-70.18363,43.79028]},"properties":{"id":"ora-me-34","name":"I-295 Mile 15 NB (Cumberland)","state":"ME","provider":"Maine DOT (NewEngland511)","hls":null,"snapshot":"https://www.newengland511.org/map/Cctv/2123","refreshMs":30000,"attribution":"Ora (Warner Varnado) · Maine DOT (NewEngland511)"}},{"type":"Feature","geometry":{"type":"Point","coordinates":[-69.99821,43.92841]},"properties":{"id":"ora-me-35","name":"I-295 Mile 28 NB (Brunswick)","state":"ME","provider":"Maine DOT (NewEngland511)","hls":null,"snapshot":"https://www.newengland511.org/map/Cctv/2124","refreshMs":30000,"attribution":"Ora (Warner Varnado) · Maine DOT (NewEngland511)"}},{"type":"Feature","geometry":{"type":"Point","coordinates":[-70.20027,43.77404]},"properties":{"id":"ora-me-36","name":"I-295 Mile 15 SB (Cumberland)","state":"ME","provider":"Maine DOT (NewEngland511)","hls":null,"snapshot":"https://www.newengland511.org/map/Cctv/2125","refreshMs":30000,"attribution":"Ora (Warner Varnado) · Maine DOT (NewEngland511)"}},{"type":"Feature","geometry":{"type":"Point","coordinates":[-69.82889,44.19063]},"properties":{"id":"ora-me-37","name":"I-295 Mile 49 NB (Gardiner)","state":"ME","provider":"Maine DOT (NewEngland511)","hls":null,"snapshot":"https://www.newengland511.org/map/Cctv/2126","refreshMs":30000,"attribution":"Ora (Warner Varnado) · Maine DOT (NewEngland511)"}},{"type":"Feature","geometry":{"type":"Point","coordinates":[-69.86092,44.10939]},"properties":{"id":"ora-me-38","name":"I-295 Mile 43 NB (Richmond)","state":"ME","provider":"Maine DOT (NewEngland511)","hls":null,"snapshot":"https://www.newengland511.org/map/Cctv/2128","refreshMs":30000,"attribution":"Ora (Warner Varnado) · Maine DOT (NewEngland511)"}},{"type":"Feature","geometry":{"type":"Point","coordinates":[-70.1748,43.80045]},"properties":{"id":"ora-me-39","name":"I-295 Mile 17 SB (Yarmouth)","state":"ME","provider":"Maine DOT (NewEngland511)","hls":null,"snapshot":"https://www.newengland511.org/map/Cctv/2129","refreshMs":30000,"attribution":"Ora (Warner Varnado) · Maine DOT (NewEngland511)"}},{"type":"Feature","geometry":{"type":"Point","coordinates":[-70.11254,43.8569]},"properties":{"id":"ora-me-40","name":"I-295 Mile 22 SB (Freeport)","state":"ME","provider":"Maine DOT (NewEngland511)","hls":null,"snapshot":"https://www.newengland511.org/map/Cctv/2130","refreshMs":30000,"attribution":"Ora (Warner Varnado) · Maine DOT (NewEngland511)"}},{"type":"Feature","geometry":{"type":"Point","coordinates":[-69.99779,43.92928]},"properties":{"id":"ora-me-41","name":"I-295 Mile 31 SB (Topsham)","state":"ME","provider":"Maine DOT (NewEngland511)","hls":null,"snapshot":"https://www.newengland511.org/map/Cctv/2132","refreshMs":30000,"attribution":"Ora (Warner Varnado) · Maine DOT (NewEngland511)"}},{"type":"Feature","geometry":{"type":"Point","coordinates":[-69.705078,44.496805]},"properties":{"id":"ora-me-42","name":"I-95 Mile 124 SB (Waterville)","state":"ME","provider":"Maine DOT (NewEngland511)","hls":null,"snapshot":"https://www.newengland511.org/map/Cctv/2134","refreshMs":30000,"attribution":"Ora (Warner Varnado) · Maine DOT (NewEngland511)"}},{"type":"Feature","geometry":{"type":"Point","coordinates":[-70.11376,43.85411]},"properties":{"id":"ora-me-43","name":"I-295 Mile 20 NB (Freeport)","state":"ME","provider":"Maine DOT (NewEngland511)","hls":null,"snapshot":"https://www.newengland511.org/map/Cctv/2135","refreshMs":30000,"attribution":"Ora (Warner Varnado) · Maine DOT (NewEngland511)"}},{"type":"Feature","geometry":{"type":"Point","coordinates":[-69.676239,44.553569]},"properties":{"id":"ora-me-44","name":"I-95 Mile 127 NB (Oakland)","state":"ME","provider":"Maine DOT (NewEngland511)","hls":null,"snapshot":"https://www.newengland511.org/map/Cctv/2136","refreshMs":30000,"attribution":"Ora (Warner Varnado) · Maine DOT (NewEngland511)"}},{"type":"Feature","geometry":{"type":"Point","coordinates":[-68.07635,46.13874]},"properties":{"id":"ora-me-45","name":"I-95 Mile 291 SB (Smyrna)","state":"ME","provider":"Maine DOT (NewEngland511)","hls":null,"snapshot":"https://www.newengland511.org/map/Cctv/2137","refreshMs":30000,"attribution":"Ora (Warner Varnado) · Maine DOT (NewEngland511)"}},{"type":"Feature","geometry":{"type":"Point","coordinates":[-70.2565,43.70396]},"properties":{"id":"ora-me-46","name":"I-295 Mile 09 NB (Falmouth)","state":"ME","provider":"Maine DOT (NewEngland511)","hls":null,"snapshot":"https://www.newengland511.org/map/Cctv/2138","refreshMs":30000,"attribution":"Ora (Warner Varnado) · Maine DOT (NewEngland511)"}},{"type":"Feature","geometry":{"type":"Point","coordinates":[-68.80424,44.79206]},"properties":{"id":"ora-me-47","name":"I-95 Mile 182 NB (Bangor)","state":"ME","provider":"Maine DOT (NewEngland511)","hls":null,"snapshot":"https://www.newengland511.org/map/Cctv/2141","refreshMs":30000,"attribution":"Ora (Warner Varnado) · Maine DOT (NewEngland511)"}},{"type":"Feature","geometry":{"type":"Point","coordinates":[-70.24793,43.72025]},"properties":{"id":"ora-me-48","name":"I-295 Mile 10 SB (Falmouth)","state":"ME","provider":"Maine DOT (NewEngland511)","hls":null,"snapshot":"https://www.newengland511.org/map/Cctv/2144","refreshMs":30000,"attribution":"Ora (Warner Varnado) · Maine DOT (NewEngland511)"}},{"type":"Feature","geometry":{"type":"Point","coordinates":[-69.80198,44.342235]},"properties":{"id":"ora-me-49","name":"I-95 Mile 112 SB (Augusta) ","state":"ME","provider":"Maine DOT (NewEngland511)","hls":null,"snapshot":"https://www.newengland511.org/map/Cctv/2149","refreshMs":30000,"attribution":"Ora (Warner Varnado) · Maine DOT (NewEngland511)"}},{"type":"Feature","geometry":{"type":"Point","coordinates":[-69.666572,44.569099]},"properties":{"id":"ora-me-50","name":"I-95 Mile 130 SB (Waterville)","state":"ME","provider":"Maine DOT (NewEngland511)","hls":null,"snapshot":"https://www.newengland511.org/map/Cctv/2150","refreshMs":30000,"attribution":"Ora (Warner Varnado) · Maine DOT (NewEngland511)"}},{"type":"Feature","geometry":{"type":"Point","coordinates":[-68.71454,44.86223]},"properties":{"id":"ora-me-51","name":"I-95 Mile 191 SB (Orono)","state":"ME","provider":"Maine DOT (NewEngland511)","hls":null,"snapshot":"https://www.newengland511.org/map/Cctv/2151","refreshMs":30000,"attribution":"Ora (Warner Varnado) · Maine DOT (NewEngland511)"}},{"type":"Feature","geometry":{"type":"Point","coordinates":[-69.807128,44.296517]},"properties":{"id":"ora-me-52","name":"I-95 Mile 108 NB (Augusta)","state":"ME","provider":"Maine DOT (NewEngland511)","hls":null,"snapshot":"https://www.newengland511.org/map/Cctv/2153","refreshMs":30000,"attribution":"Ora (Warner Varnado) · Maine DOT (NewEngland511)"}},{"type":"Feature","geometry":{"type":"Point","coordinates":[-67.786094,46.134232]},"properties":{"id":"ora-me-53","name":"Rt 2 Mile 273 (Houlton)","state":"ME","provider":"Maine DOT (NewEngland511)","hls":null,"snapshot":"https://www.newengland511.org/map/Cctv/2156","refreshMs":30000,"attribution":"Ora (Warner Varnado) · Maine DOT (NewEngland511)"}},{"type":"Feature","geometry":{"type":"Point","coordinates":[-70.08439,43.87896]},"properties":{"id":"ora-me-54","name":"I-295 Mile 23 NB (Freeport)","state":"ME","provider":"Maine DOT (NewEngland511)","hls":null,"snapshot":"https://www.newengland511.org/map/Cctv/2167","refreshMs":30000,"attribution":"Ora (Warner Varnado) · Maine DOT (NewEngland511)"}},{"type":"Feature","geometry":{"type":"Point","coordinates":[-69.66958,44.005099]},"properties":{"id":"ora-me-55","name":"Rt 1 Mile 094 (Wiscasset)","state":"ME","provider":"Maine DOT (NewEngland511)","hls":null,"snapshot":"https://www.newengland511.org/map/Cctv/2170","refreshMs":30000,"attribution":"Ora (Warner Varnado) · Maine DOT (NewEngland511)"}},{"type":"Feature","geometry":{"type":"Point","coordinates":[-69.66433,44.002367]},"properties":{"id":"ora-me-56","name":"Rt 1 Mile 095 (Wiscasset)","state":"ME","provider":"Maine DOT (NewEngland511)","hls":null,"snapshot":"https://www.newengland511.org/map/Cctv/2171","refreshMs":30000,"attribution":"Ora (Warner Varnado) · Maine DOT (NewEngland511)"}},{"type":"Feature","geometry":{"type":"Point","coordinates":[-70.284677,43.655291]},"properties":{"id":"ora-me-57","name":"I-295 Mile 05 NB (Portland)","state":"ME","provider":"Maine DOT (NewEngland511)","hls":null,"snapshot":"https://www.newengland511.org/map/Cctv/2172","refreshMs":30000,"attribution":"Ora (Warner Varnado) · Maine DOT (NewEngland511)"}},{"type":"Feature","geometry":{"type":"Point","coordinates":[-70.256388,43.677944]},"properties":{"id":"ora-me-58","name":"I-295 Mile 08 SB (Portland)","state":"ME","provider":"Maine DOT (NewEngland511)","hls":null,"snapshot":"https://www.newengland511.org/map/Cctv/2174","refreshMs":30000,"attribution":"Ora (Warner Varnado) · Maine DOT (NewEngland511)"}},{"type":"Feature","geometry":{"type":"Point","coordinates":[-70.256388,43.678863]},"properties":{"id":"ora-me-59","name":"I-295 Mile 08 NB (Portland)","state":"ME","provider":"Maine DOT (NewEngland511)","hls":null,"snapshot":"https://www.newengland511.org/map/Cctv/2175","refreshMs":30000,"attribution":"Ora (Warner Varnado) · Maine DOT (NewEngland511)"}},{"type":"Feature","geometry":{"type":"Point","coordinates":[-70.261445,43.666042]},"properties":{"id":"ora-me-60","name":"I-295 Mile 07 NB (Portland)","state":"ME","provider":"Maine DOT (NewEngland511)","hls":null,"snapshot":"https://www.newengland511.org/map/Cctv/2176","refreshMs":30000,"attribution":"Ora (Warner Varnado) · Maine DOT (NewEngland511)"}},{"type":"Feature","geometry":{"type":"Point","coordinates":[-70.261194,43.665512]},"properties":{"id":"ora-me-61","name":"I-295 Mile 07 SB (Portland)","state":"ME","provider":"Maine DOT (NewEngland511)","hls":null,"snapshot":"https://www.newengland511.org/map/Cctv/2177","refreshMs":30000,"attribution":"Ora (Warner Varnado) · Maine DOT (NewEngland511)"}},{"type":"Feature","geometry":{"type":"Point","coordinates":[-70.1652,43.8085]},"properties":{"id":"ora-me-62","name":"I-295 Mile 17 SB (Yarmouth PTZ)","state":"ME","provider":"Maine DOT (NewEngland511)","hls":null,"snapshot":"https://www.newengland511.org/map/Cctv/2178","refreshMs":30000,"attribution":"Ora (Warner Varnado) · Maine DOT (NewEngland511)"}},{"type":"Feature","geometry":{"type":"Point","coordinates":[-70.164857,43.808749]},"properties":{"id":"ora-me-63","name":"I-295 Mile 17 NB (Yarmouth PTZ)","state":"ME","provider":"Maine DOT (NewEngland511)","hls":null,"snapshot":"https://www.newengland511.org/map/Cctv/2179","refreshMs":30000,"attribution":"Ora (Warner Varnado) · Maine DOT (NewEngland511)"}},{"type":"Feature","geometry":{"type":"Point","coordinates":[-68.807674,44.557179]},"properties":{"id":"ora-me-64","name":"Rt1 Prospect (RWIS)","state":"ME","provider":"Maine DOT (NewEngland511)","hls":null,"snapshot":"https://www.newengland511.org/map/Cctv/2185","refreshMs":30000,"attribution":"Ora (Warner Varnado) · Maine DOT (NewEngland511)"}},{"type":"Feature","geometry":{"type":"Point","coordinates":[-68.467185,44.820501]},"properties":{"id":"ora-me-65","name":"Rt9 Clifton (RWIS)","state":"ME","provider":"Maine DOT (NewEngland511)","hls":null,"snapshot":"https://www.newengland511.org/map/Cctv/2186","refreshMs":30000,"attribution":"Ora (Warner Varnado) · Maine DOT (NewEngland511)"}},{"type":"Feature","geometry":{"type":"Point","coordinates":[-69.536033,45.331368]},"properties":{"id":"ora-me-66","name":"Rt6 Monson (RWIS)","state":"ME","provider":"Maine DOT (NewEngland511)","hls":null,"snapshot":"https://www.newengland511.org/map/Cctv/2187","refreshMs":30000,"attribution":"Ora (Warner Varnado) · Maine DOT (NewEngland511)"}},{"type":"Feature","geometry":{"type":"Point","coordinates":[-70.74995,43.10323]},"properties":{"id":"ora-me-67","name":"95 SS 2.4 CCTV AX MTA","state":"ME","provider":"Maine DOT (NewEngland511)","hls":null,"snapshot":"https://www.newengland511.org/map/Cctv/2188","refreshMs":30000,"attribution":"Ora (Warner Varnado) · Maine DOT (NewEngland511)"}},{"type":"Feature","geometry":{"type":"Point","coordinates":[-70.75567,43.09848]},"properties":{"id":"ora-me-68","name":"95 NN 0.6 CCTV AX MTA\t","state":"ME","provider":"Maine DOT (NewEngland511)","hls":null,"snapshot":"https://www.newengland511.org/map/Cctv/2189","refreshMs":30000,"attribution":"Ora (Warner Varnado) · Maine DOT (NewEngland511)"}},{"type":"Feature","geometry":{"type":"Point","coordinates":[-70.7238,43.12322]},"properties":{"id":"ora-me-69","name":"95 NS 3.1 CCTV AX MTA","state":"ME","provider":"Maine DOT (NewEngland511)","hls":null,"snapshot":"https://www.newengland511.org/map/Cctv/2190","refreshMs":30000,"attribution":"Ora (Warner Varnado) · Maine DOT (NewEngland511)"}},{"type":"Feature","geometry":{"type":"Point","coordinates":[-70.79777,43.06178]},"properties":{"id":"ora-me-70","name":"95 NN 13.4 CCTV AX T","state":"ME","provider":"Maine DOT (NewEngland511)","hls":null,"snapshot":"https://www.newengland511.org/map/Cctv/2191","refreshMs":30000,"attribution":"Ora (Warner Varnado) · Maine DOT (NewEngland511)"}},{"type":"Feature","geometry":{"type":"Point","coordinates":[-70.75478,43.103914]},"properties":{"id":"ora-me-71","name":"95 SS 1.3 HLB CCTV MTA","state":"ME","provider":"Maine DOT (NewEngland511)","hls":null,"snapshot":"https://www.newengland511.org/map/Cctv/2210","refreshMs":30000,"attribution":"Ora (Warner Varnado) · Maine DOT (NewEngland511)"}},{"type":"Feature","geometry":{"type":"Point","coordinates":[-70.75736,43.10005]},"properties":{"id":"ora-me-72","name":"Dennett Rd NN 0.39 CCTV AX MTA","state":"ME","provider":"Maine DOT (NewEngland511)","hls":null,"snapshot":"https://www.newengland511.org/map/Cctv/2212","refreshMs":30000,"attribution":"Ora (Warner Varnado) · Maine DOT (NewEngland511)"}},{"type":"Feature","geometry":{"type":"Point","coordinates":[-69.10861,44.10724]},"properties":{"id":"ora-me-73","name":"Rockland Terminal approach","state":"ME","provider":"Maine DOT (NewEngland511)","hls":null,"snapshot":"https://www.newengland511.org/map/Cctv/2215","refreshMs":30000,"attribution":"Ora (Warner Varnado) · Maine DOT (NewEngland511)"}},{"type":"Feature","geometry":{"type":"Point","coordinates":[-69.007123,44.280158]},"properties":{"id":"ora-me-74","name":"lincolnville ferry port parking lot","state":"ME","provider":"Maine DOT (NewEngland511)","hls":null,"snapshot":"https://www.newengland511.org/map/Cctv/2224","refreshMs":30000,"attribution":"Ora (Warner Varnado) · Maine DOT (NewEngland511)"}},{"type":"Feature","geometry":{"type":"Point","coordinates":[-68.56289,44.794459]},"properties":{"id":"ora-me-75","name":"Rt9 Clifton ","state":"ME","provider":"Maine DOT (NewEngland511)","hls":null,"snapshot":"https://www.newengland511.org/map/Cctv/2225","refreshMs":30000,"attribution":"Ora (Warner Varnado) · Maine DOT (NewEngland511)"}},{"type":"Feature","geometry":{"type":"Point","coordinates":[-68.601259,44.70851]},"properties":{"id":"ora-me-76","name":"RT1A SB (Holden)","state":"ME","provider":"Maine DOT (NewEngland511)","hls":null,"snapshot":"https://www.newengland511.org/map/Cctv/2226","refreshMs":30000,"attribution":"Ora (Warner Varnado) · Maine DOT (NewEngland511)"}},{"type":"Feature","geometry":{"type":"Point","coordinates":[-68.76407,44.822426]},"properties":{"id":"ora-me-77","name":"I-95 Mile 186 SB (bangor New)","state":"ME","provider":"Maine DOT (NewEngland511)","hls":null,"snapshot":"https://www.newengland511.org/map/Cctv/2227","refreshMs":30000,"attribution":"Ora (Warner Varnado) · Maine DOT (NewEngland511)"}},{"type":"Feature","geometry":{"type":"Point","coordinates":[-69.943374,43.914969]},"properties":{"id":"ora-me-78","name":"RT1 Mile 77 NB (Brunswick)","state":"ME","provider":"Maine DOT (NewEngland511)","hls":null,"snapshot":"https://www.newengland511.org/map/Cctv/2229","refreshMs":30000,"attribution":"Ora (Warner Varnado) · Maine DOT (NewEngland511)"}},{"type":"Feature","geometry":{"type":"Point","coordinates":[-69.622952,44.587044]},"properties":{"id":"ora-me-79","name":"I-95 Mile 132 SB (Fairfield New)","state":"ME","provider":"Maine DOT (NewEngland511)","hls":null,"snapshot":"https://www.newengland511.org/map/Cctv/2230","refreshMs":30000,"attribution":"Ora (Warner Varnado) · Maine DOT (NewEngland511)"}},{"type":"Feature","geometry":{"type":"Point","coordinates":[-68.864995,44.48534]},"properties":{"id":"ora-me-80","name":"RT1 Mile 164 NB (Stockton Springs)","state":"ME","provider":"Maine DOT (NewEngland511)","hls":null,"snapshot":"https://www.newengland511.org/map/Cctv/2231","refreshMs":30000,"attribution":"Ora (Warner Varnado) · Maine DOT (NewEngland511)"}},{"type":"Feature","geometry":{"type":"Point","coordinates":[-69.776298,44.364891]},"properties":{"id":"ora-me-81","name":"I-95 Mile 113 NB ( Augusta New)","state":"ME","provider":"Maine DOT (NewEngland511)","hls":null,"snapshot":"https://www.newengland511.org/map/Cctv/2232","refreshMs":30000,"attribution":"Ora (Warner Varnado) · Maine DOT (NewEngland511)"}},{"type":"Feature","geometry":{"type":"Point","coordinates":[-69.698013,44.521499]},"properties":{"id":"ora-me-82","name":"I-95 Mile 124 NB (Waterville New)","state":"ME","provider":"Maine DOT (NewEngland511)","hls":null,"snapshot":"https://www.newengland511.org/map/Cctv/2233","refreshMs":30000,"attribution":"Ora (Warner Varnado) · Maine DOT (NewEngland511)"}},{"type":"Feature","geometry":{"type":"Point","coordinates":[-68.791855,44.562233]},"properties":{"id":"ora-me-83","name":"RT1 Mile 172 SB (Verona Island)","state":"ME","provider":"Maine DOT (NewEngland511)","hls":null,"snapshot":"https://www.newengland511.org/map/Cctv/2234","refreshMs":30000,"attribution":"Ora (Warner Varnado) · Maine DOT (NewEngland511)"}},{"type":"Feature","geometry":{"type":"Point","coordinates":[-67.868565,46.496084]},"properties":{"id":"ora-me-84","name":"RT1 Mile 430 NB (Mars Hill)","state":"ME","provider":"Maine DOT (NewEngland511)","hls":null,"snapshot":"https://www.newengland511.org/map/Cctv/2235","refreshMs":30000,"attribution":"Ora (Warner Varnado) · Maine DOT (NewEngland511)"}},{"type":"Feature","geometry":{"type":"Point","coordinates":[-69.634507,44.5734]},"properties":{"id":"ora-me-85","name":"I-95 Mile 130 NB (Waterville New)","state":"ME","provider":"Maine DOT (NewEngland511)","hls":null,"snapshot":"https://www.newengland511.org/map/Cctv/2237","refreshMs":30000,"attribution":"Ora (Warner Varnado) · Maine DOT (NewEngland511)"}},{"type":"Feature","geometry":{"type":"Point","coordinates":[-69.9156,44.02549]},"properties":{"id":"ora-me-86","name":"I-295 Mile 37 NB (Bowdoinham)","state":"ME","provider":"Maine DOT (NewEngland511)","hls":null,"snapshot":"https://www.newengland511.org/map/Cctv/2238","refreshMs":30000,"attribution":"Ora (Warner Varnado) · Maine DOT (NewEngland511)"}},{"type":"Feature","geometry":{"type":"Point","coordinates":[-70.05373,43.907618]},"properties":{"id":"ora-me-87","name":"I-295 Mile 28 SB (Brunswick New)","state":"ME","provider":"Maine DOT (NewEngland511)","hls":null,"snapshot":"https://www.newengland511.org/map/Cctv/2239","refreshMs":30000,"attribution":"Ora (Warner Varnado) · Maine DOT (NewEngland511)"}},{"type":"Feature","geometry":{"type":"Point","coordinates":[-68.7456,44.77394]},"properties":{"id":"ora-me-88","name":"I-395 Mile 4 WB (Brewer New)","state":"ME","provider":"Maine DOT (NewEngland511)","hls":null,"snapshot":"https://www.newengland511.org/map/Cctv/2240","refreshMs":30000,"attribution":"Ora (Warner Varnado) · Maine DOT (NewEngland511)"}},{"type":"Feature","geometry":{"type":"Point","coordinates":[-69.575742,44.60551]},"properties":{"id":"ora-me-89","name":"I-95 Mile 133 NB (Fairfield new)","state":"ME","provider":"Maine DOT (NewEngland511)","hls":null,"snapshot":"https://www.newengland511.org/map/Cctv/2241","refreshMs":30000,"attribution":"Ora (Warner Varnado) · Maine DOT (NewEngland511)"}},{"type":"Feature","geometry":{"type":"Point","coordinates":[-69.801662,43.912847]},"properties":{"id":"ora-me-90","name":"RT1 Mile 84 SB (Woolwich)","state":"ME","provider":"Maine DOT (NewEngland511)","hls":null,"snapshot":"https://www.newengland511.org/map/Cctv/2242","refreshMs":30000,"attribution":"Ora (Warner Varnado) · Maine DOT (NewEngland511)"}},{"type":"Feature","geometry":{"type":"Point","coordinates":[-69.646212,43.999974]},"properties":{"id":"ora-me-91","name":"RT1 Mile 95 SB (Edgecomb)","state":"ME","provider":"Maine DOT (NewEngland511)","hls":null,"snapshot":"https://www.newengland511.org/map/Cctv/2243","refreshMs":30000,"attribution":"Ora (Warner Varnado) · Maine DOT (NewEngland511)"}},{"type":"Feature","geometry":{"type":"Point","coordinates":[-67.868393,46.509377]},"properties":{"id":"ora-me-92","name":"RT1 Mile 431 SB (Blaine)","state":"ME","provider":"Maine DOT (NewEngland511)","hls":null,"snapshot":"https://www.newengland511.org/map/Cctv/2249","refreshMs":30000,"attribution":"Ora (Warner Varnado) · Maine DOT (NewEngland511)"}},{"type":"Feature","geometry":{"type":"Point","coordinates":[-67.866167,46.756058]},"properties":{"id":"ora-me-93","name":"RT1A Mile 97 (Fort Fairfield)","state":"ME","provider":"Maine DOT (NewEngland511)","hls":null,"snapshot":"https://www.newengland511.org/map/Cctv/2250","refreshMs":30000,"attribution":"Ora (Warner Varnado) · Maine DOT (NewEngland511)"}},{"type":"Feature","geometry":{"type":"Point","coordinates":[-68.009633,46.663497]},"properties":{"id":"ora-me-94","name":"RT1 Mile 445  (Presque Isle)","state":"ME","provider":"Maine DOT (NewEngland511)","hls":null,"snapshot":"https://www.newengland511.org/map/Cctv/2251","refreshMs":30000,"attribution":"Ora (Warner Varnado) · Maine DOT (NewEngland511)"}},{"type":"Feature","geometry":{"type":"Point","coordinates":[-68.000031,46.871326]},"properties":{"id":"ora-me-95","name":"RT1 Mile 460 (Caribou)","state":"ME","provider":"Maine DOT (NewEngland511)","hls":null,"snapshot":"https://www.newengland511.org/map/Cctv/2252","refreshMs":30000,"attribution":"Ora (Warner Varnado) · Maine DOT (NewEngland511)"}},{"type":"Feature","geometry":{"type":"Point","coordinates":[-67.945779,47.143029]},"properties":{"id":"ora-me-96","name":"Rt1 Mile 480 SB (Van Buren)","state":"ME","provider":"Maine DOT (NewEngland511)","hls":null,"snapshot":"https://www.newengland511.org/map/Cctv/2253","refreshMs":30000,"attribution":"Ora (Warner Varnado) · Maine DOT (NewEngland511)"}},{"type":"Feature","geometry":{"type":"Point","coordinates":[-70.940272,43.337364]},"properties":{"id":"ora-me-97","name":"RT202 Mile 1 NB (Lebanon)","state":"ME","provider":"Maine DOT (NewEngland511)","hls":null,"snapshot":"https://www.newengland511.org/map/Cctv/2254","refreshMs":30000,"attribution":"Ora (Warner Varnado) · Maine DOT (NewEngland511)"}},{"type":"Feature","geometry":{"type":"Point","coordinates":[-70.544272,43.474686]},"properties":{"id":"ora-me-98","name":"RT111 Mile 5 WB (Arundel)","state":"ME","provider":"Maine DOT (NewEngland511)","hls":null,"snapshot":"https://www.newengland511.org/map/Cctv/2255","refreshMs":30000,"attribution":"Ora (Warner Varnado) · Maine DOT (NewEngland511)"}},{"type":"Feature","geometry":{"type":"Point","coordinates":[-70.285687,43.655291]},"properties":{"id":"ora-me-99","name":"I-295 Mile 5 SB (Portland PTZ)","state":"ME","provider":"Maine DOT (NewEngland511)","hls":null,"snapshot":"https://www.newengland511.org/map/Cctv/2257","refreshMs":30000,"attribution":"Ora (Warner Varnado) · Maine DOT (NewEngland511)"}},{"type":"Feature","geometry":{"type":"Point","coordinates":[-70.797333,43.219569]},"properties":{"id":"ora-me-100","name":"Rt 236 Mile 10 SB (Berwick)","state":"ME","provider":"Maine DOT (NewEngland511)","hls":null,"snapshot":"https://www.newengland511.org/map/Cctv/2258","refreshMs":30000,"attribution":"Ora (Warner Varnado) · Maine DOT (NewEngland511)"}},{"type":"Feature","geometry":{"type":"Point","coordinates":[-70.687592,43.476083]},"properties":{"id":"ora-me-101","name":"RT 111 Alfred","state":"ME","provider":"Maine DOT (NewEngland511)","hls":null,"snapshot":"https://www.newengland511.org/map/Cctv/2259","refreshMs":30000,"attribution":"Ora (Warner Varnado) · Maine DOT (NewEngland511)"}},{"type":"Feature","geometry":{"type":"Point","coordinates":[-68.56585,44.654617]},"properties":{"id":"ora-me-102","name":"RT1A Dedham","state":"ME","provider":"Maine DOT (NewEngland511)","hls":null,"snapshot":"https://www.newengland511.org/map/Cctv/2260","refreshMs":30000,"attribution":"Ora (Warner Varnado) · Maine DOT (NewEngland511)"}},{"type":"Feature","geometry":{"type":"Point","coordinates":[-69.08237,44.181811]},"properties":{"id":"ora-me-103","name":"RT1 Mile 133 NB (Rockport)","state":"ME","provider":"Maine DOT (NewEngland511)","hls":null,"snapshot":"https://www.newengland511.org/map/Cctv/2263","refreshMs":30000,"attribution":"Ora (Warner Varnado) · Maine DOT (NewEngland511)"}},{"type":"Feature","geometry":{"type":"Point","coordinates":[-67.350846,45.122814]},"properties":{"id":"ora-me-104","name":"Rt 9  Mile 281 WB (Bailyville)","state":"ME","provider":"Maine DOT (NewEngland511)","hls":null,"snapshot":"https://www.newengland511.org/map/Cctv/2268","refreshMs":30000,"attribution":"Ora (Warner Varnado) · Maine DOT (NewEngland511)"}},{"type":"Feature","geometry":{"type":"Point","coordinates":[-70.987533,44.009469]},"properties":{"id":"ora-me-105","name":"RT 302 Mile 53 EB (Fryeburg)","state":"ME","provider":"Maine DOT (NewEngland511)","hls":null,"snapshot":"https://www.newengland511.org/map/Cctv/2269","refreshMs":30000,"attribution":"Ora (Warner Varnado) · Maine DOT (NewEngland511)"}},{"type":"Feature","geometry":{"type":"Point","coordinates":[-68.792195,44.786714]},"properties":{"id":"ora-me-106","name":"I-395 Mile 2 EB Bangor","state":"ME","provider":"Maine DOT (NewEngland511)","hls":null,"snapshot":"https://www.newengland511.org/map/Cctv/2277","refreshMs":30000,"attribution":"Ora (Warner Varnado) · Maine DOT (NewEngland511)"}},{"type":"Feature","geometry":{"type":"Point","coordinates":[-70.748392,43.107083]},"properties":{"id":"ora-me-107","name":"Rt236 mile 1.5 (kittery)","state":"ME","provider":"Maine DOT (NewEngland511)","hls":null,"snapshot":"https://www.newengland511.org/map/Cctv/2278","refreshMs":30000,"attribution":"Ora (Warner Varnado) · Maine DOT (NewEngland511)"}},{"type":"Feature","geometry":{"type":"Point","coordinates":[-68.60572,45.37609]},"properties":{"id":"ora-me-108","name":"Maine DOT - I-95 Chester RWIS","state":"ME","provider":"Maine DOT (NewEngland511)","hls":null,"snapshot":"https://www.newengland511.org/map/Cctv/2281","refreshMs":30000,"attribution":"Ora (Warner Varnado) · Maine DOT (NewEngland511)"}},{"type":"Feature","geometry":{"type":"Point","coordinates":[-67.95653,46.14158]},"properties":{"id":"ora-me-109","name":"Maine DOT - I-95 SB Ludlow RWIS","state":"ME","provider":"Maine DOT (NewEngland511)","hls":null,"snapshot":"https://www.newengland511.org/map/Cctv/2282","refreshMs":30000,"attribution":"Ora (Warner Varnado) · Maine DOT (NewEngland511)"}},{"type":"Feature","geometry":{"type":"Point","coordinates":[-67.6487,44.96675]},"properties":{"id":"ora-me-110","name":"Maine DOT - Rt. 9 EB Wesley RWIS","state":"ME","provider":"Maine DOT (NewEngland511)","hls":null,"snapshot":"https://www.newengland511.org/map/Cctv/2283","refreshMs":30000,"attribution":"Ora (Warner Varnado) · Maine DOT (NewEngland511)"}},{"type":"Feature","geometry":{"type":"Point","coordinates":[-69.42804,44.1031]},"properties":{"id":"ora-me-111","name":"Maine DOT - Rt. 1 NB Waldoboro RWIS","state":"ME","provider":"Maine DOT (NewEngland511)","hls":null,"snapshot":"https://www.newengland511.org/map/Cctv/2284","refreshMs":30000,"attribution":"Ora (Warner Varnado) · Maine DOT (NewEngland511)"}},{"type":"Feature","geometry":{"type":"Point","coordinates":[-70.95869,44.02084]},"properties":{"id":"ora-me-112","name":"Maine DOT - Rt. 302 EB Fryeburg RWIS","state":"ME","provider":"Maine DOT (NewEngland511)","hls":null,"snapshot":"https://www.newengland511.org/map/Cctv/2285","refreshMs":30000,"attribution":"Ora (Warner Varnado) · Maine DOT (NewEngland511)"}},{"type":"Feature","geometry":{"type":"Point","coordinates":[-70.61069,44.92177]},"properties":{"id":"ora-me-113","name":"Maine DOT - Rt. 4 SB Sandy River RWIS","state":"ME","provider":"Maine DOT (NewEngland511)","hls":null,"snapshot":"https://www.newengland511.org/map/Cctv/2286","refreshMs":30000,"attribution":"Ora (Warner Varnado) · Maine DOT (NewEngland511)"}},{"type":"Feature","geometry":{"type":"Point","coordinates":[-67.86942,46.71197]},"properties":{"id":"ora-me-114","name":"Maine DOT - Rt.1A NB Fort Fairfield RWIS","state":"ME","provider":"Maine DOT (NewEngland511)","hls":null,"snapshot":"https://www.newengland511.org/map/Cctv/2287","refreshMs":30000,"attribution":"Ora (Warner Varnado) · Maine DOT (NewEngland511)"}},{"type":"Feature","geometry":{"type":"Point","coordinates":[-70.72171,43.47009]},"properties":{"id":"ora-me-115","name":"Maine DOT - Rt. 202 EB Alfred RWIS","state":"ME","provider":"Maine DOT (NewEngland511)","hls":null,"snapshot":"https://www.newengland511.org/map/Cctv/2288","refreshMs":30000,"attribution":"Ora (Warner Varnado) · Maine DOT (NewEngland511)"}},{"type":"Feature","geometry":{"type":"Point","coordinates":[-70.340733,43.887164]},"properties":{"id":"ora-me-116","name":"RT26 Mile 17 NB (Gray)","state":"ME","provider":"Maine DOT (NewEngland511)","hls":null,"snapshot":"https://www.newengland511.org/map/Cctv/2289","refreshMs":30000,"attribution":"Ora (Warner Varnado) · Maine DOT (NewEngland511)"}},{"type":"Feature","geometry":{"type":"Point","coordinates":[-68.444598,44.56407]},"properties":{"id":"ora-me-117","name":"RT1A Mile 63 NB (Ellsworth)","state":"ME","provider":"Maine DOT (NewEngland511)","hls":null,"snapshot":"https://www.newengland511.org/map/Cctv/2290","refreshMs":30000,"attribution":"Ora (Warner Varnado) · Maine DOT (NewEngland511)"}},{"type":"Feature","geometry":{"type":"Point","coordinates":[-69.843772,43.911781]},"properties":{"id":"ora-me-118","name":"RT1 Mile 6.7 SB Bath","state":"ME","provider":"Maine DOT (NewEngland511)","hls":null,"snapshot":"https://www.newengland511.org/map/Cctv/2291","refreshMs":30000,"attribution":"Ora (Warner Varnado) · Maine DOT (NewEngland511)"}},{"type":"Feature","geometry":{"type":"Point","coordinates":[-69.080447,44.189297]},"properties":{"id":"ora-me-119","name":"RT1 rockport","state":"ME","provider":"Maine DOT (NewEngland511)","hls":null,"snapshot":"https://www.newengland511.org/map/Cctv/2292","refreshMs":30000,"attribution":"Ora (Warner Varnado) · Maine DOT (NewEngland511)"}},{"type":"Feature","geometry":{"type":"Point","coordinates":[-68.71022,44.77869]},"properties":{"id":"ora-me-120","name":"Rt 9 Connector Mile 1 SB","state":"ME","provider":"Maine DOT (NewEngland511)","hls":null,"snapshot":"https://www.newengland511.org/map/Cctv/2304","refreshMs":30000,"attribution":"Ora (Warner Varnado) · Maine DOT (NewEngland511)"}},{"type":"Feature","geometry":{"type":"Point","coordinates":[-68.64685,44.817428]},"properties":{"id":"ora-me-121","name":"RT 9 Connector SB","state":"ME","provider":"Maine DOT (NewEngland511)","hls":null,"snapshot":"https://www.newengland511.org/map/Cctv/2305","refreshMs":30000,"attribution":"Ora (Warner Varnado) · Maine DOT (NewEngland511)"}},{"type":"Feature","geometry":{"type":"Point","coordinates":[-68.744361,44.77278]},"properties":{"id":"ora-me-122","name":"I-395 Mile 6 (RT9 connector)","state":"ME","provider":"Maine DOT (NewEngland511)","hls":null,"snapshot":"https://www.newengland511.org/map/Cctv/2306","refreshMs":30000,"attribution":"Ora (Warner Varnado) · Maine DOT (NewEngland511)"}},{"type":"Feature","geometry":{"type":"Point","coordinates":[-68.25941,45.63305]},"properties":{"id":"ora-me-123","name":"RT 2A Mile 4 (Macwahoc Plantation)","state":"ME","provider":"Maine DOT (NewEngland511)","hls":null,"snapshot":"https://www.newengland511.org/map/Cctv/2313","refreshMs":30000,"attribution":"Ora (Warner Varnado) · Maine DOT (NewEngland511)"}},{"type":"Feature","geometry":{"type":"Point","coordinates":[-68.37739,45.4835]},"properties":{"id":"ora-me-124","name":"RT 2 mile 201 (Winn)","state":"ME","provider":"Maine DOT (NewEngland511)","hls":null,"snapshot":"https://www.newengland511.org/map/Cctv/2314","refreshMs":30000,"attribution":"Ora (Warner Varnado) · Maine DOT (NewEngland511)"}},{"type":"Feature","geometry":{"type":"Point","coordinates":[-68.95663,47.10757]},"properties":{"id":"ora-me-125","name":"Rt 161 mile 81 (Allagash)","state":"ME","provider":"Maine DOT (NewEngland511)","hls":null,"snapshot":"https://www.newengland511.org/map/Cctv/2315","refreshMs":30000,"attribution":"Ora (Warner Varnado) · Maine DOT (NewEngland511)"}},{"type":"Feature","geometry":{"type":"Point","coordinates":[-68.88152,45.53748]},"properties":{"id":"ora-me-126","name":"Rt11 mile 247 (Long A Twp)","state":"ME","provider":"Maine DOT (NewEngland511)","hls":null,"snapshot":"https://www.newengland511.org/map/Cctv/2316","refreshMs":30000,"attribution":"Ora (Warner Varnado) · Maine DOT (NewEngland511)"}},{"type":"Feature","geometry":{"type":"Point","coordinates":[-69.74111,44.42279]},"properties":{"id":"ora-me-127","name":"Sidney","state":"ME","provider":"Maine DOT (NewEngland511)","hls":null,"snapshot":"https://www.newengland511.org/map/Cctv/2319","refreshMs":30000,"attribution":"Ora (Warner Varnado) · Maine DOT (NewEngland511)"}},{"type":"Feature","geometry":{"type":"Point","coordinates":[-69.80695,44.29677]},"properties":{"id":"ora-me-128","name":"Hallowell","state":"ME","provider":"Maine DOT (NewEngland511)","hls":null,"snapshot":"https://www.newengland511.org/map/Cctv/2320","refreshMs":30000,"attribution":"Ora (Warner Varnado) · Maine DOT (NewEngland511)"}},{"type":"Feature","geometry":{"type":"Point","coordinates":[-68.87164,44.76941]},"properties":{"id":"ora-me-129","name":"Hampden","state":"ME","provider":"Maine DOT (NewEngland511)","hls":null,"snapshot":"https://www.newengland511.org/map/Cctv/2321","refreshMs":30000,"attribution":"Ora (Warner Varnado) · Maine DOT (NewEngland511)"}},{"type":"Feature","geometry":{"type":"Point","coordinates":[-68.73081,44.84629]},"properties":{"id":"ora-me-130","name":"Bangor","state":"ME","provider":"Maine DOT (NewEngland511)","hls":null,"snapshot":"https://www.newengland511.org/map/Cctv/2322","refreshMs":30000,"attribution":"Ora (Warner Varnado) · Maine DOT (NewEngland511)"}},{"type":"Feature","geometry":{"type":"Point","coordinates":[-70.25681,43.69306]},"properties":{"id":"ora-me-131","name":"Portland","state":"ME","provider":"Maine DOT (NewEngland511)","hls":null,"snapshot":"https://www.newengland511.org/map/Cctv/2323","refreshMs":30000,"attribution":"Ora (Warner Varnado) · Maine DOT (NewEngland511)"}},{"type":"Feature","geometry":{"type":"Point","coordinates":[-70.30576,43.63336]},"properties":{"id":"ora-me-132","name":"South Portland","state":"ME","provider":"Maine DOT (NewEngland511)","hls":null,"snapshot":"https://www.newengland511.org/map/Cctv/2324","refreshMs":30000,"attribution":"Ora (Warner Varnado) · Maine DOT (NewEngland511)"}},{"type":"Feature","geometry":{"type":"Point","coordinates":[-68.515699,46.91515]},"properties":{"id":"ora-me-133","name":"Rt 11 Soucy Hill (Rwis)","state":"ME","provider":"Maine DOT (NewEngland511)","hls":null,"snapshot":"https://www.newengland511.org/map/Cctv/2330","refreshMs":30000,"attribution":"Ora (Warner Varnado) · Maine DOT (NewEngland511)"}},{"type":"Feature","geometry":{"type":"Point","coordinates":[-70.747576,43.104304]},"properties":{"id":"ora-me-134","name":"Maine Turnpike Cameras on Exit 3","state":"ME","provider":"Maine DOT (NewEngland511)","hls":null,"snapshot":"https://www.maineturnpike.com/cameras/Kittery_Scales_North.jpg","refreshMs":30000,"attribution":"Ora (Warner Varnado) · Maine DOT (NewEngland511)"}},{"type":"Feature","geometry":{"type":"Point","coordinates":[-70.670843,43.154166]},"properties":{"id":"ora-me-135","name":"Maine Turnpike Cameras on Exit 5","state":"ME","provider":"Maine DOT (NewEngland511)","hls":null,"snapshot":"https://www.maineturnpike.com/cameras/York_River.jpg","refreshMs":30000,"attribution":"Ora (Warner Varnado) · Maine DOT (NewEngland511)"}},{"type":"Feature","geometry":{"type":"Point","coordinates":[-70.61939360695747,43.26222294803678]},"properties":{"id":"ora-me-136","name":"Maine Turnpike Cameras on Exit 8.8","state":"ME","provider":"Maine DOT (NewEngland511)","hls":null,"snapshot":"https://www.maineturnpike.com/cameras/York_Toll_South.jpg","refreshMs":30000,"attribution":"Ora (Warner Varnado) · Maine DOT (NewEngland511)"}},{"type":"Feature","geometry":{"type":"Point","coordinates":[-70.61774380742223,43.27862339155746]},"properties":{"id":"ora-me-137","name":"Maine Turnpike Cameras on Exit 15","state":"ME","provider":"Maine DOT (NewEngland511)","hls":null,"snapshot":"https://www.maineturnpike.com/cameras/Tatnic_Rd.jpg","refreshMs":30000,"attribution":"Ora (Warner Varnado) · Maine DOT (NewEngland511)"}},{"type":"Feature","geometry":{"type":"Point","coordinates":[-70.561237,43.407168]},"properties":{"id":"ora-me-138","name":"Maine Turnpike Cameras on Exit 25.3","state":"ME","provider":"Maine DOT (NewEngland511)","hls":null,"snapshot":"https://www.maineturnpike.com/cameras/Kennebunk_North.jpg","refreshMs":30000,"attribution":"Ora (Warner Varnado) · Maine DOT (NewEngland511)"}},{"type":"Feature","geometry":{"type":"Point","coordinates":[-70.501156,43.478709]},"properties":{"id":"ora-me-139","name":"Maine Turnpike Cameras on Exit 31.3","state":"ME","provider":"Maine DOT (NewEngland511)","hls":null,"snapshot":"https://www.maineturnpike.com/cameras/Biddeford%20North.jpg","refreshMs":30000,"attribution":"Ora (Warner Varnado) · Maine DOT (NewEngland511)"}},{"type":"Feature","geometry":{"type":"Point","coordinates":[-70.48732516429835,43.50019818216503]},"properties":{"id":"ora-me-140","name":"Maine Turnpike Cameras on Exit 33.4","state":"ME","provider":"Maine DOT (NewEngland511)","hls":null,"snapshot":"https://www.maineturnpike.com/cameras/Boom_Rd.jpg","refreshMs":30000,"attribution":"Ora (Warner Varnado) · Maine DOT (NewEngland511)"}},{"type":"Feature","geometry":{"type":"Point","coordinates":[-70.45940158658412,43.522377026966474]},"properties":{"id":"ora-me-141","name":"Maine Turnpike Cameras on Exit 35","state":"ME","provider":"Maine DOT (NewEngland511)","hls":null,"snapshot":"https://www.maineturnpike.com/cameras/Exit35North.jpg","refreshMs":30000,"attribution":"Ora (Warner Varnado) · Maine DOT (NewEngland511)"}},{"type":"Feature","geometry":{"type":"Point","coordinates":[-70.42578456010082,43.553033084545376]},"properties":{"id":"ora-me-142","name":"Maine Turnpike Cameras on Exit 38.1","state":"ME","provider":"Maine DOT (NewEngland511)","hls":null,"snapshot":"https://www.maineturnpike.com/cameras/Flag_Pond_Rd_North.jpg","refreshMs":30000,"attribution":"Ora (Warner Varnado) · Maine DOT (NewEngland511)"}},{"type":"Feature","geometry":{"type":"Point","coordinates":[-70.352669,43.623588]},"properties":{"id":"ora-me-143","name":"Maine Turnpike Cameras on Exit 43","state":"ME","provider":"Maine DOT (NewEngland511)","hls":null,"snapshot":"https://www.maineturnpike.com/cameras/Holmes_Rd.jpg","refreshMs":30000,"attribution":"Ora (Warner Varnado) · Maine DOT (NewEngland511)"}},{"type":"Feature","geometry":{"type":"Point","coordinates":[-70.332069,43.661849]},"properties":{"id":"ora-me-144","name":"Maine Turnpike Cameras on Exit 47","state":"ME","provider":"Maine DOT (NewEngland511)","hls":null,"snapshot":"https://www.maineturnpike.com/cameras/Exit%2047.jpg","refreshMs":30000,"attribution":"Ora (Warner Varnado) · Maine DOT (NewEngland511)"}},{"type":"Feature","geometry":{"type":"Point","coordinates":[-70.324688,43.682026]},"properties":{"id":"ora-me-145","name":"Maine Turnpike Cameras on Exit 49","state":"ME","provider":"Maine DOT (NewEngland511)","hls":null,"snapshot":"https://www.maineturnpike.com/cameras/Mile%2049.jpg","refreshMs":30000,"attribution":"Ora (Warner Varnado) · Maine DOT (NewEngland511)"}},{"type":"Feature","geometry":{"type":"Point","coordinates":[-70.302801,43.730732]},"properties":{"id":"ora-me-146","name":"Maine Turnpike Cameras on Exit 53","state":"ME","provider":"Maine DOT (NewEngland511)","hls":null,"snapshot":"https://www.maineturnpike.com/cameras/Exit%2053.jpg","refreshMs":30000,"attribution":"Ora (Warner Varnado) · Maine DOT (NewEngland511)"}},{"type":"Feature","geometry":{"type":"Point","coordinates":[-70.333529,43.87915]},"properties":{"id":"ora-me-147","name":"Maine Turnpike Camera on Exit 62.9","state":"ME","provider":"Maine DOT (NewEngland511)","hls":null,"snapshot":"https://www.maineturnpike.com/cameras/Gray_North.jpg","refreshMs":30000,"attribution":"Ora (Warner Varnado) · Maine DOT (NewEngland511)"}},{"type":"Feature","geometry":{"type":"Point","coordinates":[-70.268898,44.037812]},"properties":{"id":"ora-me-148","name":"Maine Turnpike Cameras on Exit 74","state":"ME","provider":"Maine DOT (NewEngland511)","hls":null,"snapshot":"https://www.maineturnpike.com/cameras/Mile_74.jpg","refreshMs":30000,"attribution":"Ora (Warner Varnado) · Maine DOT (NewEngland511)"}},{"type":"Feature","geometry":{"type":"Point","coordinates":[-70.18178,44.071924]},"properties":{"id":"ora-me-149","name":"Maine Turnpike Camera on Exit 78.8","state":"ME","provider":"Maine DOT (NewEngland511)","hls":null,"snapshot":"https://www.maineturnpike.com/cameras/Andro_River.jpg","refreshMs":30000,"attribution":"Ora (Warner Varnado) · Maine DOT (NewEngland511)"}},{"type":"Feature","geometry":{"type":"Point","coordinates":[-69.808018,44.307302]},"properties":{"id":"ora-me-150","name":"Maine Turnpike Cameras on Exit 108.8","state":"ME","provider":"Maine DOT (NewEngland511)","hls":null,"snapshot":"https://www.maineturnpike.com/cameras/Mile_109.jpg","refreshMs":30000,"attribution":"Ora (Warner Varnado) · Maine DOT (NewEngland511)"}}]}