{"type":"FeatureCollection","features":[{"type":"Feature","geometry":{"type":"Point","coordinates":[-107.3172887,45.0283938]},"properties":{"id":"ora-mt-0","name":"Aberdeen","state":"MT","provider":"Montana DOT","hls":null,"snapshot":"https://mdt.mt.gov/other/WebAppData/External/RRS/RWIS/Aberdeen-Hill-263004-00-7-10-2026-16-30-1.jpg","refreshMs":30000,"attribution":"Ora (Warner Varnado) · Montana DOT"}},{"type":"Feature","geometry":{"type":"Point","coordinates":[-104.3736231,45.00274858]},"properties":{"id":"ora-mt-1","name":"Alzada","state":"MT","provider":"Montana DOT","hls":null,"snapshot":"https://mdt.mt.gov/other/WebAppData/External/RRS/RWIS/Alzada-563004-00-7-10-2026-16-30-1.jpg","refreshMs":30000,"attribution":"Ora (Warner Varnado) · Montana DOT"}},{"type":"Feature","geometry":{"type":"Point","coordinates":[-108.163406,45.77999929]},"properties":{"id":"ora-mt-2","name":"Arrow Creek","state":"MT","provider":"Montana DOT","hls":null,"snapshot":"https://mdt.mt.gov/other/WebAppData/External/RRS/RWIS/Arrow-Creek-Hill-263003-00-7-10-2026-16-15-7.jpg","refreshMs":30000,"attribution":"Ora (Warner Varnado) · Montana DOT"}},{"type":"Feature","geometry":{"type":"Point","coordinates":[-104.228,46.649]},"properties":{"id":"ora-mt-3","name":"Ash Creek","state":"MT","provider":"Montana DOT","hls":null,"snapshot":"https://mdt.mt.gov/other/WebAppData/External/RRS/RWIS/Ash-Creek-302005-00-7-10-2026-16-30-1.jpg","refreshMs":30000,"attribution":"Ora (Warner Varnado) · Montana DOT"}},{"type":"Feature","geometry":{"type":"Point","coordinates":[-112.65944,46.69679]},"properties":{"id":"ora-mt-4","name":"Avon North","state":"MT","provider":"Montana DOT","hls":null,"snapshot":"https://mdt.mt.gov/other/WebAppData/External/RRS/RWIS/Avon-North-267007-00-7-10-2026-16-30-15.jpg","refreshMs":30000,"attribution":"Ora (Warner Varnado) · Montana DOT"}},{"type":"Feature","geometry":{"type":"Point","coordinates":[-104.4355227,46.08358891]},"properties":{"id":"ora-mt-5","name":"Baker","state":"MT","provider":"Montana DOT","hls":null,"snapshot":"https://mdt.mt.gov/other/WebAppData/External/RRS/RWIS/Baker-563003-00-7-10-2026-16-30-25.jpg","refreshMs":30000,"attribution":"Ora (Warner Varnado) · Montana DOT"}},{"type":"Feature","geometry":{"type":"Point","coordinates":[-108.1454,45.9406]},"properties":{"id":"ora-mt-6","name":"Ballantine","state":"MT","provider":"Montana DOT","hls":null,"snapshot":"https://mdt.mt.gov/other/WebAppData/External/RRS/RWIS/Ballantine-263006-00-7-10-2026-16-30-2.jpg","refreshMs":30000,"attribution":"Ora (Warner Varnado) · Montana DOT"}},{"type":"Feature","geometry":{"type":"Point","coordinates":[-108.73744,46.90438]},"properties":{"id":"ora-mt-7","name":"Beacon Hill","state":"MT","provider":"Montana DOT","hls":null,"snapshot":"https://mdt.mt.gov/other/WebAppData/External/RRS/RWIS/Beacon-Hill-268012-00-7-10-2026-16-15-2.jpg","refreshMs":30000,"attribution":"Ora (Warner Varnado) · Montana DOT"}},{"type":"Feature","geometry":{"type":"Point","coordinates":[-113.2953417,46.71854246]},"properties":{"id":"ora-mt-8","name":"Bearmouth","state":"MT","provider":"Montana DOT","hls":null,"snapshot":"https://mdt.mt.gov/other/WebAppData/External/RRS/RWIS/Bearmouth-150002-00-7-10-2026-16-15-19.jpg","refreshMs":30000,"attribution":"Ora (Warner Varnado) · Montana DOT"}},{"type":"Feature","geometry":{"type":"Point","coordinates":[-104.3300043,47.02197621]},"properties":{"id":"ora-mt-9","name":"Beaver Hill","state":"MT","provider":"Montana DOT","hls":null,"snapshot":"https://mdt.mt.gov/other/WebAppData/External/RRS/RWIS/Beaver-Hill-302003-00-7-10-2026-16-30-4.jpg","refreshMs":30000,"attribution":"Ora (Warner Varnado) · Montana DOT"}},{"type":"Feature","geometry":{"type":"Point","coordinates":[-105.376985,45.012976]},"properties":{"id":"ora-mt-10","name":"Biddle","state":"MT","provider":"Montana DOT","hls":null,"snapshot":"https://mdt.mt.gov/other/WebAppData/External/RRS/RWIS/Biddle-563008-00-7-10-2026-16-30-23.jpg","refreshMs":30000,"attribution":"Ora (Warner Varnado) · Montana DOT"}},{"type":"Feature","geometry":{"type":"Point","coordinates":[-113.2341666,45.3288332]},"properties":{"id":"ora-mt-11","name":"Big Hole Pass","state":"MT","provider":"Montana DOT","hls":null,"snapshot":"https://mdt.mt.gov/other/WebAppData/External/RRS/RWIS/Big-Hole-Pass-267005-00-7-10-2026-16-30-23.jpg","refreshMs":30000,"attribution":"Ora (Warner Varnado) · Montana DOT"}},{"type":"Feature","geometry":{"type":"Point","coordinates":[-111.372728,45.285402]},"properties":{"id":"ora-mt-12","name":"Big Sky Road","state":"MT","provider":"Montana DOT","hls":null,"snapshot":"https://mdt.mt.gov/other/WebAppData/External/RRS/RWIS/Big-Sky-Road-564013-00-7-10-2026-16-30-5.jpg","refreshMs":30000,"attribution":"Ora (Warner Varnado) · Montana DOT"}},{"type":"Feature","geometry":{"type":"Point","coordinates":[-114.241225,48.370307]},"properties":{"id":"ora-mt-13","name":"Blue Moon","state":"MT","provider":"Montana DOT","hls":null,"snapshot":"https://mdt.mt.gov/other/WebAppData/External/RRS/RWIS/Blue-Moon-628013-00-7-10-2026-16-30-4.jpg","refreshMs":30000,"attribution":"Ora (Warner Varnado) · Montana DOT"}},{"type":"Feature","geometry":{"type":"Point","coordinates":[-108.804032,47.351651]},"properties":{"id":"ora-mt-14","name":"Bohemian Corner","state":"MT","provider":"Montana DOT","hls":null,"snapshot":"https://mdt.mt.gov/other/WebAppData/External/RRS/RWIS/Bohemian-Corner-268008-00-7-10-2026-16-30-23.jpg","refreshMs":30000,"attribution":"Ora (Warner Varnado) · Montana DOT"}},{"type":"Feature","geometry":{"type":"Point","coordinates":[-113.885824,46.871434]},"properties":{"id":"ora-mt-15","name":"Bonner","state":"MT","provider":"Montana DOT","hls":null,"snapshot":"https://mdt.mt.gov/other/WebAppData/External/RRS/RWIS/Bonner-150011-00-7-10-2026-16-30-1.jpg","refreshMs":30000,"attribution":"Ora (Warner Varnado) · Montana DOT"}},{"type":"Feature","geometry":{"type":"Point","coordinates":[-112.0689089,46.32329873]},"properties":{"id":"ora-mt-16","name":"Boulder","state":"MT","provider":"Montana DOT","hls":null,"snapshot":"https://mdt.mt.gov/other/WebAppData/External/RRS/RWIS/Boulder-Hill-267003-00-7-10-2026-16-30-1.jpg","refreshMs":30000,"attribution":"Ora (Warner Varnado) · Montana DOT"}},{"type":"Feature","geometry":{"type":"Point","coordinates":[-111.981522,46.13502]},"properties":{"id":"ora-mt-17","name":"Boulder South","state":"MT","provider":"Montana DOT","hls":null,"snapshot":"https://mdt.mt.gov/other/WebAppData/External/RRS/RWIS/Boulder-South-267012-00-7-10-2026-16-30-4.jpg","refreshMs":30000,"attribution":"Ora (Warner Varnado) · Montana DOT"}},{"type":"Feature","geometry":{"type":"Point","coordinates":[-112.151831,47.29219699]},"properties":{"id":"ora-mt-18","name":"Bowmans","state":"MT","provider":"Montana DOT","hls":null,"snapshot":"https://mdt.mt.gov/other/WebAppData/External/RRS/RWIS/Bowmans-301002-00-7-10-2026-16-15-20.jpg","refreshMs":30000,"attribution":"Ora (Warner Varnado) · Montana DOT"}},{"type":"Feature","geometry":{"type":"Point","coordinates":[-111.11682,45.74347]},"properties":{"id":"ora-mt-19","name":"Bozeman","state":"MT","provider":"Montana DOT","hls":null,"snapshot":"https://mdt.mt.gov/other/WebAppData/External/RRS/RWIS/Bozeman-564011-00-7-10-2026-16-30-21.jpg","refreshMs":30000,"attribution":"Ora (Warner Varnado) · Montana DOT"}},{"type":"Feature","geometry":{"type":"Point","coordinates":[-110.8039548,45.66681641]},"properties":{"id":"ora-mt-20","name":"Bozeman Pass","state":"MT","provider":"Montana DOT","hls":null,"snapshot":"https://mdt.mt.gov/other/WebAppData/External/RRS/RWIS/Bozeman-Pass-564002-00-7-10-2026-16-15-2.jpg","refreshMs":30000,"attribution":"Ora (Warner Varnado) · Montana DOT"}},{"type":"Feature","geometry":{"type":"Point","coordinates":[-110.882742,45.829214]},"properties":{"id":"ora-mt-21","name":"Bridger Canyon","state":"MT","provider":"Montana DOT","hls":null,"snapshot":"https://mdt.mt.gov/other/WebAppData/External/RRS/RWIS/Bridger-Canyon-564009-00-7-10-2026-16-30-5.jpg","refreshMs":30000,"attribution":"Ora (Warner Varnado) · Montana DOT"}},{"type":"Feature","geometry":{"type":"Point","coordinates":[-112.9808,48.5345]},"properties":{"id":"ora-mt-22","name":"Browning","state":"MT","provider":"Montana DOT","hls":null,"snapshot":"https://mdt.mt.gov/other/WebAppData/External/RRS/RWIS/Browning-629005-00-7-10-2026-16-30-14.jpg","refreshMs":30000,"attribution":"Ora (Warner Varnado) · Montana DOT"}},{"type":"Feature","geometry":{"type":"Point","coordinates":[-115.846966,48.254303]},"properties":{"id":"ora-mt-23","name":"Bull Lake","state":"MT","provider":"Montana DOT","hls":null,"snapshot":"https://mdt.mt.gov/other/WebAppData/External/RRS/RWIS/Bull-Lake-628011-00-7-10-2026-16-30-3.jpg","refreshMs":30000,"attribution":"Ora (Warner Varnado) · Montana DOT"}},{"type":"Feature","geometry":{"type":"Point","coordinates":[-108.4612106,46.24743675]},"properties":{"id":"ora-mt-24","name":"Bull Mountain","state":"MT","provider":"Montana DOT","hls":null,"snapshot":"https://mdt.mt.gov/other/WebAppData/External/RRS/RWIS/Bull-Mountain-268003-00-7-10-2026-16-30-4.jpg","refreshMs":30000,"attribution":"Ora (Warner Varnado) · Montana DOT"}},{"type":"Feature","geometry":{"type":"Point","coordinates":[-109.240351,48.595365]},"properties":{"id":"ora-mt-25","name":"Chinook","state":"MT","provider":"Montana DOT","hls":null,"snapshot":"https://mdt.mt.gov/other/WebAppData/External/RRS/RWIS/Chinook-629007-00-7-10-2026-16-30-1.jpg","refreshMs":30000,"attribution":"Ora (Warner Varnado) · Montana DOT"}},{"type":"Feature","geometry":{"type":"Point","coordinates":[-112.227711,47.698074]},"properties":{"id":"ora-mt-26","name":"Choteau South","state":"MT","provider":"Montana DOT","hls":null,"snapshot":"https://mdt.mt.gov/other/WebAppData/External/RRS/RWIS/Choteau-South-301011-00-7-10-2026-16-30-3.jpg","refreshMs":30000,"attribution":"Ora (Warner Varnado) · Montana DOT"}},{"type":"Feature","geometry":{"type":"Point","coordinates":[-111.979809,46.474394]},"properties":{"id":"ora-mt-27","name":"Clancy","state":"MT","provider":"Montana DOT","hls":null,"snapshot":"https://mdt.mt.gov/other/WebAppData/External/RRS/RWIS/Clancy-267011-00-7-10-2026-16-30-3.jpg","refreshMs":30000,"attribution":"Ora (Warner Varnado) · Montana DOT"}},{"type":"Feature","geometry":{"type":"Point","coordinates":[-105.591,45.728]},"properties":{"id":"ora-mt-28","name":"Coalwood","state":"MT","provider":"Montana DOT","hls":null,"snapshot":"https://mdt.mt.gov/other/WebAppData/External/RRS/RWIS/Coalwood-563009-00-7-10-2026-16-30-1.jpg","refreshMs":30000,"attribution":"Ora (Warner Varnado) · Montana DOT"}},{"type":"Feature","geometry":{"type":"Point","coordinates":[-104.2528984,48.80999661]},"properties":{"id":"ora-mt-29","name":"Comertown","state":"MT","provider":"Montana DOT","hls":null,"snapshot":"https://mdt.mt.gov/other/WebAppData/External/RRS/RWIS/Comertown-269003-00-7-10-2026-16-30-22.jpg","refreshMs":30000,"attribution":"Ora (Warner Varnado) · Montana DOT"}},{"type":"Feature","geometry":{"type":"Point","coordinates":[-105.4918552,47.68836679]},"properties":{"id":"ora-mt-30","name":"Cow Creek","state":"MT","provider":"Montana DOT","hls":null,"snapshot":"https://mdt.mt.gov/other/WebAppData/External/RRS/RWIS/Cow-Creek-302001-00-7-10-2026-16-30-22.jpg","refreshMs":30000,"attribution":"Ora (Warner Varnado) · Montana DOT"}},{"type":"Feature","geometry":{"type":"Point","coordinates":[-115.4200364,48.11760012]},"properties":{"id":"ora-mt-31","name":"Crystal Creek","state":"MT","provider":"Montana DOT","hls":null,"snapshot":"https://mdt.mt.gov/other/WebAppData/External/RRS/RWIS/Crystal-Creek-628004-00-7-10-2026-16-30-20.jpg","refreshMs":30000,"attribution":"Ora (Warner Varnado) · Montana DOT"}},{"type":"Feature","geometry":{"type":"Point","coordinates":[-106.886429,45.00845]},"properties":{"id":"ora-mt-32","name":"Decker","state":"MT","provider":"Montana DOT","hls":null,"snapshot":"https://mdt.mt.gov/other/WebAppData/External/RRS/RWIS/Decker-263007-00-7-10-2026-16-30-2.jpg","refreshMs":30000,"attribution":"Ora (Warner Varnado) · Montana DOT"}},{"type":"Feature","geometry":{"type":"Point","coordinates":[-111.06681,46.35146]},"properties":{"id":"ora-mt-33","name":"Deep Creek","state":"MT","provider":"Montana DOT","hls":null,"snapshot":"https://mdt.mt.gov/other/WebAppData/External/RRS/RWIS/Deep-Creek-564005-00-7-10-2026-16-30-22.jpg","refreshMs":30000,"attribution":"Ora (Warner Varnado) · Montana DOT"}},{"type":"Feature","geometry":{"type":"Point","coordinates":[-114.7843654,48.69452866]},"properties":{"id":"ora-mt-34","name":"Dickey Lake","state":"MT","provider":"Montana DOT","hls":null,"snapshot":"https://mdt.mt.gov/other/WebAppData/External/RRS/RWIS/Dickey-Lake-628001-00-7-10-2026-16-30-1.jpg","refreshMs":30000,"attribution":"Ora (Warner Varnado) · Montana DOT"}},{"type":"Feature","geometry":{"type":"Point","coordinates":[-110.5045729,45.6854102]},"properties":{"id":"ora-mt-35","name":"East Livingston","state":"MT","provider":"Montana DOT","hls":null,"snapshot":"https://mdt.mt.gov/other/WebAppData/External/RRS/RWIS/East-Livingston-564003-00-7-10-2026-16-15-19.jpg","refreshMs":30000,"attribution":"Ora (Warner Varnado) · Montana DOT"}},{"type":"Feature","geometry":{"type":"Point","coordinates":[-109.8511746,47.30022671]},"properties":{"id":"ora-mt-36","name":"East of Denton","state":"MT","provider":"Montana DOT","hls":null,"snapshot":"https://mdt.mt.gov/other/WebAppData/External/RRS/RWIS/East-of-Denton-268000-00-7-10-2026-16-15-19.jpg","refreshMs":30000,"attribution":"Ora (Warner Varnado) · Montana DOT"}},{"type":"Feature","geometry":{"type":"Point","coordinates":[-109.74537593,46.98202945]},"properties":{"id":"ora-mt-37","name":"Eddies Corner","state":"MT","provider":"Montana DOT","hls":null,"snapshot":"https://mdt.mt.gov/other/WebAppData/External/RRS/RWIS/Eddies-Corner-268009-00-7-10-2026-16-30-20.jpg","refreshMs":30000,"attribution":"Ora (Warner Varnado) · Montana DOT"}},{"type":"Feature","geometry":{"type":"Point","coordinates":[-104.46657,45.312]},"properties":{"id":"ora-mt-38","name":"Ekalaka","state":"MT","provider":"Montana DOT","hls":null,"snapshot":"https://mdt.mt.gov/other/WebAppData/External/RRS/RWIS/Ekalaka-563007-00-7-10-2026-16-30-13.jpg","refreshMs":30000,"attribution":"Ora (Warner Varnado) · Montana DOT"}},{"type":"Feature","geometry":{"type":"Point","coordinates":[-112.39799,46.13589]},"properties":{"id":"ora-mt-39","name":"Elk Park","state":"MT","provider":"Montana DOT","hls":null,"snapshot":"https://mdt.mt.gov/other/WebAppData/External/RRS/RWIS/Elk-Park-267006-00-7-10-2026-16-30-5.jpg","refreshMs":30000,"attribution":"Ora (Warner Varnado) · Montana DOT"}},{"type":"Feature","geometry":{"type":"Point","coordinates":[-114.347778,47.828056]},"properties":{"id":"ora-mt-40","name":"Elmo","state":"MT","provider":"Montana DOT","hls":null,"snapshot":"https://mdt.mt.gov/other/WebAppData/External/RRS/RWIS/Elmo-628010-00-7-10-2026-16-30-1.jpg","refreshMs":30000,"attribution":"Ora (Warner Varnado) · Montana DOT"}},{"type":"Feature","geometry":{"type":"Point","coordinates":[-113.6079515,48.285681847]},"properties":{"id":"ora-mt-41","name":"Essex","state":"MT","provider":"Montana DOT","hls":null,"snapshot":"https://mdt.mt.gov/other/WebAppData/External/RRS/RWIS/Essex-628000-00-7-10-2026-16-30-20.jpg","refreshMs":30000,"attribution":"Ora (Warner Varnado) · Montana DOT"}},{"type":"Feature","geometry":{"type":"Point","coordinates":[-114.112414,47.022067]},"properties":{"id":"ora-mt-42","name":"Evaro Hill","state":"MT","provider":"Montana DOT","hls":null,"snapshot":"https://mdt.mt.gov/other/WebAppData/External/RRS/RWIS/Evaro-Hill-150014-00-7-10-2026-16-30-3.jpg","refreshMs":30000,"attribution":"Ora (Warner Varnado) · Montana DOT"}},{"type":"Feature","geometry":{"type":"Point","coordinates":[-114.2379324,48.21907646]},"properties":{"id":"ora-mt-43","name":"Flathead River","state":"MT","provider":"Montana DOT","hls":null,"snapshot":"https://mdt.mt.gov/other/WebAppData/External/RRS/RWIS/Flathead-River-628002-00-7-10-2026-16-30-1.jpg","refreshMs":30000,"attribution":"Ora (Warner Varnado) · Montana DOT"}},{"type":"Feature","geometry":{"type":"Point","coordinates":[-112.35798,46.974878]},"properties":{"id":"ora-mt-44","name":"Flesher Pass","state":"MT","provider":"Montana DOT","hls":null,"snapshot":"https://mdt.mt.gov/other/WebAppData/External/RRS/RWIS/Flesher-Pass-301013-00-7-10-2026-16-30-6.jpg","refreshMs":30000,"attribution":"Ora (Warner Varnado) · Montana DOT"}},{"type":"Feature","geometry":{"type":"Point","coordinates":[-110.822342,45.155845]},"properties":{"id":"ora-mt-45","name":"Gardiner","state":"MT","provider":"Montana DOT","hls":null,"snapshot":"https://mdt.mt.gov/other/WebAppData/External/RRS/RWIS/Gardiner-564010-00-7-10-2026-16-15-6.jpg","refreshMs":30000,"attribution":"Ora (Warner Varnado) · Montana DOT"}},{"type":"Feature","geometry":{"type":"Point","coordinates":[-112.8084327,46.52361378]},"properties":{"id":"ora-mt-46","name":"Garrison","state":"MT","provider":"Montana DOT","hls":null,"snapshot":"https://mdt.mt.gov/other/WebAppData/External/RRS/RWIS/Garrison-267004-00-7-10-2026-16-30-1.jpg","refreshMs":30000,"attribution":"Ora (Warner Varnado) · Montana DOT"}},{"type":"Feature","geometry":{"type":"Point","coordinates":[-111.8590804,47.13947959]},"properties":{"id":"ora-mt-47","name":"Gary Cooper","state":"MT","provider":"Montana DOT","hls":null,"snapshot":"https://mdt.mt.gov/other/WebAppData/External/RRS/RWIS/Gary-Cooper-Bridge-301004-00-7-10-2026-16-30-14.jpg","refreshMs":30000,"attribution":"Ora (Warner Varnado) · Montana DOT"}},{"type":"Feature","geometry":{"type":"Point","coordinates":[-113.265306,46.190806]},"properties":{"id":"ora-mt-48","name":"Georgetown Lake","state":"MT","provider":"Montana DOT","hls":null,"snapshot":"https://mdt.mt.gov/other/WebAppData/External/RRS/RWIS/Georgetown-Lake-267009-00-7-10-2026-16-30-14.jpg","refreshMs":30000,"attribution":"Ora (Warner Varnado) · Montana DOT"}},{"type":"Feature","geometry":{"type":"Point","coordinates":[-110.4696,47.2427]},"properties":{"id":"ora-mt-49","name":"Geyser","state":"MT","provider":"Montana DOT","hls":null,"snapshot":"https://mdt.mt.gov/other/WebAppData/External/RRS/RWIS/Geyser-268006-00-7-10-2026-16-30-22.jpg","refreshMs":30000,"attribution":"Ora (Warner Varnado) · Montana DOT"}},{"type":"Feature","geometry":{"type":"Point","coordinates":[-105.628209,46.398725]},"properties":{"id":"ora-mt-50","name":"Government Hill","state":"MT","provider":"Montana DOT","hls":null,"snapshot":"https://mdt.mt.gov/other/WebAppData/External/RRS/RWIS/Government-Hill-563005-00-7-10-2026-16-30-1.jpg","refreshMs":30000,"attribution":"Ora (Warner Varnado) · Montana DOT"}},{"type":"Feature","geometry":{"type":"Point","coordinates":[-111.43064504,47.45201362]},"properties":{"id":"ora-mt-51","name":"Great Falls","state":"MT","provider":"Montana DOT","hls":null,"snapshot":"https://mdt.mt.gov/other/WebAppData/External/RRS/RWIS/Great-Falls-301009-00-7-10-2026-16-30-1.jpg","refreshMs":30000,"attribution":"Ora (Warner Varnado) · Montana DOT"}},{"type":"Feature","geometry":{"type":"Point","coordinates":[-113.465275,46.887391]},"properties":{"id":"ora-mt-52","name":"Greenough Hill","state":"MT","provider":"Montana DOT","hls":null,"snapshot":"https://mdt.mt.gov/other/WebAppData/External/RRS/RWIS/Greenough-Hill-150004-00-7-10-2026-16-30-1.jpg","refreshMs":30000,"attribution":"Ora (Warner Varnado) · Montana DOT"}},{"type":"Feature","geometry":{"type":"Point","coordinates":[-109.916867,46.132455]},"properties":{"id":"ora-mt-53","name":"Harlowton South","state":"MT","provider":"Montana DOT","hls":null,"snapshot":"https://mdt.mt.gov/other/WebAppData/External/RRS/RWIS/Harlowton-South-268013-00-7-10-2026-16-15-1.jpg","refreshMs":30000,"attribution":"Ora (Warner Varnado) · Montana DOT"}},{"type":"Feature","geometry":{"type":"Point","coordinates":[-108.7261054,47.91928257]},"properties":{"id":"ora-mt-54","name":"Hays","state":"MT","provider":"Montana DOT","hls":null,"snapshot":"https://mdt.mt.gov/other/WebAppData/External/RRS/RWIS/Hays-268004-00-7-10-2026-16-15-18.jpg","refreshMs":30000,"attribution":"Ora (Warner Varnado) · Montana DOT"}},{"type":"Feature","geometry":{"type":"Point","coordinates":[-112.9748725,46.96826155]},"properties":{"id":"ora-mt-55","name":"Helmville","state":"MT","provider":"Montana DOT","hls":null,"snapshot":"https://mdt.mt.gov/other/WebAppData/External/RRS/RWIS/Helmville-301003-00-7-10-2026-16-15-18.jpg","refreshMs":30000,"attribution":"Ora (Warner Varnado) · Montana DOT"}},{"type":"Feature","geometry":{"type":"Point","coordinates":[-105.893,45.552]},"properties":{"id":"ora-mt-56","name":"Home Creek Divide","state":"MT","provider":"Montana DOT","hls":null,"snapshot":"https://mdt.mt.gov/other/WebAppData/External/RRS/RWIS/Home-Creek-Divide-563010-00-7-10-2026-16-30-4.jpg","refreshMs":30000,"attribution":"Ora (Warner Varnado) · Montana DOT"}},{"type":"Feature","geometry":{"type":"Point","coordinates":[-112.41181,45.91966]},"properties":{"id":"ora-mt-57","name":"Homestake Pass","state":"MT","provider":"Montana DOT","hls":null,"snapshot":"https://mdt.mt.gov/other/WebAppData/External/RRS/RWIS/Homestake-Pass-267008-00-7-10-2026-16-15-4.jpg","refreshMs":30000,"attribution":"Ora (Warner Varnado) · Montana DOT"}},{"type":"Feature","geometry":{"type":"Point","coordinates":[-114.078047,48.384852]},"properties":{"id":"ora-mt-58","name":"Hungry Horse","state":"MT","provider":"Montana DOT","hls":null,"snapshot":"https://mdt.mt.gov/other/WebAppData/External/RRS/RWIS/Hungry-Horse-628006-00-7-10-2026-16-30-1.jpg","refreshMs":30000,"attribution":"Ora (Warner Varnado) · Montana DOT"}},{"type":"Feature","geometry":{"type":"Point","coordinates":[-107.3092735,46.16491617]},"properties":{"id":"ora-mt-59","name":"Hysham","state":"MT","provider":"Montana DOT","hls":null,"snapshot":"https://mdt.mt.gov/other/WebAppData/External/RRS/RWIS/Hysham-263005-00-7-10-2026-16-30-12.jpg","refreshMs":30000,"attribution":"Ora (Warner Varnado) · Montana DOT"}},{"type":"Feature","geometry":{"type":"Point","coordinates":[-107.376,46.583528]},"properties":{"id":"ora-mt-60","name":"Ingomar","state":"MT","provider":"Montana DOT","hls":null,"snapshot":"https://mdt.mt.gov/other/WebAppData/External/RRS/RWIS/Ingomar-563006-00-7-10-2026-16-30-13.jpg","refreshMs":30000,"attribution":"Ora (Warner Varnado) · Montana DOT"}},{"type":"Feature","geometry":{"type":"Point","coordinates":[-110.6482198,48.55321455]},"properties":{"id":"ora-mt-61","name":"Inverness","state":"MT","provider":"Montana DOT","hls":null,"snapshot":"https://mdt.mt.gov/other/WebAppData/External/RRS/RWIS/Inverness-629000-00-7-10-2026-16-30-13.jpg","refreshMs":30000,"attribution":"Ora (Warner Varnado) · Montana DOT"}},{"type":"Feature","geometry":{"type":"Point","coordinates":[-109.7502125,46.68765404]},"properties":{"id":"ora-mt-62","name":"Judith Gap","state":"MT","provider":"Montana DOT","hls":null,"snapshot":"https://mdt.mt.gov/other/WebAppData/External/RRS/RWIS/Judith-Gap-268001-00-7-10-2026-16-30-13.jpg","refreshMs":30000,"attribution":"Ora (Warner Varnado) · Montana DOT"}},{"type":"Feature","geometry":{"type":"Point","coordinates":[-111.1726064,45.34534328]},"properties":{"id":"ora-mt-63","name":"Karst","state":"MT","provider":"Montana DOT","hls":null,"snapshot":"https://mdt.mt.gov/other/WebAppData/External/RRS/RWIS/Karst-564001-00-7-10-2026-16-30-1.jpg","refreshMs":30000,"attribution":"Ora (Warner Varnado) · Montana DOT"}},{"type":"Feature","geometry":{"type":"Point","coordinates":[-110.695225,46.84066]},"properties":{"id":"ora-mt-64","name":"Kings Hill","state":"MT","provider":"Montana DOT","hls":null,"snapshot":"https://mdt.mt.gov/other/WebAppData/External/RRS/RWIS/Kings-Hill-301012-00-7-10-2026-16-30-2.jpg","refreshMs":30000,"attribution":"Ora (Warner Varnado) · Montana DOT"}},{"type":"Feature","geometry":{"type":"Point","coordinates":[-104.73256,47.69523]},"properties":{"id":"ora-mt-65","name":"Lambert","state":"MT","provider":"Montana DOT","hls":null,"snapshot":"https://mdt.mt.gov/other/WebAppData/External/RRS/RWIS/Lambert-302008-00-7-10-2026-16-30-5.jpg","refreshMs":30000,"attribution":"Ora (Warner Varnado) · Montana DOT"}},{"type":"Feature","geometry":{"type":"Point","coordinates":[-106.5112452,45.62885913]},"properties":{"id":"ora-mt-66","name":"Lame Deer","state":"MT","provider":"Montana DOT","hls":null,"snapshot":"https://mdt.mt.gov/other/WebAppData/External/RRS/RWIS/Lame-Deer-Divide-563000-00-7-10-2026-16-30-5.jpg","refreshMs":30000,"attribution":"Ora (Warner Varnado) · Montana DOT"}},{"type":"Feature","geometry":{"type":"Point","coordinates":[-108.930334,46.306758]},"properties":{"id":"ora-mt-67","name":"Lavina","state":"MT","provider":"Montana DOT","hls":null,"snapshot":"https://mdt.mt.gov/other/WebAppData/External/RRS/RWIS/Lavina-268011-00-7-10-2026-16-30-20.jpg","refreshMs":30000,"attribution":"Ora (Warner Varnado) · Montana DOT"}},{"type":"Feature","geometry":{"type":"Point","coordinates":[-109.26,47.0758]},"properties":{"id":"ora-mt-68","name":"Lewistown Divide","state":"MT","provider":"Montana DOT","hls":null,"snapshot":"https://mdt.mt.gov/other/WebAppData/External/RRS/RWIS/Lewistown-Divide-268005-00-7-10-2026-16-30-8.jpg","refreshMs":30000,"attribution":"Ora (Warner Varnado) · Montana DOT"}},{"type":"Feature","geometry":{"type":"Point","coordinates":[-105.2938704,47.28293547]},"properties":{"id":"ora-mt-69","name":"Lindsay Divide","state":"MT","provider":"Montana DOT","hls":null,"snapshot":"https://mdt.mt.gov/other/WebAppData/External/RRS/RWIS/Lindsay-Divide-302002-00-7-10-2026-16-30-19.jpg","refreshMs":30000,"attribution":"Ora (Warner Varnado) · Montana DOT"}},{"type":"Feature","geometry":{"type":"Point","coordinates":[-110.554092,45.644456]},"properties":{"id":"ora-mt-70","name":"Livingston River Hill","state":"MT","provider":"Montana DOT","hls":null,"snapshot":"https://mdt.mt.gov/other/WebAppData/External/RRS/RWIS/Livingston-River-Hill-564008-00-7-10-2026-16-15-2.jpg","refreshMs":30000,"attribution":"Ora (Warner Varnado) · Montana DOT"}},{"type":"Feature","geometry":{"type":"Point","coordinates":[-114.098008,46.803766]},"properties":{"id":"ora-mt-72","name":"Lolo North","state":"MT","provider":"Montana DOT","hls":null,"snapshot":"https://mdt.mt.gov/other/WebAppData/External/RRS/RWIS/Lolo-North-150013-00-7-10-2026-16-15-6.jpg","refreshMs":30000,"attribution":"Ora (Warner Varnado) · Montana DOT"}},{"type":"Feature","geometry":{"type":"Point","coordinates":[-110.5047682,47.95102703]},"properties":{"id":"ora-mt-73","name":"Loma","state":"MT","provider":"Montana DOT","hls":null,"snapshot":"https://mdt.mt.gov/other/WebAppData/External/RRS/RWIS/Loma-629003-00-7-10-2026-16-15-22.jpg","refreshMs":30000,"attribution":"Ora (Warner Varnado) · Montana DOT"}},{"type":"Feature","geometry":{"type":"Point","coordinates":[-115.6950595,47.4535729]},"properties":{"id":"ora-mt-74","name":"Lookout Pass","state":"MT","provider":"Montana DOT","hls":null,"snapshot":"https://mdt.mt.gov/other/WebAppData/External/RRS/RWIS/Lookout-Pass-150000-00-7-10-2026-16-15-1.jpg","refreshMs":30000,"attribution":"Ora (Warner Varnado) · Montana DOT"}},{"type":"Feature","geometry":{"type":"Point","coordinates":[-107.5720063,47.07813042]},"properties":{"id":"ora-mt-75","name":"Lufborough","state":"MT","provider":"Montana DOT","hls":null,"snapshot":"https://mdt.mt.gov/other/WebAppData/External/RRS/RWIS/Lufborough-302000-00-7-10-2026-16-30-19.jpg","refreshMs":30000,"attribution":"Ora (Warner Varnado) · Montana DOT"}},{"type":"Feature","geometry":{"type":"Point","coordinates":[-112.3093051,46.56147997]},"properties":{"id":"ora-mt-76","name":"MacDonald Pass","state":"MT","provider":"Montana DOT","hls":null,"snapshot":"https://mdt.mt.gov/other/WebAppData/External/RRS/RWIS/MacDonald-Pass-267002-00-7-10-2026-16-30-2.jpg","refreshMs":30000,"attribution":"Ora (Warner Varnado) · Montana DOT"}},{"type":"Feature","geometry":{"type":"Point","coordinates":[-108.3055539,47.96112732]},"properties":{"id":"ora-mt-77","name":"Malta South","state":"MT","provider":"Montana DOT","hls":null,"snapshot":"https://mdt.mt.gov/other/WebAppData/External/RRS/RWIS/Malta-South-269000-00-7-10-2026-16-30-7.jpg","refreshMs":30000,"attribution":"Ora (Warner Varnado) · Montana DOT"}},{"type":"Feature","geometry":{"type":"Point","coordinates":[-105.4423371,48.42732302]},"properties":{"id":"ora-mt-78","name":"McDonalds","state":"MT","provider":"Montana DOT","hls":null,"snapshot":"https://mdt.mt.gov/other/WebAppData/External/RRS/RWIS/McDonalds-269001-00-7-10-2026-16-30-7.jpg","refreshMs":30000,"attribution":"Ora (Warner Varnado) · Montana DOT"}},{"type":"Feature","geometry":{"type":"Point","coordinates":[-106.153,47.648]},"properties":{"id":"ora-mt-79","name":"McGuire Creek","state":"MT","provider":"Montana DOT","hls":null,"snapshot":"https://mdt.mt.gov/other/WebAppData/External/RRS/RWIS/McGuire-Creek-269006-00-7-10-2026-16-30-4.jpg","refreshMs":30000,"attribution":"Ora (Warner Varnado) · Montana DOT"}},{"type":"Feature","geometry":{"type":"Point","coordinates":[-110.8230922,47.14289771]},"properties":{"id":"ora-mt-80","name":"Monarch","state":"MT","provider":"Montana DOT","hls":null,"snapshot":"https://mdt.mt.gov/other/WebAppData/External/RRS/RWIS/Monarch-Canyon-301000-00-7-10-2026-16-15-2.jpg","refreshMs":30000,"attribution":"Ora (Warner Varnado) · Montana DOT"}},{"type":"Feature","geometry":{"type":"Point","coordinates":[-112.3136955,44.55766953]},"properties":{"id":"ora-mt-81","name":"Monida","state":"MT","provider":"Montana DOT","hls":null,"snapshot":"https://mdt.mt.gov/other/WebAppData/External/RRS/RWIS/Monida-Pass-267001-00-7-10-2026-16-30-22.jpg","refreshMs":30000,"attribution":"Ora (Warner Varnado) · Montana DOT"}},{"type":"Feature","geometry":{"type":"Point","coordinates":[-104.9971444,48.8184514]},"properties":{"id":"ora-mt-82","name":"Navajo","state":"MT","provider":"Montana DOT","hls":null,"snapshot":"https://mdt.mt.gov/other/WebAppData/External/RRS/RWIS/Navajo-269002-00-7-10-2026-16-30-7.jpg","refreshMs":30000,"attribution":"Ora (Warner Varnado) · Montana DOT"}},{"type":"Feature","geometry":{"type":"Point","coordinates":[-114.3886779,47.02299397]},"properties":{"id":"ora-mt-83","name":"Ninemile","state":"MT","provider":"Montana DOT","hls":null,"snapshot":"https://mdt.mt.gov/other/WebAppData/External/RRS/RWIS/Ninemile-150005-00-7-10-2026-16-30-8.jpg","refreshMs":30000,"attribution":"Ora (Warner Varnado) · Montana DOT"}},{"type":"Feature","geometry":{"type":"Point","coordinates":[-111.6961793,45.49959623]},"properties":{"id":"ora-mt-84","name":"Norris","state":"MT","provider":"Montana DOT","hls":null,"snapshot":"https://mdt.mt.gov/other/WebAppData/External/RRS/RWIS/Norris-Hill-564004-00-7-10-2026-16-30-30.jpg","refreshMs":30000,"attribution":"Ora (Warner Varnado) · Montana DOT"}},{"type":"Feature","geometry":{"type":"Point","coordinates":[-112.3341821,48.07321688]},"properties":{"id":"ora-mt-85","name":"Pendroy","state":"MT","provider":"Montana DOT","hls":null,"snapshot":"https://mdt.mt.gov/other/WebAppData/External/RRS/RWIS/Pendroy-301001-00-7-10-2026-16-15-7.jpg","refreshMs":30000,"attribution":"Ora (Warner Varnado) · Montana DOT"}},{"type":"Feature","geometry":{"type":"Point","coordinates":[-105.184314,48.11442]},"properties":{"id":"ora-mt-86","name":"Poplar","state":"MT","provider":"Montana DOT","hls":null,"snapshot":"https://mdt.mt.gov/other/WebAppData/External/RRS/RWIS/Poplar-269009-00-7-10-2026-16-30-21.jpg","refreshMs":30000,"attribution":"Ora (Warner Varnado) · Montana DOT"}},{"type":"Feature","geometry":{"type":"Point","coordinates":[-111.4701211,44.72814115]},"properties":{"id":"ora-mt-87","name":"Raynolds Pass","state":"MT","provider":"Montana DOT","hls":null,"snapshot":"https://mdt.mt.gov/other/WebAppData/External/RRS/RWIS/Raynolds-Pass-564000-00-7-10-2026-16-30-14.jpg","refreshMs":30000,"attribution":"Ora (Warner Varnado) · Montana DOT"}},{"type":"Feature","geometry":{"type":"Point","coordinates":[-109.5783019,45.71005632]},"properties":{"id":"ora-mt-88","name":"Reedpoint","state":"MT","provider":"Montana DOT","hls":null,"snapshot":"https://mdt.mt.gov/other/WebAppData/External/RRS/RWIS/Reed-Point-263001-00-7-10-2026-16-30-15.jpg","refreshMs":30000,"attribution":"Ora (Warner Varnado) · Montana DOT"}},{"type":"Feature","geometry":{"type":"Point","coordinates":[-106.2713308,46.83370217]},"properties":{"id":"ora-mt-89","name":"Rock Springs","state":"MT","provider":"Montana DOT","hls":null,"snapshot":"https://mdt.mt.gov/other/WebAppData/External/RRS/RWIS/Rock-Springs-563002-00-7-10-2026-16-30-5.jpg","refreshMs":30000,"attribution":"Ora (Warner Varnado) · Montana DOT"}},{"type":"Feature","geometry":{"type":"Point","coordinates":[-112.372317,47.0877]},"properties":{"id":"ora-mt-90","name":"Rogers Pass","state":"MT","provider":"Montana DOT","hls":null,"snapshot":"https://mdt.mt.gov/other/WebAppData/External/RRS/RWIS/Rogers-Pass-301007-00-7-10-2026-16-30-1.jpg","refreshMs":30000,"attribution":"Ora (Warner Varnado) · Montana DOT"}},{"type":"Feature","geometry":{"type":"Point","coordinates":[-109.4936168,45.33857742]},"properties":{"id":"ora-mt-91","name":"Roscoe Hill","state":"MT","provider":"Montana DOT","hls":null,"snapshot":"https://mdt.mt.gov/other/WebAppData/External/RRS/RWIS/Roscoe-Hill-263002-00-7-10-2026-16-30-15.jpg","refreshMs":30000,"attribution":"Ora (Warner Varnado) · Montana DOT"}},{"type":"Feature","geometry":{"type":"Point","coordinates":[-107.301667,48.451389]},"properties":{"id":"ora-mt-92","name":"Saco","state":"MT","provider":"Montana DOT","hls":null,"snapshot":"https://mdt.mt.gov/other/WebAppData/External/RRS/RWIS/Saco-269005-00-7-10-2026-16-30-7.jpg","refreshMs":30000,"attribution":"Ora (Warner Varnado) · Montana DOT"}},{"type":"Feature","geometry":{"type":"Point","coordinates":[-104.37,47.426]},"properties":{"id":"ora-mt-93","name":"Savage","state":"MT","provider":"Montana DOT","hls":null,"snapshot":"https://mdt.mt.gov/other/WebAppData/External/RRS/RWIS/Savage-302007-00-7-10-2026-16-30-4.jpg","refreshMs":30000,"attribution":"Ora (Warner Varnado) · Montana DOT"}},{"type":"Feature","geometry":{"type":"Point","coordinates":[-105.668,47.082]},"properties":{"id":"ora-mt-94","name":"Sheep Mountain","state":"MT","provider":"Montana DOT","hls":null,"snapshot":"https://mdt.mt.gov/other/WebAppData/External/RRS/RWIS/Sheep-Mountain-302006-00-7-10-2026-16-30-3.jpg","refreshMs":30000,"attribution":"Ora (Warner Varnado) · Montana DOT"}},{"type":"Feature","geometry":{"type":"Point","coordinates":[-112.1111196,46.88748267]},"properties":{"id":"ora-mt-95","name":"Sieben","state":"MT","provider":"Montana DOT","hls":null,"snapshot":"https://mdt.mt.gov/other/WebAppData/External/RRS/RWIS/Sieben-301005-00-7-10-2026-16-15-7.jpg","refreshMs":30000,"attribution":"Ora (Warner Varnado) · Montana DOT"}},{"type":"Feature","geometry":{"type":"Point","coordinates":[-104.3261866,47.91972733]},"properties":{"id":"ora-mt-96","name":"Sioux Pass","state":"MT","provider":"Montana DOT","hls":null,"snapshot":"https://mdt.mt.gov/other/WebAppData/External/RRS/RWIS/Sioux-Pass-302004-00-7-10-2026-16-30-21.jpg","refreshMs":30000,"attribution":"Ora (Warner Varnado) · Montana DOT"}},{"type":"Feature","geometry":{"type":"Point","coordinates":[-111.79386,46.56276]},"properties":{"id":"ora-mt-97","name":"Spokane Creek","state":"MT","provider":"Montana DOT","hls":null,"snapshot":"https://mdt.mt.gov/other/WebAppData/External/RRS/RWIS/Spokane-Creek-267010-00-7-10-2026-16-30-6.jpg","refreshMs":30000,"attribution":"Ora (Warner Varnado) · Montana DOT"}},{"type":"Feature","geometry":{"type":"Point","coordinates":[-110.248611,45.721944]},"properties":{"id":"ora-mt-98","name":"Springdale","state":"MT","provider":"Montana DOT","hls":null,"snapshot":"https://mdt.mt.gov/other/WebAppData/External/RRS/RWIS/Springdale-564014-00-7-10-2026-16-30-3.jpg","refreshMs":30000,"attribution":"Ora (Warner Varnado) · Montana DOT"}},{"type":"Feature","geometry":{"type":"Point","coordinates":[-115.103626,47.298603]},"properties":{"id":"ora-mt-99","name":"St Regis","state":"MT","provider":"Montana DOT","hls":null,"snapshot":"https://mdt.mt.gov/other/WebAppData/External/RRS/RWIS/St.-Regis-150012-00-7-10-2026-16-30-3.jpg","refreshMs":30000,"attribution":"Ora (Warner Varnado) · Montana DOT"}},{"type":"Feature","geometry":{"type":"Point","coordinates":[-106.563,48.422]},"properties":{"id":"ora-mt-100","name":"St. Marie","state":"MT","provider":"Montana DOT","hls":null,"snapshot":"https://mdt.mt.gov/other/WebAppData/External/RRS/RWIS/St.-Marie-269010-00-7-10-2026-16-30-6.jpg","refreshMs":30000,"attribution":"Ora (Warner Varnado) · Montana DOT"}},{"type":"Feature","geometry":{"type":"Point","coordinates":[-111.89871,48.88015]},"properties":{"id":"ora-mt-101","name":"Sunburst","state":"MT","provider":"Montana DOT","hls":null,"snapshot":"https://mdt.mt.gov/other/WebAppData/External/RRS/RWIS/Sunburst-629004-00-7-10-2026-16-30-23.jpg","refreshMs":30000,"attribution":"Ora (Warner Varnado) · Montana DOT"}},{"type":"Feature","geometry":{"type":"Point","coordinates":[-113.7557434,47.59102693]},"properties":{"id":"ora-mt-102","name":"Swan Lake","state":"MT","provider":"Montana DOT","hls":null,"snapshot":"https://mdt.mt.gov/other/WebAppData/External/RRS/RWIS/Swan-Lake-628005-00-7-10-2026-16-30-1.jpg","refreshMs":30000,"attribution":"Ora (Warner Varnado) · Montana DOT"}},{"type":"Feature","geometry":{"type":"Point","coordinates":[-106.3078849,46.26670992]},"properties":{"id":"ora-mt-103","name":"Sweeney Creek","state":"MT","provider":"Montana DOT","hls":null,"snapshot":"https://mdt.mt.gov/other/WebAppData/External/RRS/RWIS/Sweeney-563001-00-7-10-2026-16-30-5.jpg","refreshMs":30000,"attribution":"Ora (Warner Varnado) · Montana DOT"}},{"type":"Feature","geometry":{"type":"Point","coordinates":[-111.9583635,48.9832007]},"properties":{"id":"ora-mt-104","name":"Sweetgrass","state":"MT","provider":"Montana DOT","hls":null,"snapshot":"https://mdt.mt.gov/other/WebAppData/External/RRS/RWIS/Sweet-Grass-629001-00-7-10-2026-16-30-21.jpg","refreshMs":30000,"attribution":"Ora (Warner Varnado) · Montana DOT"}},{"type":"Feature","geometry":{"type":"Point","coordinates":[-115.5933447,47.4188869]},"properties":{"id":"ora-mt-105","name":"Taft","state":"MT","provider":"Montana DOT","hls":null,"snapshot":"https://mdt.mt.gov/other/WebAppData/External/RRS/RWIS/Taft-150015-00-7-10-2026-16-30-3.jpg","refreshMs":30000,"attribution":"Ora (Warner Varnado) · Montana DOT"}},{"type":"Feature","geometry":{"type":"Point","coordinates":[-111.736643,47.929309]},"properties":{"id":"ora-mt-106","name":"Teton River","state":"MT","provider":"Montana DOT","hls":null,"snapshot":"https://mdt.mt.gov/other/WebAppData/External/RRS/RWIS/Teton-River-301010-00-7-10-2026-16-15-5.jpg","refreshMs":30000,"attribution":"Ora (Warner Varnado) · Montana DOT"}},{"type":"Feature","geometry":{"type":"Point","coordinates":[-111.617677,45.918504]},"properties":{"id":"ora-mt-107","name":"Three Forks","state":"MT","provider":"Montana DOT","hls":null,"snapshot":"https://mdt.mt.gov/other/WebAppData/External/RRS/RWIS/Three-Forks-I-90-564012-00-7-10-2026-16-30-5.jpg","refreshMs":30000,"attribution":"Ora (Warner Varnado) · Montana DOT"}},{"type":"Feature","geometry":{"type":"Point","coordinates":[-111.44332,46.17783]},"properties":{"id":"ora-mt-108","name":"Toston Bridge","state":"MT","provider":"Montana DOT","hls":null,"snapshot":"https://mdt.mt.gov/other/WebAppData/External/RRS/RWIS/Toston-Bridge-564007-00-7-10-2026-16-15-22.jpg","refreshMs":30000,"attribution":"Ora (Warner Varnado) · Montana DOT"}},{"type":"Feature","geometry":{"type":"Point","coordinates":[-115.572,47.824111]},"properties":{"id":"ora-mt-109","name":"Trout Creek","state":"MT","provider":"Montana DOT","hls":null,"snapshot":"https://mdt.mt.gov/other/WebAppData/External/RRS/RWIS/Trout-Creek-150003-00-7-10-2026-16-15-20.jpg","refreshMs":30000,"attribution":"Ora (Warner Varnado) · Montana DOT"}},{"type":"Feature","geometry":{"type":"Point","coordinates":[-113.1950716,48.45265138]},"properties":{"id":"ora-mt-110","name":"Two Medicine Bridge","state":"MT","provider":"Montana DOT","hls":null,"snapshot":"https://mdt.mt.gov/other/WebAppData/External/RRS/RWIS/Two-Medicine-Bridge-629002-00-7-10-2026-16-30-20.jpg","refreshMs":30000,"attribution":"Ora (Warner Varnado) · Montana DOT"}},{"type":"Feature","geometry":{"type":"Point","coordinates":[-104.0468714,48.13764491]},"properties":{"id":"ora-mt-111","name":"US2 Stateline","state":"MT","provider":"Montana DOT","hls":null,"snapshot":"https://mdt.mt.gov/other/WebAppData/External/RRS/RWIS/US-2-Stateline-269004-00-7-10-2026-16-30-20.jpg","refreshMs":30000,"attribution":"Ora (Warner Varnado) · Montana DOT"}},{"type":"Feature","geometry":{"type":"Point","coordinates":[-111.936726,48.292424]},"properties":{"id":"ora-mt-112","name":"Valier Jct","state":"MT","provider":"Montana DOT","hls":null,"snapshot":"https://mdt.mt.gov/other/WebAppData/External/RRS/RWIS/Valier-629006-00-7-10-2026-16-30-2.jpg","refreshMs":30000,"attribution":"Ora (Warner Varnado) · Montana DOT"}},{"type":"Feature","geometry":{"type":"Point","coordinates":[-113.982147,48.4942]},"properties":{"id":"ora-mt-113","name":"West Glacier","state":"MT","provider":"Montana DOT","hls":null,"snapshot":"https://mdt.mt.gov/other/WebAppData/External/RRS/RWIS/West-Glacier-628014-00-7-10-2026-16-0-3.jpg","refreshMs":30000,"attribution":"Ora (Warner Varnado) · Montana DOT"}},{"type":"Feature","geometry":{"type":"Point","coordinates":[-108.35572,47.01154]},"properties":{"id":"ora-mt-114","name":"Winnett","state":"MT","provider":"Montana DOT","hls":null,"snapshot":"https://mdt.mt.gov/other/WebAppData/External/RRS/RWIS/Winnett-268014-00-7-10-2026-16-30-2.jpg","refreshMs":30000,"attribution":"Ora (Warner Varnado) · Montana DOT"}},{"type":"Feature","geometry":{"type":"Point","coordinates":[-115.9840606,48.58339724]},"properties":{"id":"ora-mt-115","name":"Yaak","state":"MT","provider":"Montana DOT","hls":null,"snapshot":"https://mdt.mt.gov/other/WebAppData/External/RRS/RWIS/Yaak-Hill-628003-00-7-10-2026-16-30-30.jpg","refreshMs":30000,"attribution":"Ora (Warner Varnado) · Montana DOT"}},{"type":"Feature","geometry":{"type":"Point","coordinates":[-114.029162,47.884848]},"properties":{"id":"ora-mt-116","name":"Yellow Bay","state":"MT","provider":"Montana DOT","hls":null,"snapshot":"https://mdt.mt.gov/other/WebAppData/External/RRS/RWIS/Yellow-Bay-628012-00-7-10-2026-16-30-1.jpg","refreshMs":30000,"attribution":"Ora (Warner Varnado) · Montana DOT"}},{"type":"Feature","geometry":{"type":"Point","coordinates":[-108.4679891,45.79376126]},"properties":{"id":"ora-mt-117","name":"Yellowstone River","state":"MT","provider":"Montana DOT","hls":null,"snapshot":"https://mdt.mt.gov/other/WebAppData/External/RRS/RWIS/Yellowstone-River-Bridge-263000-00-7-10-2026-16-30-1.jpg","refreshMs":30000,"attribution":"Ora (Warner Varnado) · Montana DOT"}}]}