{"type":"FeatureCollection","features":[{"type":"Feature","geometry":{"type":"Point","coordinates":[-103.21688,48.34177]},"properties":{"id":"ora-nd-0","name":"Ray","state":"ND","provider":"North Dakota DOT","hls":null,"snapshot":"https://www.dot.nd.gov/travel-info/cameras/US2RP51Raywest.jpg","refreshMs":30000,"attribution":"Ora (Warner Varnado) · North Dakota DOT"}},{"type":"Feature","geometry":{"type":"Point","coordinates":[-100.78243,46.82074]},"properties":{"id":"ora-nd-1","name":"Capital","state":"ND","provider":"North Dakota DOT","hls":null,"snapshot":"https://www.dot.nd.gov/travel-info/cameras/capitalnw00001.jpg","refreshMs":30000,"attribution":"Ora (Warner Varnado) · North Dakota DOT"}},{"type":"Feature","geometry":{"type":"Point","coordinates":[-99.75162,46.25554]},"properties":{"id":"ora-nd-2","name":"Wishek","state":"ND","provider":"North Dakota DOT","hls":null,"snapshot":"https://www.dot.nd.gov/travel-info/cameras/wishekwest.jpg","refreshMs":30000,"attribution":"Ora (Warner Varnado) · North Dakota DOT"}},{"type":"Feature","geometry":{"type":"Point","coordinates":[-96.84091,46.84736]},"properties":{"id":"ora-nd-3","name":"Fargo","state":"ND","provider":"North Dakota DOT","hls":null,"snapshot":"https://www.dot.nd.gov/travel-info/cameras/fargotrilevelwest.jpg","refreshMs":30000,"attribution":"Ora (Warner Varnado) · North Dakota DOT"}},{"type":"Feature","geometry":{"type":"Point","coordinates":[-96.78184,46.84769]},"properties":{"id":"ora-nd-4","name":"Fargo Red River Bridge","state":"ND","provider":"North Dakota DOT","hls":null,"snapshot":"https://www.dot.nd.gov/travel-info/cameras/I94RP352FargoRedRiverWest.jpg","refreshMs":30000,"attribution":"Ora (Warner Varnado) · North Dakota DOT"}},{"type":"Feature","geometry":{"type":"Point","coordinates":[-101.23038,47.54586]},"properties":{"id":"ora-nd-5","name":"Coleharbor","state":"ND","provider":"North Dakota DOT","hls":null,"snapshot":"https://www.dot.nd.gov/travel-info/cameras/US83RP151coleharbornorth.jpg","refreshMs":30000,"attribution":"Ora (Warner Varnado) · North Dakota DOT"}},{"type":"Feature","geometry":{"type":"Point","coordinates":[-103.34918,46.88912]},"properties":{"id":"ora-nd-6","name":"Fryburg","state":"ND","provider":"North Dakota DOT","hls":null,"snapshot":"https://www.dot.nd.gov/travel-info/cameras/I94RP34Fryburgwest.jpg","refreshMs":30000,"attribution":"Ora (Warner Varnado) · North Dakota DOT"}},{"type":"Feature","geometry":{"type":"Point","coordinates":[-103.41057,46.11685]},"properties":{"id":"ora-nd-7","name":"Bowman","state":"ND","provider":"North Dakota DOT","hls":null,"snapshot":"https://www.dot.nd.gov/travel-info/cameras/US85RP12Bowmannorth.jpg","refreshMs":30000,"attribution":"Ora (Warner Varnado) · North Dakota DOT"}},{"type":"Feature","geometry":{"type":"Point","coordinates":[-97.08664,47.54333]},"properties":{"id":"ora-nd-8","name":"Buxton","state":"ND","provider":"North Dakota DOT","hls":null,"snapshot":"https://www.dot.nd.gov/travel-info/cameras/I29RP114BuxtonNorth.jpg","refreshMs":30000,"attribution":"Ora (Warner Varnado) · North Dakota DOT"}},{"type":"Feature","geometry":{"type":"Point","coordinates":[-102.57242,47.98121]},"properties":{"id":"ora-nd-9","name":"Four Bears Bridge","state":"ND","provider":"North Dakota DOT","hls":null,"snapshot":"https://www.dot.nd.gov/travel-info/cameras/ND23RP46Newtowneast.jpg","refreshMs":30000,"attribution":"Ora (Warner Varnado) · North Dakota DOT"}},{"type":"Feature","geometry":{"type":"Point","coordinates":[-97.25705,48.97093]},"properties":{"id":"ora-nd-10","name":"Pembina","state":"ND","provider":"North Dakota DOT","hls":null,"snapshot":"https://www.dot.nd.gov/travel-info/cameras/I29RP215PembinaCenter.jpg","refreshMs":30000,"attribution":"Ora (Warner Varnado) · North Dakota DOT"}},{"type":"Feature","geometry":{"type":"Point","coordinates":[-98.70472,48.05058]},"properties":{"id":"ora-nd-11","name":"Crary Rest Area","state":"ND","provider":"North Dakota DOT","hls":null,"snapshot":"https://www.dot.nd.gov/travel-info/cameras/crarycenter.jpg","refreshMs":30000,"attribution":"Ora (Warner Varnado) · North Dakota DOT"}},{"type":"Feature","geometry":{"type":"Point","coordinates":[-103.7249,48.14067]},"properties":{"id":"ora-nd-12","name":"Williston","state":"ND","provider":"North Dakota DOT","hls":null,"snapshot":"https://www.dot.nd.gov/travel-info/cameras/US2RP15Willistonwest.jpg","refreshMs":30000,"attribution":"Ora (Warner Varnado) · North Dakota DOT"}},{"type":"Feature","geometry":{"type":"Point","coordinates":[-98.77667,46.89202]},"properties":{"id":"ora-nd-13","name":"Jamestown East Bound","state":"ND","provider":"North Dakota DOT","hls":null,"snapshot":"https://www.dot.nd.gov/travel-info/cameras/I94RP255JamestownEBWest.jpg","refreshMs":30000,"attribution":"Ora (Warner Varnado) · North Dakota DOT"}},{"type":"Feature","geometry":{"type":"Point","coordinates":[-97.08728,47.85812]},"properties":{"id":"ora-nd-14","name":"Grand Forks North Bound","state":"ND","provider":"North Dakota DOT","hls":null,"snapshot":"https://www.dot.nd.gov/travel-info/cameras/grandforksnbcenter.jpg","refreshMs":30000,"attribution":"Ora (Warner Varnado) · North Dakota DOT"}},{"type":"Feature","geometry":{"type":"Point","coordinates":[-97.09372,47.95978]},"properties":{"id":"ora-nd-15","name":"Grand Forks South Bound","state":"ND","provider":"North Dakota DOT","hls":null,"snapshot":"https://www.dot.nd.gov/travel-info/cameras/grandforkssbcenter.jpg","refreshMs":30000,"attribution":"Ora (Warner Varnado) · North Dakota DOT"}},{"type":"Feature","geometry":{"type":"Point","coordinates":[-100.584,46.83772]},"properties":{"id":"ora-nd-16","name":"Apple Creek Rest Area","state":"ND","provider":"North Dakota DOT","hls":null,"snapshot":"https://www.dot.nd.gov/travel-info/cameras/I94RP168Applecreekwest.jpg","refreshMs":30000,"attribution":"Ora (Warner Varnado) · North Dakota DOT"}},{"type":"Feature","geometry":{"type":"Point","coordinates":[-97.62946,46.1009]},"properties":{"id":"ora-nd-17","name":"Forman","state":"ND","provider":"North Dakota DOT","hls":null,"snapshot":"https://www.dot.nd.gov/travel-info/cameras/formancenter.jpg","refreshMs":30000,"attribution":"Ora (Warner Varnado) · North Dakota DOT"}},{"type":"Feature","geometry":{"type":"Point","coordinates":[-100.07625,48.35467]},"properties":{"id":"ora-nd-18","name":"Rugby","state":"ND","provider":"North Dakota DOT","hls":null,"snapshot":"https://www.dot.nd.gov/travel-info/cameras/rugbywest.jpg","refreshMs":30000,"attribution":"Ora (Warner Varnado) · North Dakota DOT"}},{"type":"Feature","geometry":{"type":"Point","coordinates":[-103.41441,46.90093]},"properties":{"id":"ora-nd-19","name":"Painted Canyon","state":"ND","provider":"North Dakota DOT","hls":null,"snapshot":"https://www.dot.nd.gov/travel-info/cameras/I94RP31PaintedCanyonWest.jpg","refreshMs":30000,"attribution":"Ora (Warner Varnado) · North Dakota DOT"}},{"type":"Feature","geometry":{"type":"Point","coordinates":[-99.6524,46.87822]},"properties":{"id":"ora-nd-20","name":"Tappen","state":"ND","provider":"North Dakota DOT","hls":null,"snapshot":"https://www.dot.nd.gov/travel-info/cameras/I94MileRP213TappenWest.jpg","refreshMs":30000,"attribution":"Ora (Warner Varnado) · North Dakota DOT"}},{"type":"Feature","geometry":{"type":"Point","coordinates":[-98.08004,46.36536]},"properties":{"id":"ora-nd-21","name":"Verona","state":"ND","provider":"North Dakota DOT","hls":null,"snapshot":"https://www.dot.nd.gov/travel-info/cameras/ND13RP308VeronaWest.jpg","refreshMs":30000,"attribution":"Ora (Warner Varnado) · North Dakota DOT"}},{"type":"Feature","geometry":{"type":"Point","coordinates":[-97.92812,48.76133]},"properties":{"id":"ora-nd-22","name":"Cavalier","state":"ND","provider":"North Dakota DOT","hls":null,"snapshot":"https://www.dot.nd.gov/travel-info/cameras/cavalierwest.jpg","refreshMs":30000,"attribution":"Ora (Warner Varnado) · North Dakota DOT"}},{"type":"Feature","geometry":{"type":"Point","coordinates":[-102.62247,46.8768]},"properties":{"id":"ora-nd-23","name":"Green River","state":"ND","provider":"North Dakota DOT","hls":null,"snapshot":"https://www.dot.nd.gov/travel-info/cameras/I94RP70Greenriverwest.jpg","refreshMs":30000,"attribution":"Ora (Warner Varnado) · North Dakota DOT"}},{"type":"Feature","geometry":{"type":"Point","coordinates":[-102.8193,47.445]},"properties":{"id":"ora-nd-24","name":"Killdeer","state":"ND","provider":"North Dakota DOT","hls":null,"snapshot":"https://www.dot.nd.gov/travel-info/cameras/ND22RP112Killdeercenter.jpg","refreshMs":30000,"attribution":"Ora (Warner Varnado) · North Dakota DOT"}},{"type":"Feature","geometry":{"type":"Point","coordinates":[-97.22432,46.87453]},"properties":{"id":"ora-nd-25","name":"Casselton","state":"ND","provider":"North Dakota DOT","hls":null,"snapshot":"https://www.dot.nd.gov/travel-info/cameras/I94RP330Casseltonwest.jpg","refreshMs":30000,"attribution":"Ora (Warner Varnado) · North Dakota DOT"}},{"type":"Feature","geometry":{"type":"Point","coordinates":[-101.7188,48.44484]},"properties":{"id":"ora-nd-26","name":"Carpio","state":"ND","provider":"North Dakota DOT","hls":null,"snapshot":"https://www.dot.nd.gov/travel-info/cameras/US52RP68Carpionorth.jpg","refreshMs":30000,"attribution":"Ora (Warner Varnado) · North Dakota DOT"}},{"type":"Feature","geometry":{"type":"Point","coordinates":[-101.01597,48.82141]},"properties":{"id":"ora-nd-27","name":"Westhope","state":"ND","provider":"North Dakota DOT","hls":null,"snapshot":"https://www.dot.nd.gov/travel-info/cameras/ND5RP152.WesthopeWest.jpg","refreshMs":30000,"attribution":"Ora (Warner Varnado) · North Dakota DOT"}},{"type":"Feature","geometry":{"type":"Point","coordinates":[-100.2466,47.48658]},"properties":{"id":"ora-nd-28","name":"Denhoff","state":"ND","provider":"North Dakota DOT","hls":null,"snapshot":"https://www.dot.nd.gov/travel-info/cameras/denhoffwest.jpg","refreshMs":30000,"attribution":"Ora (Warner Varnado) · North Dakota DOT"}},{"type":"Feature","geometry":{"type":"Point","coordinates":[-103.24894,47.41476]},"properties":{"id":"ora-nd-29","name":"Grassy Butte","state":"ND","provider":"North Dakota DOT","hls":null,"snapshot":"https://www.dot.nd.gov/travel-info/cameras/grassybuttenorth.jpg","refreshMs":30000,"attribution":"Ora (Warner Varnado) · North Dakota DOT"}},{"type":"Feature","geometry":{"type":"Point","coordinates":[-102.75769,47.35859]},"properties":{"id":"ora-nd-30","name":"Killdeer Roundabout","state":"ND","provider":"North Dakota DOT","hls":null,"snapshot":"https://www.dot.nd.gov/travel-info/cameras/killdeerroundaboutcenter.jpg","refreshMs":30000,"attribution":"Ora (Warner Varnado) · North Dakota DOT"}},{"type":"Feature","geometry":{"type":"Point","coordinates":[-99.62939,47.45947]},"properties":{"id":"ora-nd-31","name":"Bowdon","state":"ND","provider":"North Dakota DOT","hls":null,"snapshot":"https://www.dot.nd.gov/travel-info/cameras/bowdonwest.jpg","refreshMs":30000,"attribution":"Ora (Warner Varnado) · North Dakota DOT"}},{"type":"Feature","geometry":{"type":"Point","coordinates":[-103.94742,46.29716]},"properties":{"id":"ora-nd-32","name":"Marmarth","state":"ND","provider":"North Dakota DOT","hls":null,"snapshot":"https://www.dot.nd.gov/travel-info/cameras/marmarthwest.jpg","refreshMs":30000,"attribution":"Ora (Warner Varnado) · North Dakota DOT"}},{"type":"Feature","geometry":{"type":"Point","coordinates":[-102.54629,48.9526]},"properties":{"id":"ora-nd-33","name":"Portal","state":"ND","provider":"North Dakota DOT","hls":null,"snapshot":"https://www.dot.nd.gov/travel-info/cameras/US52RP3PortalNorth.jpg","refreshMs":30000,"attribution":"Ora (Warner Varnado) · North Dakota DOT"}},{"type":"Feature","geometry":{"type":"Point","coordinates":[-103.25353,47.58604]},"properties":{"id":"ora-nd-34","name":"Long X Bridge","state":"ND","provider":"North Dakota DOT","hls":null,"snapshot":"https://www.dot.nd.gov/travel-info/cameras/US85RP126.3LongxBridgeNorth.jpg","refreshMs":30000,"attribution":"Ora (Warner Varnado) · North Dakota DOT"}},{"type":"Feature","geometry":{"type":"Point","coordinates":[-101.59127,46.86247]},"properties":{"id":"ora-nd-35","name":"Hailstone Rest Area","state":"ND","provider":"North Dakota DOT","hls":null,"snapshot":"https://www.dot.nd.gov/travel-info/cameras/I94RP119Hailstonewest.jpg","refreshMs":30000,"attribution":"Ora (Warner Varnado) · North Dakota DOT"}},{"type":"Feature","geometry":{"type":"Point","coordinates":[-103.18916,46.9712]},"properties":{"id":"ora-nd-36","name":"Fairfield","state":"ND","provider":"North Dakota DOT","hls":null,"snapshot":"https://www.dot.nd.gov/travel-info/cameras/US85RP81Fairfieldcenter.jpg","refreshMs":30000,"attribution":"Ora (Warner Varnado) · North Dakota DOT"}},{"type":"Feature","geometry":{"type":"Point","coordinates":[-100.05205,48.80542]},"properties":{"id":"ora-nd-37","name":"Dunseith","state":"ND","provider":"North Dakota DOT","hls":null,"snapshot":"https://www.dot.nd.gov/travel-info/cameras/dunseithwest.jpg","refreshMs":30000,"attribution":"Ora (Warner Varnado) · North Dakota DOT"}},{"type":"Feature","geometry":{"type":"Point","coordinates":[-97.1898,48.69495]},"properties":{"id":"ora-nd-38","name":"Bowesmont","state":"ND","provider":"North Dakota DOT","hls":null,"snapshot":"https://www.dot.nd.gov/travel-info/cameras/bowesmontnorth.jpg","refreshMs":30000,"attribution":"Ora (Warner Varnado) · North Dakota DOT"}},{"type":"Feature","geometry":{"type":"Point","coordinates":[-96.83544,45.97818]},"properties":{"id":"ora-nd-39","name":"Lake Agassiz","state":"ND","provider":"North Dakota DOT","hls":null,"snapshot":"https://www.dot.nd.gov/travel-info/cameras/I29RP3Lakeagassizcenter.jpg","refreshMs":30000,"attribution":"Ora (Warner Varnado) · North Dakota DOT"}},{"type":"Feature","geometry":{"type":"Point","coordinates":[-102.80032,47.03123]},"properties":{"id":"ora-nd-40","name":"Manning","state":"ND","provider":"North Dakota DOT","hls":null,"snapshot":"https://www.dot.nd.gov/travel-info/cameras/ND22RP82Manningnorth.jpg","refreshMs":30000,"attribution":"Ora (Warner Varnado) · North Dakota DOT"}},{"type":"Feature","geometry":{"type":"Point","coordinates":[-97.41748,47.93263]},"properties":{"id":"ora-nd-41","name":"Emerado","state":"ND","provider":"North Dakota DOT","hls":null,"snapshot":"https://www.dot.nd.gov/travel-info/cameras/emeradowest.jpg","refreshMs":30000,"attribution":"Ora (Warner Varnado) · North Dakota DOT"}},{"type":"Feature","geometry":{"type":"Point","coordinates":[-96.83869,46.78226]},"properties":{"id":"ora-nd-42","name":"Fargo","state":"ND","provider":"North Dakota DOT","hls":null,"snapshot":"https://www.dot.nd.gov/travel-info/cameras/I29RP58.765FargoSouthof64thAveSNorth.jpg","refreshMs":30000,"attribution":"Ora (Warner Varnado) · North Dakota DOT"}},{"type":"Feature","geometry":{"type":"Point","coordinates":[-96.9689,46.87725]},"properties":{"id":"ora-nd-43","name":"West Fargo","state":"ND","provider":"North Dakota DOT","hls":null,"snapshot":"https://www.dot.nd.gov/travel-info/cameras/fargoebwest.jpg","refreshMs":30000,"attribution":"Ora (Warner Varnado) · North Dakota DOT"}},{"type":"Feature","geometry":{"type":"Point","coordinates":[-102.95444,46.03508]},"properties":{"id":"ora-nd-44","name":"Buffalo Coulee","state":"ND","provider":"North Dakota DOT","hls":null,"snapshot":"https://www.dot.nd.gov/travel-info/cameras/ND22RP6BuffaloCouleeNorth.jpg","refreshMs":30000,"attribution":"Ora (Warner Varnado) · North Dakota DOT"}},{"type":"Feature","geometry":{"type":"Point","coordinates":[-98.95818,46.02669]},"properties":{"id":"ora-nd-45","name":"Ashley","state":"ND","provider":"North Dakota DOT","hls":null,"snapshot":"https://www.dot.nd.gov/travel-info/cameras/ashleywest.jpg","refreshMs":30000,"attribution":"Ora (Warner Varnado) · North Dakota DOT"}},{"type":"Feature","geometry":{"type":"Point","coordinates":[-99.94262,48.02132]},"properties":{"id":"ora-nd-46","name":"Esmond","state":"ND","provider":"North Dakota DOT","hls":null,"snapshot":"https://www.dot.nd.gov/travel-info/cameras/esmondwest.jpg","refreshMs":30000,"attribution":"Ora (Warner Varnado) · North Dakota DOT"}},{"type":"Feature","geometry":{"type":"Point","coordinates":[-100.24795,46.84457]},"properties":{"id":"ora-nd-47","name":"Sterling","state":"ND","provider":"North Dakota DOT","hls":null,"snapshot":"https://www.dot.nd.gov/travel-info/cameras/I94RP184SterlingWest.jpg","refreshMs":30000,"attribution":"Ora (Warner Varnado) · North Dakota DOT"}},{"type":"Feature","geometry":{"type":"Point","coordinates":[-101.84385,47.64661]},"properties":{"id":"ora-nd-48","name":"Whiteshield","state":"ND","provider":"North Dakota DOT","hls":null,"snapshot":"https://www.dot.nd.gov/travel-info/cameras/whiteshieldwest.jpg","refreshMs":30000,"attribution":"Ora (Warner Varnado) · North Dakota DOT"}},{"type":"Feature","geometry":{"type":"Point","coordinates":[-99.28715,48.27809]},"properties":{"id":"ora-nd-49","name":"Leeds","state":"ND","provider":"North Dakota DOT","hls":null,"snapshot":"https://www.dot.nd.gov/travel-info/cameras/leedswest.jpg","refreshMs":30000,"attribution":"Ora (Warner Varnado) · North Dakota DOT"}},{"type":"Feature","geometry":{"type":"Point","coordinates":[-102.75121,46.89206]},"properties":{"id":"ora-nd-50","name":"Dickinson East Bound","state":"ND","provider":"North Dakota DOT","hls":null,"snapshot":"https://www.dot.nd.gov/travel-info/cameras/I94RP63DickinsonEBWest.jpg","refreshMs":30000,"attribution":"Ora (Warner Varnado) · North Dakota DOT"}},{"type":"Feature","geometry":{"type":"Point","coordinates":[-102.8707,46.89091]},"properties":{"id":"ora-nd-51","name":"Dickinson West Bound","state":"ND","provider":"North Dakota DOT","hls":null,"snapshot":"https://www.dot.nd.gov/travel-info/cameras/dickinsonwbwest.jpg","refreshMs":30000,"attribution":"Ora (Warner Varnado) · North Dakota DOT"}},{"type":"Feature","geometry":{"type":"Point","coordinates":[-101.02939,46.86248]},"properties":{"id":"ora-nd-52","name":"Mandan","state":"ND","provider":"North Dakota DOT","hls":null,"snapshot":"https://www.dot.nd.gov/travel-info/cameras/mandanebwest.jpg","refreshMs":30000,"attribution":"Ora (Warner Varnado) · North Dakota DOT"}},{"type":"Feature","geometry":{"type":"Point","coordinates":[-101.41403,47.49915]},"properties":{"id":"ora-nd-53","name":"Garrison Dam","state":"ND","provider":"North Dakota DOT","hls":null,"snapshot":"https://www.dot.nd.gov/travel-info/cameras/ND200RP177GarrisonDamWest.jpg","refreshMs":30000,"attribution":"Ora (Warner Varnado) · North Dakota DOT"}},{"type":"Feature","geometry":{"type":"Point","coordinates":[-98.968,47.99604]},"properties":{"id":"ora-nd-54","name":"Fort Totten","state":"ND","provider":"North Dakota DOT","hls":null,"snapshot":"https://www.dot.nd.gov/travel-info/cameras/forttottenwest.jpg","refreshMs":30000,"attribution":"Ora (Warner Varnado) · North Dakota DOT"}},{"type":"Feature","geometry":{"type":"Point","coordinates":[-98.32979,47.55607]},"properties":{"id":"ora-nd-55","name":"Binford","state":"ND","provider":"North Dakota DOT","hls":null,"snapshot":"https://www.dot.nd.gov/travel-info/cameras/ND1RP128BinfordNorth.jpg","refreshMs":30000,"attribution":"Ora (Warner Varnado) · North Dakota DOT"}},{"type":"Feature","geometry":{"type":"Point","coordinates":[-97.16185,48.57137]},"properties":{"id":"ora-nd-56","name":"Drayton Bridge","state":"ND","provider":"North Dakota DOT","hls":null,"snapshot":"https://www.dot.nd.gov/travel-info/cameras/ND66RP138DraytonWest.jpg","refreshMs":30000,"attribution":"Ora (Warner Varnado) · North Dakota DOT"}},{"type":"Feature","geometry":{"type":"Point","coordinates":[-103.28358,47.72781]},"properties":{"id":"ora-nd-57","name":"Watford City","state":"ND","provider":"North Dakota DOT","hls":null,"snapshot":"https://www.dot.nd.gov/travel-info/cameras/US85RP137WatfordCityNorth.jpg","refreshMs":30000,"attribution":"Ora (Warner Varnado) · North Dakota DOT"}},{"type":"Feature","geometry":{"type":"Point","coordinates":[-98.89315,48.03588]},"properties":{"id":"ora-nd-58","name":"Camp Grafton","state":"ND","provider":"North Dakota DOT","hls":null,"snapshot":"https://www.dot.nd.gov/travel-info/cameras/campgraftoncenter.jpg","refreshMs":30000,"attribution":"Ora (Warner Varnado) · North Dakota DOT"}},{"type":"Feature","geometry":{"type":"Point","coordinates":[-98.92923,47.9953]},"properties":{"id":"ora-nd-59","name":"Devils Lake","state":"ND","provider":"North Dakota DOT","hls":null,"snapshot":"https://www.dot.nd.gov/travel-info/cameras/devilslakewest.jpg","refreshMs":30000,"attribution":"Ora (Warner Varnado) · North Dakota DOT"}},{"type":"Feature","geometry":{"type":"Point","coordinates":[-101.03698,47.30369]},"properties":{"id":"ora-nd-60","name":"Washburn","state":"ND","provider":"North Dakota DOT","hls":null,"snapshot":"https://www.dot.nd.gov/travel-info/cameras/US83RP128WashburnWest.jpg","refreshMs":30000,"attribution":"Ora (Warner Varnado) · North Dakota DOT"}},{"type":"Feature","geometry":{"type":"Point","coordinates":[-102.55053,46.8739]},"properties":{"id":"ora-nd-61","name":"Gladstone EB/WB","state":"ND","provider":"North Dakota DOT","hls":null,"snapshot":"https://www.dot.nd.gov/travel-info/cameras/gladstonewest.jpg","refreshMs":30000,"attribution":"Ora (Warner Varnado) · North Dakota DOT"}},{"type":"Feature","geometry":{"type":"Point","coordinates":[-99.12603,47.68751]},"properties":{"id":"ora-nd-62","name":"New Rockford","state":"ND","provider":"North Dakota DOT","hls":null,"snapshot":"https://www.dot.nd.gov/travel-info/cameras/newrockfordnorth.jpg","refreshMs":30000,"attribution":"Ora (Warner Varnado) · North Dakota DOT"}},{"type":"Feature","geometry":{"type":"Point","coordinates":[-103.95459,47.44073]},"properties":{"id":"ora-nd-63","name":"Trotters North","state":"ND","provider":"North Dakota DOT","hls":null,"snapshot":"https://www.dot.nd.gov/travel-info/cameras/ND16RP117.5TrottersNorth.jpg","refreshMs":30000,"attribution":"Ora (Warner Varnado) · North Dakota DOT"}},{"type":"Feature","geometry":{"type":"Point","coordinates":[-100.55594,48.9512]},"properties":{"id":"ora-nd-64","name":"Bottineau","state":"ND","provider":"North Dakota DOT","hls":null,"snapshot":"https://www.dot.nd.gov/travel-info/cameras/bottineaunorth.jpg","refreshMs":30000,"attribution":"Ora (Warner Varnado) · North Dakota DOT"}},{"type":"Feature","geometry":{"type":"Point","coordinates":[-102.08758,48.76368]},"properties":{"id":"ora-nd-65","name":"Kenmare","state":"ND","provider":"North Dakota DOT","hls":null,"snapshot":"https://www.dot.nd.gov/travel-info/cameras/US52RP36KenmareNorth.jpg","refreshMs":30000,"attribution":"Ora (Warner Varnado) · North Dakota DOT"}},{"type":"Feature","geometry":{"type":"Point","coordinates":[-102.02645,48.32745]},"properties":{"id":"ora-nd-66","name":"Blaisdell","state":"ND","provider":"North Dakota DOT","hls":null,"snapshot":"https://www.dot.nd.gov/travel-info/cameras/blaisdellwest.jpg","refreshMs":30000,"attribution":"Ora (Warner Varnado) · North Dakota DOT"}},{"type":"Feature","geometry":{"type":"Point","coordinates":[-103.81032,46.94411]},"properties":{"id":"ora-nd-67","name":"Camel Hump","state":"ND","provider":"North Dakota DOT","hls":null,"snapshot":"https://www.dot.nd.gov/travel-info/cameras/camelhumpwest.jpg","refreshMs":30000,"attribution":"Ora (Warner Varnado) · North Dakota DOT"}},{"type":"Feature","geometry":{"type":"Point","coordinates":[-102.04623,47.29931]},"properties":{"id":"ora-nd-68","name":"Golden Valley","state":"ND","provider":"North Dakota DOT","hls":null,"snapshot":"https://www.dot.nd.gov/travel-info/cameras/ND200RP231GoldenValleyWest.jpg","refreshMs":30000,"attribution":"Ora (Warner Varnado) · North Dakota DOT"}},{"type":"Feature","geometry":{"type":"Point","coordinates":[-102.31848,46.51075]},"properties":{"id":"ora-nd-69","name":"Mott","state":"ND","provider":"North Dakota DOT","hls":null,"snapshot":"https://www.dot.nd.gov/travel-info/cameras/mottnorth.jpg","refreshMs":30000,"attribution":"Ora (Warner Varnado) · North Dakota DOT"}},{"type":"Feature","geometry":{"type":"Point","coordinates":[-103.65844,48.05293]},"properties":{"id":"ora-nd-70","name":"Panger","state":"ND","provider":"North Dakota DOT","hls":null,"snapshot":"https://www.dot.nd.gov/travel-info/cameras/US85RP176Pangernorth.jpg","refreshMs":30000,"attribution":"Ora (Warner Varnado) · North Dakota DOT"}},{"type":"Feature","geometry":{"type":"Point","coordinates":[-102.78962,46.68171]},"properties":{"id":"ora-nd-71","name":"New England","state":"ND","provider":"North Dakota DOT","hls":null,"snapshot":"https://www.dot.nd.gov/travel-info/cameras/newenglandcenter.jpg","refreshMs":30000,"attribution":"Ora (Warner Varnado) · North Dakota DOT"}},{"type":"Feature","geometry":{"type":"Point","coordinates":[-100.82783,46.82414]},"properties":{"id":"ora-nd-72","name":"Bismarck","state":"ND","provider":"North Dakota DOT","hls":null,"snapshot":"https://www.dot.nd.gov/travel-info/cameras/I94RP156GrantMarshWest.jpg","refreshMs":30000,"attribution":"Ora (Warner Varnado) · North Dakota DOT"}},{"type":"Feature","geometry":{"type":"Point","coordinates":[-99.27892,46.87824]},"properties":{"id":"ora-nd-73","name":"Medina","state":"ND","provider":"North Dakota DOT","hls":null,"snapshot":"https://www.dot.nd.gov/travel-info/cameras/I94RP231MedinaWest.jpg","refreshMs":30000,"attribution":"Ora (Warner Varnado) · North Dakota DOT"}},{"type":"Feature","geometry":{"type":"Point","coordinates":[-101.43405,46.86166]},"properties":{"id":"ora-nd-74","name":"New Salem","state":"ND","provider":"North Dakota DOT","hls":null,"snapshot":"https://www.dot.nd.gov/travel-info/cameras/I94RP126NewSalemWest.jpg","refreshMs":30000,"attribution":"Ora (Warner Varnado) · North Dakota DOT"}},{"type":"Feature","geometry":{"type":"Point","coordinates":[-102.75379,48.72483]},"properties":{"id":"ora-nd-75","name":"Columbus","state":"ND","provider":"North Dakota DOT","hls":null,"snapshot":"https://www.dot.nd.gov/travel-info/cameras/ND40RP34Columbusnorth.jpg","refreshMs":30000,"attribution":"Ora (Warner Varnado) · North Dakota DOT"}},{"type":"Feature","geometry":{"type":"Point","coordinates":[-102.00722,46.37073]},"properties":{"id":"ora-nd-76","name":"New Leipzig","state":"ND","provider":"North Dakota DOT","hls":null,"snapshot":"https://www.dot.nd.gov/travel-info/cameras/newleipzigwest.jpg","refreshMs":30000,"attribution":"Ora (Warner Varnado) · North Dakota DOT"}},{"type":"Feature","geometry":{"type":"Point","coordinates":[-98.73085,46.88968]},"properties":{"id":"ora-nd-77","name":"Jamestown West Bound","state":"ND","provider":"North Dakota DOT","hls":null,"snapshot":"https://www.dot.nd.gov/travel-info/cameras/jamestown2wbwest.jpg","refreshMs":30000,"attribution":"Ora (Warner Varnado) · North Dakota DOT"}},{"type":"Feature","geometry":{"type":"Point","coordinates":[-98.695,46.88574]},"properties":{"id":"ora-nd-78","name":"Jamestown East Bound","state":"ND","provider":"North Dakota DOT","hls":null,"snapshot":"https://www.dot.nd.gov/travel-info/cameras/jamestown2ebwest.jpg","refreshMs":30000,"attribution":"Ora (Warner Varnado) · North Dakota DOT"}},{"type":"Feature","geometry":{"type":"Point","coordinates":[-97.09394,47.9039]},"properties":{"id":"ora-nd-79","name":"Grand Forks South Bound","state":"ND","provider":"North Dakota DOT","hls":null,"snapshot":"https://www.dot.nd.gov/travel-info/cameras/grandforks2sbnorth.jpg","refreshMs":30000,"attribution":"Ora (Warner Varnado) · North Dakota DOT"}},{"type":"Feature","geometry":{"type":"Point","coordinates":[-101.36423,47.9786]},"properties":{"id":"ora-nd-80","name":"Ryder","state":"ND","provider":"North Dakota DOT","hls":null,"snapshot":"https://www.dot.nd.gov/travel-info/cameras/ND23RP102RyderWest.jpg","refreshMs":30000,"attribution":"Ora (Warner Varnado) · North Dakota DOT"}},{"type":"Feature","geometry":{"type":"Point","coordinates":[-101.78594,47.11662]},"properties":{"id":"ora-nd-81","name":"Beulah","state":"ND","provider":"North Dakota DOT","hls":null,"snapshot":"https://www.dot.nd.gov/travel-info/cameras/beulahnorth.jpg","refreshMs":30000,"attribution":"Ora (Warner Varnado) · North Dakota DOT"}},{"type":"Feature","geometry":{"type":"Point","coordinates":[-101.29535,48.28572]},"properties":{"id":"ora-nd-82","name":"Minot NB","state":"ND","provider":"North Dakota DOT","hls":null,"snapshot":"https://www.dot.nd.gov/travel-info/cameras/minotnbcenter.jpg","refreshMs":30000,"attribution":"Ora (Warner Varnado) · North Dakota DOT"}},{"type":"Feature","geometry":{"type":"Point","coordinates":[-100.77329,46.87134]},"properties":{"id":"ora-nd-83","name":"Bismarck SB","state":"ND","provider":"North Dakota DOT","hls":null,"snapshot":"https://www.dot.nd.gov/travel-info/cameras/bismarcksbnorth.jpg","refreshMs":30000,"attribution":"Ora (Warner Varnado) · North Dakota DOT"}},{"type":"Feature","geometry":{"type":"Point","coordinates":[-97.11268,47.93276]},"properties":{"id":"ora-nd-84","name":"Grand Forks US 2 EB","state":"ND","provider":"North Dakota DOT","hls":null,"snapshot":"https://www.dot.nd.gov/travel-info/cameras/grandforksebwest.jpg","refreshMs":30000,"attribution":"Ora (Warner Varnado) · North Dakota DOT"}},{"type":"Feature","geometry":{"type":"Point","coordinates":[-97.09314,47.92208]},"properties":{"id":"ora-nd-85","name":"Grand Forks North Bound","state":"ND","provider":"North Dakota DOT","hls":null,"snapshot":"https://www.dot.nd.gov/travel-info/cameras/grandforks2nbcenter.jpg","refreshMs":30000,"attribution":"Ora (Warner Varnado) · North Dakota DOT"}},{"type":"Feature","geometry":{"type":"Point","coordinates":[-102.89321,47.35793]},"properties":{"id":"ora-nd-86","name":"Killdeer West","state":"ND","provider":"North Dakota DOT","hls":null,"snapshot":"https://www.dot.nd.gov/travel-info/cameras/killdeerwwest.jpg","refreshMs":30000,"attribution":"Ora (Warner Varnado) · North Dakota DOT"}},{"type":"Feature","geometry":{"type":"Point","coordinates":[-102.47691,46.1122]},"properties":{"id":"ora-nd-87","name":"Haynes","state":"ND","provider":"North Dakota DOT","hls":null,"snapshot":"https://www.dot.nd.gov/travel-info/cameras/haynesnorth.jpg","refreshMs":30000,"attribution":"Ora (Warner Varnado) · North Dakota DOT"}},{"type":"Feature","geometry":{"type":"Point","coordinates":[-103.11145,46.52593]},"properties":{"id":"ora-nd-88","name":"Daglum","state":"ND","provider":"North Dakota DOT","hls":null,"snapshot":"https://www.dot.nd.gov/travel-info/cameras/daglumwest.jpg","refreshMs":30000,"attribution":"Ora (Warner Varnado) · North Dakota DOT"}},{"type":"Feature","geometry":{"type":"Point","coordinates":[-101.36604,48.22865]},"properties":{"id":"ora-nd-89","name":"Minot","state":"ND","provider":"North Dakota DOT","hls":null,"snapshot":"https://www.dot.nd.gov/travel-info/cameras/US2RP142MinotWest.jpg","refreshMs":30000,"attribution":"Ora (Warner Varnado) · North Dakota DOT"}},{"type":"Feature","geometry":{"type":"Point","coordinates":[-101.20012,48.22933]},"properties":{"id":"ora-nd-90","name":"Minot","state":"ND","provider":"North Dakota DOT","hls":null,"snapshot":"https://www.dot.nd.gov/travel-info/cameras/US2RP151MinotWest.jpg","refreshMs":30000,"attribution":"Ora (Warner Varnado) · North Dakota DOT"}},{"type":"Feature","geometry":{"type":"Point","coordinates":[-98.88425,48.12061]},"properties":{"id":"ora-nd-91","name":"Devils Lake","state":"ND","provider":"North Dakota DOT","hls":null,"snapshot":"https://www.dot.nd.gov/travel-info/cameras/US2RP267DevilsLakeWest.jpg","refreshMs":30000,"attribution":"Ora (Warner Varnado) · North Dakota DOT"}},{"type":"Feature","geometry":{"type":"Point","coordinates":[-98.83138,48.09458]},"properties":{"id":"ora-nd-92","name":"Devils Lake","state":"ND","provider":"North Dakota DOT","hls":null,"snapshot":"https://www.dot.nd.gov/travel-info/cameras/US2RP271DevilsLakeWest.jpg","refreshMs":30000,"attribution":"Ora (Warner Varnado) · North Dakota DOT"}},{"type":"Feature","geometry":{"type":"Point","coordinates":[-101.23371,48.20166]},"properties":{"id":"ora-nd-93","name":"Minot","state":"ND","provider":"North Dakota DOT","hls":null,"snapshot":"https://www.dot.nd.gov/travel-info/cameras/US52RP98MinotNorthWest.jpg","refreshMs":30000,"attribution":"Ora (Warner Varnado) · North Dakota DOT"}},{"type":"Feature","geometry":{"type":"Point","coordinates":[-101.29507,48.17485]},"properties":{"id":"ora-nd-94","name":"Minot","state":"ND","provider":"North Dakota DOT","hls":null,"snapshot":"https://www.dot.nd.gov/travel-info/cameras/US83RP196MinotCenter.jpg","refreshMs":30000,"attribution":"Ora (Warner Varnado) · North Dakota DOT"}},{"type":"Feature","geometry":{"type":"Point","coordinates":[-101.29985,48.39323]},"properties":{"id":"ora-nd-95","name":"Minot","state":"ND","provider":"North Dakota DOT","hls":null,"snapshot":"https://www.dot.nd.gov/travel-info/cameras/US83RP211MinotAFBNorth.jpg","refreshMs":30000,"attribution":"Ora (Warner Varnado) · North Dakota DOT"}},{"type":"Feature","geometry":{"type":"Point","coordinates":[-97.24023,48.9953]},"properties":{"id":"ora-nd-96","name":"Pembina Port of Entry NB","state":"ND","provider":"North Dakota DOT","hls":null,"snapshot":"https://www.dot.nd.gov/travel-info/cameras/I29RP217PembinaCenter.jpg","refreshMs":30000,"attribution":"Ora (Warner Varnado) · North Dakota DOT"}},{"type":"Feature","geometry":{"type":"Point","coordinates":[-100.92124,46.85011]},"properties":{"id":"ora-nd-97","name":"Mandan@Scenic View","state":"ND","provider":"North Dakota DOT","hls":null,"snapshot":"https://www.dot.nd.gov/travel-info/cameras/I94RP151ScenicWest.jpg","refreshMs":30000,"attribution":"Ora (Warner Varnado) · North Dakota DOT"}},{"type":"Feature","geometry":{"type":"Point","coordinates":[-100.89221,46.84125]},"properties":{"id":"ora-nd-98","name":"Mandan@Collins Ave","state":"ND","provider":"North Dakota DOT","hls":null,"snapshot":"https://www.dot.nd.gov/travel-info/cameras/I94RP153CollinsAveWest.jpg","refreshMs":30000,"attribution":"Ora (Warner Varnado) · North Dakota DOT"}},{"type":"Feature","geometry":{"type":"Point","coordinates":[-100.87352,46.8376]},"properties":{"id":"ora-nd-99","name":"Mandan@Mandan Ave","state":"ND","provider":"North Dakota DOT","hls":null,"snapshot":"https://www.dot.nd.gov/travel-info/cameras/I94RP154MandanAveWest.jpg","refreshMs":30000,"attribution":"Ora (Warner Varnado) · North Dakota DOT"}},{"type":"Feature","geometry":{"type":"Point","coordinates":[-100.85823,46.82819]},"properties":{"id":"ora-nd-100","name":"Mandan@Main St.","state":"ND","provider":"North Dakota DOT","hls":null,"snapshot":"https://www.dot.nd.gov/travel-info/cameras/I94RP155MainWest.jpg","refreshMs":30000,"attribution":"Ora (Warner Varnado) · North Dakota DOT"}},{"type":"Feature","geometry":{"type":"Point","coordinates":[-100.84584,46.82178]},"properties":{"id":"ora-nd-101","name":"Mandan@Midway EB","state":"ND","provider":"North Dakota DOT","hls":null,"snapshot":"https://www.dot.nd.gov/travel-info/cameras/I94RP155MidwayEBWest.jpg","refreshMs":30000,"attribution":"Ora (Warner Varnado) · North Dakota DOT"}},{"type":"Feature","geometry":{"type":"Point","coordinates":[-100.83939,46.81979]},"properties":{"id":"ora-nd-102","name":"Mandan","state":"ND","provider":"North Dakota DOT","hls":null,"snapshot":"https://www.dot.nd.gov/travel-info/cameras/I94RP156MandanWest.jpg","refreshMs":30000,"attribution":"Ora (Warner Varnado) · North Dakota DOT"}},{"type":"Feature","geometry":{"type":"Point","coordinates":[-100.8167,46.82788]},"properties":{"id":"ora-nd-103","name":"Bismarck@Tyler Parkway","state":"ND","provider":"North Dakota DOT","hls":null,"snapshot":"https://www.dot.nd.gov/travel-info/cameras/I94RP157TylerWest.jpg","refreshMs":30000,"attribution":"Ora (Warner Varnado) · North Dakota DOT"}},{"type":"Feature","geometry":{"type":"Point","coordinates":[-100.80428,46.83157]},"properties":{"id":"ora-nd-104","name":"Bismarck","state":"ND","provider":"North Dakota DOT","hls":null,"snapshot":"https://www.dot.nd.gov/travel-info/cameras/I94RP157BismarckWest.jpg","refreshMs":30000,"attribution":"Ora (Warner Varnado) · North Dakota DOT"}},{"type":"Feature","geometry":{"type":"Point","coordinates":[-100.77339,46.83096]},"properties":{"id":"ora-nd-105","name":"Bismarck@State St.","state":"ND","provider":"North Dakota DOT","hls":null,"snapshot":"https://www.dot.nd.gov/travel-info/cameras/I94RP159StateWest.jpg","refreshMs":30000,"attribution":"Ora (Warner Varnado) · North Dakota DOT"}},{"type":"Feature","geometry":{"type":"Point","coordinates":[-100.74998,46.83108]},"properties":{"id":"ora-nd-106","name":"Bismarck@Pebble Creek","state":"ND","provider":"North Dakota DOT","hls":null,"snapshot":"https://www.dot.nd.gov/travel-info/cameras/I94RP160BismarckWest.jpg","refreshMs":30000,"attribution":"Ora (Warner Varnado) · North Dakota DOT"}},{"type":"Feature","geometry":{"type":"Point","coordinates":[-100.73176,46.83175]},"properties":{"id":"ora-nd-107","name":"Bismarck@Centennial Road","state":"ND","provider":"North Dakota DOT","hls":null,"snapshot":"https://www.dot.nd.gov/travel-info/cameras/I94RP161.1CentenialWest.jpg","refreshMs":30000,"attribution":"Ora (Warner Varnado) · North Dakota DOT"}},{"type":"Feature","geometry":{"type":"Point","coordinates":[-100.70797,46.83638]},"properties":{"id":"ora-nd-108","name":"Bismarck","state":"ND","provider":"North Dakota DOT","hls":null,"snapshot":"https://www.dot.nd.gov/travel-info/cameras/I94RP162BismarckWest.jpg","refreshMs":30000,"attribution":"Ora (Warner Varnado) · North Dakota DOT"}},{"type":"Feature","geometry":{"type":"Point","coordinates":[-102.69562,46.88406]},"properties":{"id":"ora-nd-109","name":"Lehigh Separation","state":"ND","provider":"North Dakota DOT","hls":null,"snapshot":"https://www.dot.nd.gov/travel-info/cameras/I94RP66DickinsonWest.jpg","refreshMs":30000,"attribution":"Ora (Warner Varnado) · North Dakota DOT"}},{"type":"Feature","geometry":{"type":"Point","coordinates":[-102.93939,46.89042]},"properties":{"id":"ora-nd-110","name":"Dickinson Bypass West","state":"ND","provider":"North Dakota DOT","hls":null,"snapshot":"https://www.dot.nd.gov/travel-info/cameras/I94RP54DickinsonWest.jpg","refreshMs":30000,"attribution":"Ora (Warner Varnado) · North Dakota DOT"}},{"type":"Feature","geometry":{"type":"Point","coordinates":[-102.78949,46.98143]},"properties":{"id":"ora-nd-111","name":"New Hradec","state":"ND","provider":"North Dakota DOT","hls":null,"snapshot":"https://www.dot.nd.gov/travel-info/cameras/ND22RP77DickinsonCenter.jpg","refreshMs":30000,"attribution":"Ora (Warner Varnado) · North Dakota DOT"}},{"type":"Feature","geometry":{"type":"Point","coordinates":[-97.55742,47.02185]},"properties":{"id":"ora-nd-112","name":"Buffalo","state":"ND","provider":"North Dakota DOT","hls":null,"snapshot":"https://www.dot.nd.gov/travel-info/cameras/ND38RP10BuffaloNorth.jpg","refreshMs":30000,"attribution":"Ora (Warner Varnado) · North Dakota DOT"}},{"type":"Feature","geometry":{"type":"Point","coordinates":[-97.09403,47.98465]},"properties":{"id":"ora-nd-113","name":"Grand Forks","state":"ND","provider":"North Dakota DOT","hls":null,"snapshot":"https://www.dot.nd.gov/travel-info/cameras/I29RP145GrandForksWest.jpg","refreshMs":30000,"attribution":"Ora (Warner Varnado) · North Dakota DOT"}},{"type":"Feature","geometry":{"type":"Point","coordinates":[-96.87683,46.26171]},"properties":{"id":"ora-nd-114","name":"Mooreton","state":"ND","provider":"North Dakota DOT","hls":null,"snapshot":"https://www.dot.nd.gov/travel-info/cameras/ND13RP378MooretonWest.jpg","refreshMs":30000,"attribution":"Ora (Warner Varnado) · North Dakota DOT"}},{"type":"Feature","geometry":{"type":"Point","coordinates":[-97.24451,48.9917]},"properties":{"id":"ora-nd-115","name":"Pembina Port of Entry SB","state":"ND","provider":"North Dakota DOT","hls":null,"snapshot":"https://www.dot.nd.gov/travel-info/cameras/I29RP216PembinaNorth.jpg","refreshMs":30000,"attribution":"Ora (Warner Varnado) · North Dakota DOT"}},{"type":"Feature","geometry":{"type":"Point","coordinates":[-96.8357,45.94961]},"properties":{"id":"ora-nd-116","name":"SD State Line NB","state":"ND","provider":"North Dakota DOT","hls":null,"snapshot":"https://www.dot.nd.gov/travel-info/cameras/I29RP1StateLineNBCenter.jpg","refreshMs":30000,"attribution":"Ora (Warner Varnado) · North Dakota DOT"}},{"type":"Feature","geometry":{"type":"Point","coordinates":[-96.83688,45.94943]},"properties":{"id":"ora-nd-117","name":"SD State Line SB","state":"ND","provider":"North Dakota DOT","hls":null,"snapshot":"https://www.dot.nd.gov/travel-info/cameras/I29RP1StateLineSBNorth.jpg","refreshMs":30000,"attribution":"Ora (Warner Varnado) · North Dakota DOT"}},{"type":"Feature","geometry":{"type":"Point","coordinates":[-104.03545,46.93175]},"properties":{"id":"ora-nd-118","name":"Beach","state":"ND","provider":"North Dakota DOT","hls":null,"snapshot":"https://www.dot.nd.gov/travel-info/cameras/I94RP1BeachEBWest.jpg","refreshMs":30000,"attribution":"Ora (Warner Varnado) · North Dakota DOT"}},{"type":"Feature","geometry":{"type":"Point","coordinates":[-103.96674,46.9332]},"properties":{"id":"ora-nd-119","name":"Beach","state":"ND","provider":"North Dakota DOT","hls":null,"snapshot":"https://www.dot.nd.gov/travel-info/cameras/I94RP3BeachWBWest.jpg","refreshMs":30000,"attribution":"Ora (Warner Varnado) · North Dakota DOT"}},{"type":"Feature","geometry":{"type":"Point","coordinates":[-100.92526,46.47426]},"properties":{"id":"ora-nd-120","name":"Flasher","state":"ND","provider":"North Dakota DOT","hls":null,"snapshot":"https://www.dot.nd.gov/travel-info/cameras/ND21RP122FlasherWest.jpg","refreshMs":30000,"attribution":"Ora (Warner Varnado) · North Dakota DOT"}},{"type":"Feature","geometry":{"type":"Point","coordinates":[-98.95931,46.6303]},"properties":{"id":"ora-nd-121","name":"Gackle","state":"ND","provider":"North Dakota DOT","hls":null,"snapshot":"https://www.dot.nd.gov/travel-info/cameras/ND46RP18GackleWest.jpg","refreshMs":30000,"attribution":"Ora (Warner Varnado) · North Dakota DOT"}},{"type":"Feature","geometry":{"type":"Point","coordinates":[-98.54966,47.45716]},"properties":{"id":"ora-nd-122","name":"Glenfield","state":"ND","provider":"North Dakota DOT","hls":null,"snapshot":"https://www.dot.nd.gov/travel-info/cameras/ND200RP320GlenfieldWest.jpg","refreshMs":30000,"attribution":"Ora (Warner Varnado) · North Dakota DOT"}},{"type":"Feature","geometry":{"type":"Point","coordinates":[-103.74521,48.9094]},"properties":{"id":"ora-nd-123","name":"Fortuna- West (US 85 MP 246.5)","state":"ND","provider":"North Dakota DOT","hls":null,"snapshot":"https://www.dot.nd.gov/travel-info/cameras/US85RP246Fortunawest.jpg","refreshMs":30000,"attribution":"Ora (Warner Varnado) · North Dakota DOT"}},{"type":"Feature","geometry":{"type":"Point","coordinates":[-100.03764,48.50158]},"properties":{"id":"ora-nd-124","name":"Wolford","state":"ND","provider":"North Dakota DOT","hls":null,"snapshot":"https://www.dot.nd.gov/travel-info/cameras/ND3RP212Wolfordwest.jpg","refreshMs":30000,"attribution":"Ora (Warner Varnado) · North Dakota DOT"}},{"type":"Feature","geometry":{"type":"Point","coordinates":[-97.86187,48.47758]},"properties":{"id":"ora-nd-125","name":"Edinburg","state":"ND","provider":"North Dakota DOT","hls":null,"snapshot":"https://www.dot.nd.gov/travel-info/cameras/ND32RP197Edinburgnorth.jpg","refreshMs":30000,"attribution":"Ora (Warner Varnado) · North Dakota DOT"}},{"type":"Feature","geometry":{"type":"Point","coordinates":[-103.55956,46.92887]},"properties":{"id":"ora-nd-126","name":"Medora- West (I 94 MP 23.84)","state":"ND","provider":"North Dakota DOT","hls":null,"snapshot":"https://www.dot.nd.gov/travel-info/cameras/I94RP23Medorawest.jpg","refreshMs":30000,"attribution":"Ora (Warner Varnado) · North Dakota DOT"}},{"type":"Feature","geometry":{"type":"Point","coordinates":[-100.47635,47.93329]},"properties":{"id":"ora-nd-127","name":"Drake","state":"ND","provider":"North Dakota DOT","hls":null,"snapshot":"https://www.dot.nd.gov/travel-info/cameras/US52RP139DrakeWest.jpg","refreshMs":30000,"attribution":"Ora (Warner Varnado) · North Dakota DOT"}},{"type":"Feature","geometry":{"type":"Point","coordinates":[-98.93576,48.79037]},"properties":{"id":"ora-nd-128","name":"Clyde","state":"ND","provider":"North Dakota DOT","hls":null,"snapshot":"https://www.dot.nd.gov/travel-info/cameras/ND5RP251.18ClydeWest.jpg","refreshMs":30000,"attribution":"Ora (Warner Varnado) · North Dakota DOT"}},{"type":"Feature","geometry":{"type":"Point","coordinates":[-98.14572,48.7613]},"properties":{"id":"ora-nd-129","name":"Langdon","state":"ND","provider":"North Dakota DOT","hls":null,"snapshot":"https://www.dot.nd.gov/travel-info/cameras/ND5RP288.99LangdonWest.jpg","refreshMs":30000,"attribution":"Ora (Warner Varnado) · North Dakota DOT"}},{"type":"Feature","geometry":{"type":"Point","coordinates":[-98.31116,48.03512]},"properties":{"id":"ora-nd-130","name":"Michigan","state":"ND","provider":"North Dakota DOT","hls":null,"snapshot":"https://www.dot.nd.gov/travel-info/cameras/US2RP296.64MichiganWest.jpg","refreshMs":30000,"attribution":"Ora (Warner Varnado) · North Dakota DOT"}},{"type":"Feature","geometry":{"type":"Point","coordinates":[-98.65231,46.89254]},"properties":{"id":"ora-nd-131","name":"Jamestown ESS- West (I94 MP 261.26)","state":"ND","provider":"North Dakota DOT","hls":null,"snapshot":"https://www.dot.nd.gov/travel-info/cameras/I94RP261JamestownWest.jpg","refreshMs":30000,"attribution":"Ora (Warner Varnado) · North Dakota DOT"}},{"type":"Feature","geometry":{"type":"Point","coordinates":[-100.64117,46.27066]},"properties":{"id":"ora-nd-132","name":"Fort Yates","state":"ND","provider":"North Dakota DOT","hls":null,"snapshot":"https://www.dot.nd.gov/travel-info/cameras/ND1806@RP22.81FortYatesNorth.jpg","refreshMs":30000,"attribution":"Ora (Warner Varnado) · North Dakota DOT"}},{"type":"Feature","geometry":{"type":"Point","coordinates":[-100.29424,46.50014]},"properties":{"id":"ora-nd-133","name":"Hazelton","state":"ND","provider":"North Dakota DOT","hls":null,"snapshot":"https://www.dot.nd.gov/travel-info/cameras/US83RP47HazeltonNorth.jpg","refreshMs":30000,"attribution":"Ora (Warner Varnado) · North Dakota DOT"}},{"type":"Feature","geometry":{"type":"Point","coordinates":[-103.46954,47.80463]},"properties":{"id":"ora-nd-134","name":"Arnegard","state":"ND","provider":"North Dakota DOT","hls":null,"snapshot":"https://www.dot.nd.gov/travel-info/cameras/US85RP151ArnegardWest.jpg","refreshMs":30000,"attribution":"Ora (Warner Varnado) · North Dakota DOT"}},{"type":"Feature","geometry":{"type":"Point","coordinates":[-102.86271,46.41233]},"properties":{"id":"ora-nd-135","name":"DeSart","state":"ND","provider":"North Dakota DOT","hls":null,"snapshot":"https://www.dot.nd.gov/travel-info/cameras/ND22RP37DesartNorth.jpg","refreshMs":30000,"attribution":"Ora (Warner Varnado) · North Dakota DOT"}},{"type":"Feature","geometry":{"type":"Point","coordinates":[-102.33482,47.13964]},"properties":{"id":"ora-nd-136","name":"Marshall","state":"ND","provider":"North Dakota DOT","hls":null,"snapshot":"https://www.dot.nd.gov/travel-info/cameras/ND8RP99MarshallNorth.jpg","refreshMs":30000,"attribution":"Ora (Warner Varnado) · North Dakota DOT"}},{"type":"Feature","geometry":{"type":"Point","coordinates":[-102.87143,46.10381]},"properties":{"id":"ora-nd-137","name":"Reeder","state":"ND","provider":"North Dakota DOT","hls":null,"snapshot":"https://www.dot.nd.gov/travel-info/cameras/US12RP60ReederWest.jpg","refreshMs":30000,"attribution":"Ora (Warner Varnado) · North Dakota DOT"}},{"type":"Feature","geometry":{"type":"Point","coordinates":[-98.71308,46.69567]},"properties":{"id":"ora-nd-138","name":"Millarton","state":"ND","provider":"North Dakota DOT","hls":null,"snapshot":"https://www.dot.nd.gov/travel-info/cameras/US281RP54MillartonNorth.jpg","refreshMs":30000,"attribution":"Ora (Warner Varnado) · North Dakota DOT"}},{"type":"Feature","geometry":{"type":"Point","coordinates":[-99.72678,47.68612]},"properties":{"id":"ora-nd-139","name":"Fessenden","state":"ND","provider":"North Dakota DOT","hls":null,"snapshot":"https://www.dot.nd.gov/travel-info/cameras/US52RP180FessendenWest.jpg","refreshMs":30000,"attribution":"Ora (Warner Varnado) · North Dakota DOT"}},{"type":"Feature","geometry":{"type":"Point","coordinates":[-103.2021,46.48245]},"properties":{"id":"ora-nd-140","name":"Amidon","state":"ND","provider":"North Dakota DOT","hls":null,"snapshot":"https://www.dot.nd.gov/travel-info/cameras/US85RP47AmidonWest.jpg","refreshMs":30000,"attribution":"Ora (Warner Varnado) · North Dakota DOT"}},{"type":"Feature","geometry":{"type":"Point","coordinates":[-101.29365,47.87228]},"properties":{"id":"ora-nd-141","name":"Max","state":"ND","provider":"North Dakota DOT","hls":null,"snapshot":"https://www.dot.nd.gov/travel-info/cameras/US83RP175MaxNorth.jpg","refreshMs":30000,"attribution":"Ora (Warner Varnado) · North Dakota DOT"}},{"type":"Feature","geometry":{"type":"Point","coordinates":[-103.64575,47.80642]},"properties":{"id":"ora-nd-142","name":"Alexander","state":"ND","provider":"North Dakota DOT","hls":null,"snapshot":"https://www.dot.nd.gov/travel-info/cameras/US85RP159AlexanderNorth.jpg","refreshMs":30000,"attribution":"Ora (Warner Varnado) · North Dakota DOT"}},{"type":"Feature","geometry":{"type":"Point","coordinates":[-100.72719,46.83202]},"properties":{"id":"ora-nd-143","name":"Bismarck@Centennial Road","state":"ND","provider":"North Dakota DOT","hls":null,"snapshot":"https://www.dot.nd.gov/travel-info/cameras/I94RP161CentenialNEWest.jpg","refreshMs":30000,"attribution":"Ora (Warner Varnado) · North Dakota DOT"}},{"type":"Feature","geometry":{"type":"Point","coordinates":[-100.82433,46.79801]},"properties":{"id":"ora-nd-144","name":"Mandan Mckenzie Dr","state":"ND","provider":"North Dakota DOT","hls":null,"snapshot":"https://www.dot.nd.gov/travel-info/cameras/ND810RP0.7WestExpwyBrdgWest.jpg","refreshMs":30000,"attribution":"Ora (Warner Varnado) · North Dakota DOT"}},{"type":"Feature","geometry":{"type":"Point","coordinates":[-100.80986,46.795]},"properties":{"id":"ora-nd-145","name":"Bismarck Expressway","state":"ND","provider":"North Dakota DOT","hls":null,"snapshot":"https://www.dot.nd.gov/travel-info/cameras/ND810@RP1.43EastExpwyBrdgWest.jpg","refreshMs":30000,"attribution":"Ora (Warner Varnado) · North Dakota DOT"}},{"type":"Feature","geometry":{"type":"Point","coordinates":[-96.78515,46.84852]},"properties":{"id":"ora-nd-146","name":"Fargo","state":"ND","provider":"North Dakota DOT","hls":null,"snapshot":"https://www.dot.nd.gov/travel-info/cameras/I94RP352.233FargoWRedRiverWest.jpg","refreshMs":30000,"attribution":"Ora (Warner Varnado) · North Dakota DOT"}},{"type":"Feature","geometry":{"type":"Point","coordinates":[-96.79838,46.84738]},"properties":{"id":"ora-nd-147","name":"Fargo University Dr","state":"ND","provider":"North Dakota DOT","hls":null,"snapshot":"https://www.dot.nd.gov/travel-info/cameras/I94RP351.611FargoUniversityDrEBWest.jpg","refreshMs":30000,"attribution":"Ora (Warner Varnado) · North Dakota DOT"}},{"type":"Feature","geometry":{"type":"Point","coordinates":[-96.90697,46.8492]},"properties":{"id":"ora-nd-148","name":"Fargo Sheyenne St","state":"ND","provider":"North Dakota DOT","hls":null,"snapshot":"https://www.dot.nd.gov/travel-info/cameras/I94RP346.432FargoSheyenneStWest.jpg","refreshMs":30000,"attribution":"Ora (Warner Varnado) · North Dakota DOT"}},{"type":"Feature","geometry":{"type":"Point","coordinates":[-96.88319,46.84604]},"properties":{"id":"ora-nd-149","name":"Fargo 9th St","state":"ND","provider":"North Dakota DOT","hls":null,"snapshot":"https://www.dot.nd.gov/travel-info/cameras/I94RP347.565Fargo9thStEEBWest.jpg","refreshMs":30000,"attribution":"Ora (Warner Varnado) · North Dakota DOT"}},{"type":"Feature","geometry":{"type":"Point","coordinates":[-96.88312,46.84921]},"properties":{"id":"ora-nd-150","name":"Fargo 9th St","state":"ND","provider":"North Dakota DOT","hls":null,"snapshot":"https://www.dot.nd.gov/travel-info/cameras/I94@347.601Fargo9thStEWBWest.jpg","refreshMs":30000,"attribution":"Ora (Warner Varnado) · North Dakota DOT"}},{"type":"Feature","geometry":{"type":"Point","coordinates":[-96.79855,46.84992]},"properties":{"id":"ora-nd-151","name":"Fargo University Dr","state":"ND","provider":"North Dakota DOT","hls":null,"snapshot":"https://www.dot.nd.gov/travel-info/cameras/I94RP351.615FargoUniverstiyDrWBWest.jpg","refreshMs":30000,"attribution":"Ora (Warner Varnado) · North Dakota DOT"}},{"type":"Feature","geometry":{"type":"Point","coordinates":[-96.94543,46.87617]},"properties":{"id":"ora-nd-152","name":"West Fargo Main Ave","state":"ND","provider":"North Dakota DOT","hls":null,"snapshot":"https://www.dot.nd.gov/travel-info/cameras/I94RP343.828FargoMainAveWest.jpg","refreshMs":30000,"attribution":"Ora (Warner Varnado) · North Dakota DOT"}},{"type":"Feature","geometry":{"type":"Point","coordinates":[-96.92732,46.86175]},"properties":{"id":"ora-nd-153","name":"West Fargo","state":"ND","provider":"North Dakota DOT","hls":null,"snapshot":"https://www.dot.nd.gov/travel-info/cameras/I94RP345.138FargoMainAveSheyenneStWest.jpg","refreshMs":30000,"attribution":"Ora (Warner Varnado) · North Dakota DOT"}},{"type":"Feature","geometry":{"type":"Point","coordinates":[-96.85014,46.84777]},"properties":{"id":"ora-nd-154","name":"Fargo 42nd St","state":"ND","provider":"North Dakota DOT","hls":null,"snapshot":"https://www.dot.nd.gov/travel-info/cameras/I94RP349.145Fargo42ndStSWBWest.jpg","refreshMs":30000,"attribution":"Ora (Warner Varnado) · North Dakota DOT"}},{"type":"Feature","geometry":{"type":"Point","coordinates":[-96.8387,46.90486]},"properties":{"id":"ora-nd-155","name":"Fargo 19th Ave","state":"ND","provider":"North Dakota DOT","hls":null,"snapshot":"https://www.dot.nd.gov/travel-info/cameras/I29RP67.246Fargo19thAveNEastRampNorth.jpg","refreshMs":30000,"attribution":"Ora (Warner Varnado) · North Dakota DOT"}},{"type":"Feature","geometry":{"type":"Point","coordinates":[-96.84173,46.90518]},"properties":{"id":"ora-nd-156","name":"Fargo 19th Ave","state":"ND","provider":"North Dakota DOT","hls":null,"snapshot":"https://www.dot.nd.gov/travel-info/cameras/I29RP67.275Fargo19AveWestRampNorth.jpg","refreshMs":30000,"attribution":"Ora (Warner Varnado) · North Dakota DOT"}},{"type":"Feature","geometry":{"type":"Point","coordinates":[-96.84982,46.93419]},"properties":{"id":"ora-nd-157","name":"Fargo 40th Ave","state":"ND","provider":"North Dakota DOT","hls":null,"snapshot":"https://www.dot.nd.gov/travel-info/cameras/I29RP69.375Fargo40thAveNNorth.jpg","refreshMs":30000,"attribution":"Ora (Warner Varnado) · North Dakota DOT"}},{"type":"Feature","geometry":{"type":"Point","coordinates":[-96.84029,46.91925]},"properties":{"id":"ora-nd-158","name":"Fargo","state":"ND","provider":"North Dakota DOT","hls":null,"snapshot":"https://www.dot.nd.gov/travel-info/cameras/I29RP68.237Fargo19th40thAveNNorth.jpg","refreshMs":30000,"attribution":"Ora (Warner Varnado) · North Dakota DOT"}},{"type":"Feature","geometry":{"type":"Point","coordinates":[-100.73753,46.83111]},"properties":{"id":"ora-nd-159","name":"Bismarck","state":"ND","provider":"North Dakota DOT","hls":null,"snapshot":"https://www.dot.nd.gov/travel-info/cameras/I94RP161.095BismarckButlerMachineryWest.jpg","refreshMs":30000,"attribution":"Ora (Warner Varnado) · North Dakota DOT"}},{"type":"Feature","geometry":{"type":"Point","coordinates":[-96.83903,46.89969]},"properties":{"id":"ora-nd-160","name":"Fargo","state":"ND","provider":"North Dakota DOT","hls":null,"snapshot":"https://www.dot.nd.gov/travel-info/cameras/I29RP66.894Fargo19thAveNNorth.jpg","refreshMs":30000,"attribution":"Ora (Warner Varnado) · North Dakota DOT"}},{"type":"Feature","geometry":{"type":"Point","coordinates":[-96.84138,46.87638]},"properties":{"id":"ora-nd-161","name":"Fargo","state":"ND","provider":"North Dakota DOT","hls":null,"snapshot":"https://www.dot.nd.gov/travel-info/cameras/I29RP65.272FargoMainAveSBNorth.jpg","refreshMs":30000,"attribution":"Ora (Warner Varnado) · North Dakota DOT"}},{"type":"Feature","geometry":{"type":"Point","coordinates":[-96.85558,46.94259]},"properties":{"id":"ora-nd-162","name":"Fargo","state":"ND","provider":"North Dakota DOT","hls":null,"snapshot":"https://www.dot.nd.gov/travel-info/cameras/I29RP70.004FargoNorthof40thAveNNorth.jpg","refreshMs":30000,"attribution":"Ora (Warner Varnado) · North Dakota DOT"}},{"type":"Feature","geometry":{"type":"Point","coordinates":[-96.79818,46.84882]},"properties":{"id":"ora-nd-163","name":"Fargo University Dr","state":"ND","provider":"North Dakota DOT","hls":null,"snapshot":"https://www.dot.nd.gov/travel-info/cameras/I94RP351.617FargoUniversityDrWest.jpg","refreshMs":30000,"attribution":"Ora (Warner Varnado) · North Dakota DOT"}},{"type":"Feature","geometry":{"type":"Point","coordinates":[-96.8434,46.87635]},"properties":{"id":"ora-nd-164","name":"Fargo","state":"ND","provider":"North Dakota DOT","hls":null,"snapshot":"https://www.dot.nd.gov/travel-info/cameras/I29RP65.271FargoMainAveWestRampNorth.jpg","refreshMs":30000,"attribution":"Ora (Warner Varnado) · North Dakota DOT"}},{"type":"Feature","geometry":{"type":"Point","coordinates":[-96.86166,46.84801]},"properties":{"id":"ora-nd-165","name":"Fargo 45th St","state":"ND","provider":"North Dakota DOT","hls":null,"snapshot":"https://www.dot.nd.gov/travel-info/cameras/I94RP348.602Fargo45thStWest.jpg","refreshMs":30000,"attribution":"Ora (Warner Varnado) · North Dakota DOT"}},{"type":"Feature","geometry":{"type":"Point","coordinates":[-96.83759,46.89041]},"properties":{"id":"ora-nd-166","name":"Fargo","state":"ND","provider":"North Dakota DOT","hls":null,"snapshot":"https://www.dot.nd.gov/travel-info/cameras/I29RP66.243Fargo12thAveNNorth.jpg","refreshMs":30000,"attribution":"Ora (Warner Varnado) · North Dakota DOT"}},{"type":"Feature","geometry":{"type":"Point","coordinates":[-97.93533,46.92066]},"properties":{"id":"ora-nd-167","name":"Valley City","state":"ND","provider":"North Dakota DOT","hls":null,"snapshot":"https://www.dot.nd.gov/travel-info/cameras/I94RP295.7ValleyCityWBWest.jpg","refreshMs":30000,"attribution":"Ora (Warner Varnado) · North Dakota DOT"}},{"type":"Feature","geometry":{"type":"Point","coordinates":[-98.06001,46.91326]},"properties":{"id":"ora-nd-168","name":"Valley City","state":"ND","provider":"North Dakota DOT","hls":null,"snapshot":"https://www.dot.nd.gov/travel-info/cameras/I94RP289.68ValleyCityEBWest.jpg","refreshMs":30000,"attribution":"Ora (Warner Varnado) · North Dakota DOT"}},{"type":"Feature","geometry":{"type":"Point","coordinates":[-96.81939,46.84767]},"properties":{"id":"ora-nd-169","name":"Fargo 25th St","state":"ND","provider":"North Dakota DOT","hls":null,"snapshot":"https://www.dot.nd.gov/travel-info/cameras/I94RP350.611Fargo25thStWest.jpg","refreshMs":30000,"attribution":"Ora (Warner Varnado) · North Dakota DOT"}},{"type":"Feature","geometry":{"type":"Point","coordinates":[-96.84002,46.82044]},"properties":{"id":"ora-nd-170","name":"Fargo","state":"ND","provider":"North Dakota DOT","hls":null,"snapshot":"https://www.dot.nd.gov/travel-info/cameras/I29RP61.408Fargo40thAveNorth.jpg","refreshMs":30000,"attribution":"Ora (Warner Varnado) · North Dakota DOT"}},{"type":"Feature","geometry":{"type":"Point","coordinates":[-96.84232,46.86629]},"properties":{"id":"ora-nd-171","name":"Fargo","state":"ND","provider":"North Dakota DOT","hls":null,"snapshot":"https://www.dot.nd.gov/travel-info/cameras/I29RP64.725FargoNorthof9thAveNorth.jpg","refreshMs":30000,"attribution":"Ora (Warner Varnado) · North Dakota DOT"}},{"type":"Feature","geometry":{"type":"Point","coordinates":[-96.83941,46.83286]},"properties":{"id":"ora-nd-172","name":"Fargo 32nd Ave S","state":"ND","provider":"North Dakota DOT","hls":null,"snapshot":"https://www.dot.nd.gov/travel-info/cameras/I29RP62.627Fargo32ndAveSEastRampNorth.jpg","refreshMs":30000,"attribution":"Ora (Warner Varnado) · North Dakota DOT"}},{"type":"Feature","geometry":{"type":"Point","coordinates":[-96.8413,46.80413]},"properties":{"id":"ora-nd-173","name":"Fargo","state":"ND","provider":"North Dakota DOT","hls":null,"snapshot":"https://www.dot.nd.gov/travel-info/cameras/I29RP60.293Fargo52ndAveSSBNorth.jpg","refreshMs":30000,"attribution":"Ora (Warner Varnado) · North Dakota DOT"}},{"type":"Feature","geometry":{"type":"Point","coordinates":[-96.83964,46.88326]},"properties":{"id":"ora-nd-174","name":"Fargo","state":"ND","provider":"North Dakota DOT","hls":null,"snapshot":"https://www.dot.nd.gov/travel-info/cameras/I29RP65.741Fargo7thAveNNorth.jpg","refreshMs":30000,"attribution":"Ora (Warner Varnado) · North Dakota DOT"}},{"type":"Feature","geometry":{"type":"Point","coordinates":[-96.83326,46.27472]},"properties":{"id":"ora-nd-175","name":"Mooreton","state":"ND","provider":"North Dakota DOT","hls":null,"snapshot":"https://www.dot.nd.gov/travel-info/cameras/I29RP23.48MooretonOHNorth.jpg","refreshMs":30000,"attribution":"Ora (Warner Varnado) · North Dakota DOT"}},{"type":"Feature","geometry":{"type":"Point","coordinates":[-96.84497,46.86376]},"properties":{"id":"ora-nd-176","name":"Fargo","state":"ND","provider":"North Dakota DOT","hls":null,"snapshot":"https://www.dot.nd.gov/travel-info/cameras/I29RP64.432Fargo13thAve38thStWestRampNorth.jpg","refreshMs":30000,"attribution":"Ora (Warner Varnado) · North Dakota DOT"}},{"type":"Feature","geometry":{"type":"Point","coordinates":[-96.83913,46.86191]},"properties":{"id":"ora-nd-177","name":"Fargo","state":"ND","provider":"North Dakota DOT","hls":null,"snapshot":"https://www.dot.nd.gov/travel-info/cameras/I29RP64.261Fargo13thAve36thStEastRampWest.jpg","refreshMs":30000,"attribution":"Ora (Warner Varnado) · North Dakota DOT"}},{"type":"Feature","geometry":{"type":"Point","coordinates":[-96.84155,46.85968]},"properties":{"id":"ora-nd-178","name":"Fargo","state":"ND","provider":"North Dakota DOT","hls":null,"snapshot":"https://www.dot.nd.gov/travel-info/cameras/I29RP64.135Fargo13thAveSNorth.jpg","refreshMs":30000,"attribution":"Ora (Warner Varnado) · North Dakota DOT"}},{"type":"Feature","geometry":{"type":"Point","coordinates":[-96.83706,46.90495]},"properties":{"id":"ora-nd-179","name":"Fargo 19th Ave","state":"ND","provider":"North Dakota DOT","hls":null,"snapshot":"https://www.dot.nd.gov/travel-info/cameras/I29RP67.241Fargo19thAveNEastRampNorth.jpg","refreshMs":30000,"attribution":"Ora (Warner Varnado) · North Dakota DOT"}},{"type":"Feature","geometry":{"type":"Point","coordinates":[-96.81944,46.8469]},"properties":{"id":"ora-nd-180","name":"Fargo 25th St","state":"ND","provider":"North Dakota DOT","hls":null,"snapshot":"https://www.dot.nd.gov/travel-info/cameras/I94RP350.603Fargo25thStWest.jpg","refreshMs":30000,"attribution":"Ora (Warner Varnado) · North Dakota DOT"}},{"type":"Feature","geometry":{"type":"Point","coordinates":[-102.94227,47.80401]},"properties":{"id":"ora-nd-181","name":"Johnson's Corner","state":"ND","provider":"North Dakota DOT","hls":null,"snapshot":"https://www.dot.nd.gov/travel-info/cameras/ND23RP16.48JohnsonsCornerWest.jpg","refreshMs":30000,"attribution":"Ora (Warner Varnado) · North Dakota DOT"}},{"type":"Feature","geometry":{"type":"Point","coordinates":[-102.94062,47.97788]},"properties":{"id":"ora-nd-182","name":"Keene Roundabout","state":"ND","provider":"North Dakota DOT","hls":null,"snapshot":"https://www.dot.nd.gov/travel-info/cameras/ND23RP28.39KeeneRoundaboutWest.jpg","refreshMs":30000,"attribution":"Ora (Warner Varnado) · North Dakota DOT"}},{"type":"Feature","geometry":{"type":"Point","coordinates":[-104.01189,47.68926]},"properties":{"id":"ora-nd-183","name":"Cheney Creek","state":"ND","provider":"North Dakota DOT","hls":null,"snapshot":"https://www.dot.nd.gov/travel-info/cameras/ND68RP1.73CheneyCreekWest.jpg","refreshMs":30000,"attribution":"Ora (Warner Varnado) · North Dakota DOT"}},{"type":"Feature","geometry":{"type":"Point","coordinates":[-104.03369,47.86246]},"properties":{"id":"ora-nd-184","name":"Fairview Roundabout","state":"ND","provider":"North Dakota DOT","hls":null,"snapshot":"https://www.dot.nd.gov/travel-info/cameras/ND200RP.38FairfieldRoundaboutWest.jpg","refreshMs":30000,"attribution":"Ora (Warner Varnado) · North Dakota DOT"}},{"type":"Feature","geometry":{"type":"Point","coordinates":[-103.10315,48.10852]},"properties":{"id":"ora-nd-185","name":"Tobacco Gardens","state":"ND","provider":"North Dakota DOT","hls":null,"snapshot":"https://www.dot.nd.gov/travel-info/cameras/ND1806RP285.77TobaccoGardensNorth.jpg","refreshMs":30000,"attribution":"Ora (Warner Varnado) · North Dakota DOT"}}]}