{"type":"FeatureCollection","features":[{"type":"Feature","geometry":{"type":"Point","coordinates":[-70.946381,43.001822]},"properties":{"id":"ora-nh-0","name":"101 WW 85.6","state":"NH","provider":"NH DOT (NewEngland511)","hls":null,"snapshot":"https://www.newengland511.org/map/Cctv/875","refreshMs":30000,"attribution":"Ora (Warner Varnado) · NH DOT (NewEngland511)"}},{"type":"Feature","geometry":{"type":"Point","coordinates":[-71.466947,42.923527]},"properties":{"id":"ora-nh-1","name":"FEE S 17.8 CCTV AX SWZ C-01","state":"NH","provider":"NH DOT (NewEngland511)","hls":null,"snapshot":"https://www.newengland511.org/map/Cctv/1236","refreshMs":30000,"attribution":"Ora (Warner Varnado) · NH DOT (NewEngland511)"}},{"type":"Feature","geometry":{"type":"Point","coordinates":[-71.4514,42.7068]},"properties":{"id":"ora-nh-2","name":"FEE SS 0.5 ","state":"NH","provider":"NH DOT (NewEngland511)","hls":null,"snapshot":"https://www.newengland511.org/map/Cctv/1239","refreshMs":30000,"attribution":"Ora (Warner Varnado) · NH DOT (NewEngland511)"}},{"type":"Feature","geometry":{"type":"Point","coordinates":[-71.450027,42.706895]},"properties":{"id":"ora-nh-3","name":"FEE SN 0.5 ","state":"NH","provider":"NH DOT (NewEngland511)","hls":null,"snapshot":"https://www.newengland511.org/map/Cctv/1240","refreshMs":30000,"attribution":"Ora (Warner Varnado) · NH DOT (NewEngland511)"}},{"type":"Feature","geometry":{"type":"Point","coordinates":[-71.498445,42.811388]},"properties":{"id":"ora-nh-4","name":"FEE S 9.2 CCTV AX - SWZ - C02","state":"NH","provider":"NH DOT (NewEngland511)","hls":null,"snapshot":"https://www.newengland511.org/map/Cctv/1244","refreshMs":30000,"attribution":"Ora (Warner Varnado) · NH DOT (NewEngland511)"}},{"type":"Feature","geometry":{"type":"Point","coordinates":[-71.497994,42.801128]},"properties":{"id":"ora-nh-5","name":"FEE S 8.4 - SWZ - C01","state":"NH","provider":"NH DOT (NewEngland511)","hls":null,"snapshot":"https://www.newengland511.org/map/Cctv/1245","refreshMs":30000,"attribution":"Ora (Warner Varnado) · NH DOT (NewEngland511)"}},{"type":"Feature","geometry":{"type":"Point","coordinates":[-71.404023,42.954376]},"properties":{"id":"ora-nh-6","name":"93 MS 18.4","state":"NH","provider":"NH DOT (NewEngland511)","hls":null,"snapshot":"https://www.newengland511.org/map/Cctv/1246","refreshMs":30000,"attribution":"Ora (Warner Varnado) · NH DOT (NewEngland511)"}},{"type":"Feature","geometry":{"type":"Point","coordinates":[-70.77429,43.080972]},"properties":{"id":"ora-nh-7","name":"95 NS 15.2 ","state":"NH","provider":"NH DOT (NewEngland511)","hls":null,"snapshot":"https://www.newengland511.org/map/Cctv/1247","refreshMs":30000,"attribution":"Ora (Warner Varnado) · NH DOT (NewEngland511)"}},{"type":"Feature","geometry":{"type":"Point","coordinates":[-71.458475,42.734786]},"properties":{"id":"ora-nh-8","name":"FEE M 2.6 ","state":"NH","provider":"NH DOT (NewEngland511)","hls":null,"snapshot":"https://www.newengland511.org/map/Cctv/1248","refreshMs":30000,"attribution":"Ora (Warner Varnado) · NH DOT (NewEngland511)"}},{"type":"Feature","geometry":{"type":"Point","coordinates":[-70.907436,42.978111]},"properties":{"id":"ora-nh-9","name":"101 W 88.3 - RWIS","state":"NH","provider":"NH DOT (NewEngland511)","hls":null,"snapshot":"https://www.newengland511.org/map/Cctv/1252","refreshMs":30000,"attribution":"Ora (Warner Varnado) · NH DOT (NewEngland511)"}},{"type":"Feature","geometry":{"type":"Point","coordinates":[-70.907113,42.977987]},"properties":{"id":"ora-nh-10","name":"101 W 88.3 ","state":"NH","provider":"NH DOT (NewEngland511)","hls":null,"snapshot":"https://www.newengland511.org/map/Cctv/1253","refreshMs":30000,"attribution":"Ora (Warner Varnado) · NH DOT (NewEngland511)"}},{"type":"Feature","geometry":{"type":"Point","coordinates":[-70.92591,42.991119]},"properties":{"id":"ora-nh-11","name":"101 E 86.9 ","state":"NH","provider":"NH DOT (NewEngland511)","hls":null,"snapshot":"https://www.newengland511.org/map/Cctv/1254","refreshMs":30000,"attribution":"Ora (Warner Varnado) · NH DOT (NewEngland511)"}},{"type":"Feature","geometry":{"type":"Point","coordinates":[-70.946681,43.00088]},"properties":{"id":"ora-nh-12","name":"101 WE 85.6 ","state":"NH","provider":"NH DOT (NewEngland511)","hls":null,"snapshot":"https://www.newengland511.org/map/Cctv/1255","refreshMs":30000,"attribution":"Ora (Warner Varnado) · NH DOT (NewEngland511)"}},{"type":"Feature","geometry":{"type":"Point","coordinates":[-70.830008,42.926341]},"properties":{"id":"ora-nh-13","name":"101 E 93.9","state":"NH","provider":"NH DOT (NewEngland511)","hls":null,"snapshot":"https://www.newengland511.org/map/Cctv/1256","refreshMs":30000,"attribution":"Ora (Warner Varnado) · NH DOT (NewEngland511)"}},{"type":"Feature","geometry":{"type":"Point","coordinates":[-71.117956,43.026862]},"properties":{"id":"ora-nh-14","name":"101 E 76.5 ","state":"NH","provider":"NH DOT (NewEngland511)","hls":null,"snapshot":"https://www.newengland511.org/map/Cctv/1257","refreshMs":30000,"attribution":"Ora (Warner Varnado) · NH DOT (NewEngland511)"}},{"type":"Feature","geometry":{"type":"Point","coordinates":[-70.86361,42.962069]},"properties":{"id":"ora-nh-15","name":"101 W 90.8 ","state":"NH","provider":"NH DOT (NewEngland511)","hls":null,"snapshot":"https://www.newengland511.org/map/Cctv/1258","refreshMs":30000,"attribution":"Ora (Warner Varnado) · NH DOT (NewEngland511)"}},{"type":"Feature","geometry":{"type":"Point","coordinates":[-71.395647,43.007421]},"properties":{"id":"ora-nh-16","name":"101 W 61.2 ","state":"NH","provider":"NH DOT (NewEngland511)","hls":null,"snapshot":"https://www.newengland511.org/map/Cctv/1259","refreshMs":30000,"attribution":"Ora (Warner Varnado) · NH DOT (NewEngland511)"}},{"type":"Feature","geometry":{"type":"Point","coordinates":[-70.748253,43.10476]},"properties":{"id":"ora-nh-17","name":"95 SS 1.3 CCTV AX MTA","state":"NH","provider":"NH DOT (NewEngland511)","hls":null,"snapshot":"https://www.newengland511.org/map/Cctv/1260","refreshMs":30000,"attribution":"Ora (Warner Varnado) · NH DOT (NewEngland511)"}},{"type":"Feature","geometry":{"type":"Point","coordinates":[-70.756943,43.098341]},"properties":{"id":"ora-nh-18","name":"95 NS 0.6 CCTV AX MTA","state":"NH","provider":"NH DOT (NewEngland511)","hls":null,"snapshot":"https://www.newengland511.org/map/Cctv/1261","refreshMs":30000,"attribution":"Ora (Warner Varnado) · NH DOT (NewEngland511)"}},{"type":"Feature","geometry":{"type":"Point","coordinates":[-70.886042,43.184072]},"properties":{"id":"ora-nh-19","name":"ST S MM 9.7","state":"NH","provider":"NH DOT (NewEngland511)","hls":null,"snapshot":"https://www.newengland511.org/map/Cctv/1262","refreshMs":30000,"attribution":"Ora (Warner Varnado) · NH DOT (NewEngland511)"}},{"type":"Feature","geometry":{"type":"Point","coordinates":[-70.861558,43.172071]},"properties":{"id":"ora-nh-20","name":"ST N MM 8.2 ","state":"NH","provider":"NH DOT (NewEngland511)","hls":null,"snapshot":"https://www.newengland511.org/map/Cctv/1263","refreshMs":30000,"attribution":"Ora (Warner Varnado) · NH DOT (NewEngland511)"}},{"type":"Feature","geometry":{"type":"Point","coordinates":[-70.757446,43.100058]},"properties":{"id":"ora-nh-21","name":"DENNETT RD NN MM 0.39 MTA","state":"NH","provider":"NH DOT (NewEngland511)","hls":null,"snapshot":"https://www.newengland511.org/map/Cctv/1264","refreshMs":30000,"attribution":"Ora (Warner Varnado) · NH DOT (NewEngland511)"}},{"type":"Feature","geometry":{"type":"Point","coordinates":[-70.771844,43.086567]},"properties":{"id":"ora-nh-22","name":"95 NN MM 15.6 ","state":"NH","provider":"NH DOT (NewEngland511)","hls":null,"snapshot":"https://www.newengland511.org/map/Cctv/1265","refreshMs":30000,"attribution":"Ora (Warner Varnado) · NH DOT (NewEngland511)"}},{"type":"Feature","geometry":{"type":"Point","coordinates":[-70.773475,43.085611]},"properties":{"id":"ora-nh-23","name":"95 S MM 15.5 RWIS","state":"NH","provider":"NH DOT (NewEngland511)","hls":null,"snapshot":"https://www.newengland511.org/map/Cctv/1266","refreshMs":30000,"attribution":"Ora (Warner Varnado) · NH DOT (NewEngland511)"}},{"type":"Feature","geometry":{"type":"Point","coordinates":[-70.775363,43.081191]},"properties":{"id":"ora-nh-24","name":"95 SN MM 15.2","state":"NH","provider":"NH DOT (NewEngland511)","hls":null,"snapshot":"https://www.newengland511.org/map/Cctv/1267","refreshMs":30000,"attribution":"Ora (Warner Varnado) · NH DOT (NewEngland511)"}},{"type":"Feature","geometry":{"type":"Point","coordinates":[-70.799138,43.062256]},"properties":{"id":"ora-nh-25","name":"95 NS MM 13.4 ","state":"NH","provider":"NH DOT (NewEngland511)","hls":null,"snapshot":"https://www.newengland511.org/map/Cctv/1268","refreshMs":30000,"attribution":"Ora (Warner Varnado) · NH DOT (NewEngland511)"}},{"type":"Feature","geometry":{"type":"Point","coordinates":[-70.7341,43.116554]},"properties":{"id":"ora-nh-26","name":"95 SS 2.4 CCTV MTA","state":"NH","provider":"NH DOT (NewEngland511)","hls":null,"snapshot":"https://www.newengland511.org/map/Cctv/1269","refreshMs":30000,"attribution":"Ora (Warner Varnado) · NH DOT (NewEngland511)"}},{"type":"Feature","geometry":{"type":"Point","coordinates":[-70.756502,43.097927]},"properties":{"id":"ora-nh-27","name":"95 NN MM 0.6 CCTV MTA","state":"NH","provider":"NH DOT (NewEngland511)","hls":null,"snapshot":"https://www.newengland511.org/map/Cctv/1270","refreshMs":30000,"attribution":"Ora (Warner Varnado) · NH DOT (NewEngland511)"}},{"type":"Feature","geometry":{"type":"Point","coordinates":[-70.723092,43.123633]},"properties":{"id":"ora-nh-28","name":"95 N MM 3.1 CCTV MTA ","state":"NH","provider":"NH DOT (NewEngland511)","hls":null,"snapshot":"https://www.newengland511.org/map/Cctv/1271","refreshMs":30000,"attribution":"Ora (Warner Varnado) · NH DOT (NewEngland511)"}},{"type":"Feature","geometry":{"type":"Point","coordinates":[-71.463403,43.287921]},"properties":{"id":"ora-nh-29","name":"106 N MM 8.0 ","state":"NH","provider":"NH DOT (NewEngland511)","hls":null,"snapshot":"https://www.newengland511.org/map/Cctv/1273","refreshMs":30000,"attribution":"Ora (Warner Varnado) · NH DOT (NewEngland511)"}},{"type":"Feature","geometry":{"type":"Point","coordinates":[-72.369432,42.928211]},"properties":{"id":"ora-nh-30","name":"9 W MM 10.7 - RWIS Station","state":"NH","provider":"NH DOT (NewEngland511)","hls":null,"snapshot":"https://www.newengland511.org/map/Cctv/1274","refreshMs":30000,"attribution":"Ora (Warner Varnado) · NH DOT (NewEngland511)"}},{"type":"Feature","geometry":{"type":"Point","coordinates":[-71.11875,44.026365]},"properties":{"id":"ora-nh-31","name":"16 NH 302 Barnes Rd","state":"NH","provider":"NH DOT (NewEngland511)","hls":null,"snapshot":"https://www.newengland511.org/map/Cctv/1275","refreshMs":30000,"attribution":"Ora (Warner Varnado) · NH DOT (NewEngland511)"}},{"type":"Feature","geometry":{"type":"Point","coordinates":[-71.114931,44.017431]},"properties":{"id":"ora-nh-32","name":"16 NH 302 Eastman","state":"NH","provider":"NH DOT (NewEngland511)","hls":null,"snapshot":"https://www.newengland511.org/map/Cctv/1276","refreshMs":30000,"attribution":"Ora (Warner Varnado) · NH DOT (NewEngland511)"}},{"type":"Feature","geometry":{"type":"Point","coordinates":[-71.441149,43.05571]},"properties":{"id":"ora-nh-33","name":"US 3 S Chambers Drive","state":"NH","provider":"NH DOT (NewEngland511)","hls":null,"snapshot":"https://www.newengland511.org/map/Cctv/1277","refreshMs":30000,"attribution":"Ora (Warner Varnado) · NH DOT (NewEngland511)"}},{"type":"Feature","geometry":{"type":"Point","coordinates":[-71.799623,44.308618]},"properties":{"id":"ora-nh-34","name":"93 S MM 124.6 NH 302","state":"NH","provider":"NH DOT (NewEngland511)","hls":null,"snapshot":"https://www.newengland511.org/map/Cctv/1278","refreshMs":30000,"attribution":"Ora (Warner Varnado) · NH DOT (NewEngland511)"}},{"type":"Feature","geometry":{"type":"Point","coordinates":[-70.779054,43.070141]},"properties":{"id":"ora-nh-35","name":"US-1 Bypass Coakley","state":"NH","provider":"NH DOT (NewEngland511)","hls":null,"snapshot":"https://www.newengland511.org/map/Cctv/1279","refreshMs":30000,"attribution":"Ora (Warner Varnado) · NH DOT (NewEngland511)"}},{"type":"Feature","geometry":{"type":"Point","coordinates":[-70.778131,43.06929]},"properties":{"id":"ora-nh-36","name":"US-1 Bypass Borthwick","state":"NH","provider":"NH DOT (NewEngland511)","hls":null,"snapshot":"https://www.newengland511.org/map/Cctv/1280","refreshMs":30000,"attribution":"Ora (Warner Varnado) · NH DOT (NewEngland511)"}},{"type":"Feature","geometry":{"type":"Point","coordinates":[-71.362938,42.897094]},"properties":{"id":"ora-nh-37","name":"93 S MM 13.9","state":"NH","provider":"NH DOT (NewEngland511)","hls":null,"snapshot":"https://www.newengland511.org/map/Cctv/1281","refreshMs":30000,"attribution":"Ora (Warner Varnado) · NH DOT (NewEngland511)"}},{"type":"Feature","geometry":{"type":"Point","coordinates":[-71.384053,42.934526]},"properties":{"id":"ora-nh-38","name":"93 S MM 16.7","state":"NH","provider":"NH DOT (NewEngland511)","hls":null,"snapshot":"https://www.newengland511.org/map/Cctv/1282","refreshMs":30000,"attribution":"Ora (Warner Varnado) · NH DOT (NewEngland511)"}},{"type":"Feature","geometry":{"type":"Point","coordinates":[-72.247976,43.648601]},"properties":{"id":"ora-nh-39","name":"NH 120 89 Exit 18","state":"NH","provider":"NH DOT (NewEngland511)","hls":null,"snapshot":"https://www.newengland511.org/map/Cctv/1283","refreshMs":30000,"attribution":"Ora (Warner Varnado) · NH DOT (NewEngland511)"}},{"type":"Feature","geometry":{"type":"Point","coordinates":[-70.872802,42.893573]},"properties":{"id":"ora-nh-40","name":"US 1 S MM 1.5","state":"NH","provider":"NH DOT (NewEngland511)","hls":null,"snapshot":"https://www.newengland511.org/map/Cctv/1284","refreshMs":30000,"attribution":"Ora (Warner Varnado) · NH DOT (NewEngland511)"}},{"type":"Feature","geometry":{"type":"Point","coordinates":[-71.533398,43.218375]},"properties":{"id":"ora-nh-41","name":"93 N 39.1 PCCTV ","state":"NH","provider":"NH DOT (NewEngland511)","hls":null,"snapshot":"https://www.newengland511.org/map/Cctv/1285","refreshMs":30000,"attribution":"Ora (Warner Varnado) · NH DOT (NewEngland511)"}},{"type":"Feature","geometry":{"type":"Point","coordinates":[-70.911705,43.232822]},"properties":{"id":"ora-nh-42","name":"ST N MM 13.6 - RWIS","state":"NH","provider":"NH DOT (NewEngland511)","hls":null,"snapshot":"https://www.newengland511.org/map/Cctv/1286","refreshMs":30000,"attribution":"Ora (Warner Varnado) · NH DOT (NewEngland511)"}},{"type":"Feature","geometry":{"type":"Point","coordinates":[-71.244664,43.222597]},"properties":{"id":"ora-nh-43","name":"4 W MM 79.3 - RWIS","state":"NH","provider":"NH DOT (NewEngland511)","hls":null,"snapshot":"https://www.newengland511.org/map/Cctv/1287","refreshMs":30000,"attribution":"Ora (Warner Varnado) · NH DOT (NewEngland511)"}},{"type":"Feature","geometry":{"type":"Point","coordinates":[-70.801863,43.090672]},"properties":{"id":"ora-nh-44","name":"ST SN MM 1.6","state":"NH","provider":"NH DOT (NewEngland511)","hls":null,"snapshot":"https://www.newengland511.org/map/Cctv/1288","refreshMs":30000,"attribution":"Ora (Warner Varnado) · NH DOT (NewEngland511)"}},{"type":"Feature","geometry":{"type":"Point","coordinates":[-71.162781,43.776888]},"properties":{"id":"ora-nh-45","name":"16 N MM 56.6 - RWIS","state":"NH","provider":"NH DOT (NewEngland511)","hls":null,"snapshot":"https://www.newengland511.org/map/Cctv/1289","refreshMs":30000,"attribution":"Ora (Warner Varnado) · NH DOT (NewEngland511)"}},{"type":"Feature","geometry":{"type":"Point","coordinates":[-71.470527,43.073464]},"properties":{"id":"ora-nh-46","name":"93 SN MM 27.8","state":"NH","provider":"NH DOT (NewEngland511)","hls":null,"snapshot":"https://www.newengland511.org/map/Cctv/1290","refreshMs":30000,"attribution":"Ora (Warner Varnado) · NH DOT (NewEngland511)"}},{"type":"Feature","geometry":{"type":"Point","coordinates":[-71.448898,42.718673]},"properties":{"id":"ora-nh-47","name":"FEE N MM 1.3","state":"NH","provider":"NH DOT (NewEngland511)","hls":null,"snapshot":"https://www.newengland511.org/map/Cctv/1291","refreshMs":30000,"attribution":"Ora (Warner Varnado) · NH DOT (NewEngland511)"}},{"type":"Feature","geometry":{"type":"Point","coordinates":[-71.474518,43.002669]},"properties":{"id":"ora-nh-48","name":"293 N MM 7.5","state":"NH","provider":"NH DOT (NewEngland511)","hls":null,"snapshot":"https://www.newengland511.org/map/Cctv/1292","refreshMs":30000,"attribution":"Ora (Warner Varnado) · NH DOT (NewEngland511)"}},{"type":"Feature","geometry":{"type":"Point","coordinates":[-71.3559,42.893416]},"properties":{"id":"ora-nh-49","name":"93 N MM 13.5 ","state":"NH","provider":"NH DOT (NewEngland511)","hls":null,"snapshot":"https://www.newengland511.org/map/Cctv/1293","refreshMs":30000,"attribution":"Ora (Warner Varnado) · NH DOT (NewEngland511)"}},{"type":"Feature","geometry":{"type":"Point","coordinates":[-71.465334,43.045558]},"properties":{"id":"ora-nh-50","name":"93 NN MM 25.8","state":"NH","provider":"NH DOT (NewEngland511)","hls":null,"snapshot":"https://www.newengland511.org/map/Cctv/1294","refreshMs":30000,"attribution":"Ora (Warner Varnado) · NH DOT (NewEngland511)"}},{"type":"Feature","geometry":{"type":"Point","coordinates":[-71.517584,44.349892]},"properties":{"id":"ora-nh-51","name":"115 S MM 4.0 - RWIS","state":"NH","provider":"NH DOT (NewEngland511)","hls":null,"snapshot":"https://www.newengland511.org/map/Cctv/1295","refreshMs":30000,"attribution":"Ora (Warner Varnado) · NH DOT (NewEngland511)"}},{"type":"Feature","geometry":{"type":"Point","coordinates":[-70.895526,43.21875]},"properties":{"id":"ora-nh-52","name":"ST N MM 12.4 RWIS","state":"NH","provider":"NH DOT (NewEngland511)","hls":null,"snapshot":"https://www.newengland511.org/map/Cctv/1296","refreshMs":30000,"attribution":"Ora (Warner Varnado) · NH DOT (NewEngland511)"}},{"type":"Feature","geometry":{"type":"Point","coordinates":[-71.89084,42.850752]},"properties":{"id":"ora-nh-53","name":"101 W MM 23.7 - RWIS","state":"NH","provider":"NH DOT (NewEngland511)","hls":null,"snapshot":"https://www.newengland511.org/map/Cctv/1297","refreshMs":30000,"attribution":"Ora (Warner Varnado) · NH DOT (NewEngland511)"}},{"type":"Feature","geometry":{"type":"Point","coordinates":[-70.999102,43.464943]},"properties":{"id":"ora-nh-54","name":"ST S MM 32.0 RWIS","state":"NH","provider":"NH DOT (NewEngland511)","hls":null,"snapshot":"https://www.newengland511.org/map/Cctv/1298","refreshMs":30000,"attribution":"Ora (Warner Varnado) · NH DOT (NewEngland511)"}},{"type":"Feature","geometry":{"type":"Point","coordinates":[-71.007556,43.403332]},"properties":{"id":"ora-nh-55","name":"ST S MM 27.5 - RWIS ","state":"NH","provider":"NH DOT (NewEngland511)","hls":null,"snapshot":"https://www.newengland511.org/map/Cctv/1299","refreshMs":30000,"attribution":"Ora (Warner Varnado) · NH DOT (NewEngland511)"}},{"type":"Feature","geometry":{"type":"Point","coordinates":[-70.981957,43.283422]},"properties":{"id":"ora-nh-56","name":"ST S MM 18.6 - RWIS","state":"NH","provider":"NH DOT (NewEngland511)","hls":null,"snapshot":"https://www.newengland511.org/map/Cctv/1300","refreshMs":30000,"attribution":"Ora (Warner Varnado) · NH DOT (NewEngland511)"}},{"type":"Feature","geometry":{"type":"Point","coordinates":[-71.413235,42.968796]},"properties":{"id":"ora-nh-57","name":"93 M MM 19.5 ","state":"NH","provider":"NH DOT (NewEngland511)","hls":null,"snapshot":"https://www.newengland511.org/map/Cctv/1301","refreshMs":30000,"attribution":"Ora (Warner Varnado) · NH DOT (NewEngland511)"}},{"type":"Feature","geometry":{"type":"Point","coordinates":[-71.452159,43.405546]},"properties":{"id":"ora-nh-58","name":"106 S MM 16.6 - RWIS","state":"NH","provider":"NH DOT (NewEngland511)","hls":null,"snapshot":"https://www.newengland511.org/map/Cctv/1302","refreshMs":30000,"attribution":"Ora (Warner Varnado) · NH DOT (NewEngland511)"}},{"type":"Feature","geometry":{"type":"Point","coordinates":[-71.041889,43.616644]},"properties":{"id":"ora-nh-59","name":"16 S MM 43.4 CCTV ","state":"NH","provider":"NH DOT (NewEngland511)","hls":null,"snapshot":"https://www.newengland511.org/map/Cctv/1303","refreshMs":30000,"attribution":"Ora (Warner Varnado) · NH DOT (NewEngland511)"}},{"type":"Feature","geometry":{"type":"Point","coordinates":[-71.384546,42.939145]},"properties":{"id":"ora-nh-60","name":"93 N MM 17.0","state":"NH","provider":"NH DOT (NewEngland511)","hls":null,"snapshot":"https://www.newengland511.org/map/Cctv/1304","refreshMs":30000,"attribution":"Ora (Warner Varnado) · NH DOT (NewEngland511)"}},{"type":"Feature","geometry":{"type":"Point","coordinates":[-71.386413,42.941627]},"properties":{"id":"ora-nh-61","name":"93 N MM 17.2","state":"NH","provider":"NH DOT (NewEngland511)","hls":null,"snapshot":"https://www.newengland511.org/map/Cctv/1305","refreshMs":30000,"attribution":"Ora (Warner Varnado) · NH DOT (NewEngland511)"}},{"type":"Feature","geometry":{"type":"Point","coordinates":[-71.344227,42.881483]},"properties":{"id":"ora-nh-62","name":"93 N MM 12.5","state":"NH","provider":"NH DOT (NewEngland511)","hls":null,"snapshot":"https://www.newengland511.org/map/Cctv/1306","refreshMs":30000,"attribution":"Ora (Warner Varnado) · NH DOT (NewEngland511)"}},{"type":"Feature","geometry":{"type":"Point","coordinates":[-71.478703,43.325848]},"properties":{"id":"ora-nh-63","name":"106 S MM 10.8","state":"NH","provider":"NH DOT (NewEngland511)","hls":null,"snapshot":"https://www.newengland511.org/map/Cctv/1307","refreshMs":30000,"attribution":"Ora (Warner Varnado) · NH DOT (NewEngland511)"}},{"type":"Feature","geometry":{"type":"Point","coordinates":[-71.377487,42.928525]},"properties":{"id":"ora-nh-64","name":"93 N MM 16.2","state":"NH","provider":"NH DOT (NewEngland511)","hls":null,"snapshot":"https://www.newengland511.org/map/Cctv/1308","refreshMs":30000,"attribution":"Ora (Warner Varnado) · NH DOT (NewEngland511)"}},{"type":"Feature","geometry":{"type":"Point","coordinates":[-71.395211,42.946512]},"properties":{"id":"ora-nh-65","name":"93 S MM 17.8 CCTV","state":"NH","provider":"NH DOT (NewEngland511)","hls":null,"snapshot":"https://www.newengland511.org/map/Cctv/1309","refreshMs":30000,"attribution":"Ora (Warner Varnado) · NH DOT (NewEngland511)"}},{"type":"Feature","geometry":{"type":"Point","coordinates":[-71.220007,42.754039]},"properties":{"id":"ora-nh-66","name":"93 NN MM 0.9 ","state":"NH","provider":"NH DOT (NewEngland511)","hls":null,"snapshot":"https://www.newengland511.org/map/Cctv/1310","refreshMs":30000,"attribution":"Ora (Warner Varnado) · NH DOT (NewEngland511)"}},{"type":"Feature","geometry":{"type":"Point","coordinates":[-71.475398,43.088996]},"properties":{"id":"ora-nh-67","name":"93 S MM 28.9 CCTV ","state":"NH","provider":"NH DOT (NewEngland511)","hls":null,"snapshot":"https://www.newengland511.org/map/Cctv/1311","refreshMs":30000,"attribution":"Ora (Warner Varnado) · NH DOT (NewEngland511)"}},{"type":"Feature","geometry":{"type":"Point","coordinates":[-71.471879,43.08152]},"properties":{"id":"ora-nh-68","name":"93 NN MM 28.4","state":"NH","provider":"NH DOT (NewEngland511)","hls":null,"snapshot":"https://www.newengland511.org/map/Cctv/1312","refreshMs":30000,"attribution":"Ora (Warner Varnado) · NH DOT (NewEngland511)"}},{"type":"Feature","geometry":{"type":"Point","coordinates":[-72.32241,43.631752]},"properties":{"id":"ora-nh-69","name":"89 S MM 60.4  - SWZ - C-02","state":"NH","provider":"NH DOT (NewEngland511)","hls":null,"snapshot":"https://www.newengland511.org/map/Cctv/1313","refreshMs":30000,"attribution":"Ora (Warner Varnado) · NH DOT (NewEngland511)"}},{"type":"Feature","geometry":{"type":"Point","coordinates":[-72.277421,43.640702]},"properties":{"id":"ora-nh-70","name":"89 N MM 58.0 - SWZ - C-01","state":"NH","provider":"NH DOT (NewEngland511)","hls":null,"snapshot":"https://www.newengland511.org/map/Cctv/1314","refreshMs":30000,"attribution":"Ora (Warner Varnado) · NH DOT (NewEngland511)"}},{"type":"Feature","geometry":{"type":"Point","coordinates":[-71.221897,42.753299]},"properties":{"id":"ora-nh-71","name":"93 NS MM 0.9","state":"NH","provider":"NH DOT (NewEngland511)","hls":null,"snapshot":"https://www.newengland511.org/map/Cctv/1315","refreshMs":30000,"attribution":"Ora (Warner Varnado) · NH DOT (NewEngland511)"}},{"type":"Feature","geometry":{"type":"Point","coordinates":[-71.341438,42.868604]},"properties":{"id":"ora-nh-72","name":"93 S MM 11.6 ","state":"NH","provider":"NH DOT (NewEngland511)","hls":null,"snapshot":"https://www.newengland511.org/map/Cctv/1316","refreshMs":30000,"attribution":"Ora (Warner Varnado) · NH DOT (NewEngland511)"}},{"type":"Feature","geometry":{"type":"Point","coordinates":[-70.837655,43.127032]},"properties":{"id":"ora-nh-73","name":"ST S MM 4.8","state":"NH","provider":"NH DOT (NewEngland511)","hls":null,"snapshot":"https://www.newengland511.org/map/Cctv/1317","refreshMs":30000,"attribution":"Ora (Warner Varnado) · NH DOT (NewEngland511)"}},{"type":"Feature","geometry":{"type":"Point","coordinates":[-71.470398,43.059889]},"properties":{"id":"ora-nh-74","name":"93 N MM 26.9","state":"NH","provider":"NH DOT (NewEngland511)","hls":null,"snapshot":"https://www.newengland511.org/map/Cctv/1318","refreshMs":30000,"attribution":"Ora (Warner Varnado) · NH DOT (NewEngland511)"}},{"type":"Feature","geometry":{"type":"Point","coordinates":[-71.49398,42.76795]},"properties":{"id":"ora-nh-75","name":"FEE S MM 6.2","state":"NH","provider":"NH DOT (NewEngland511)","hls":null,"snapshot":"https://www.newengland511.org/map/Cctv/1320","refreshMs":30000,"attribution":"Ora (Warner Varnado) · NH DOT (NewEngland511)"}},{"type":"Feature","geometry":{"type":"Point","coordinates":[-71.477222,42.964399]},"properties":{"id":"ora-nh-76","name":"293 S MM 4.7","state":"NH","provider":"NH DOT (NewEngland511)","hls":null,"snapshot":"https://www.newengland511.org/map/Cctv/1321","refreshMs":30000,"attribution":"Ora (Warner Varnado) · NH DOT (NewEngland511)"}},{"type":"Feature","geometry":{"type":"Point","coordinates":[-71.470956,42.983569]},"properties":{"id":"ora-nh-77","name":"293 N MM 6.1","state":"NH","provider":"NH DOT (NewEngland511)","hls":null,"snapshot":"https://www.newengland511.org/map/Cctv/1322","refreshMs":30000,"attribution":"Ora (Warner Varnado) · NH DOT (NewEngland511)"}},{"type":"Feature","geometry":{"type":"Point","coordinates":[-72.195389,42.991856]},"properties":{"id":"ora-nh-78","name":"9 W MM 22.7- RWIS Station","state":"NH","provider":"NH DOT (NewEngland511)","hls":null,"snapshot":"https://www.newengland511.org/map/Cctv/1323","refreshMs":30000,"attribution":"Ora (Warner Varnado) · NH DOT (NewEngland511)"}},{"type":"Feature","geometry":{"type":"Point","coordinates":[-71.484625,43.127642]},"properties":{"id":"ora-nh-79","name":"93 N MM 31.7","state":"NH","provider":"NH DOT (NewEngland511)","hls":null,"snapshot":"https://www.newengland511.org/map/Cctv/1324","refreshMs":30000,"attribution":"Ora (Warner Varnado) · NH DOT (NewEngland511)"}},{"type":"Feature","geometry":{"type":"Point","coordinates":[-71.502177,43.148953]},"properties":{"id":"ora-nh-80","name":"93 N MM 33.4","state":"NH","provider":"NH DOT (NewEngland511)","hls":null,"snapshot":"https://www.newengland511.org/map/Cctv/1325","refreshMs":30000,"attribution":"Ora (Warner Varnado) · NH DOT (NewEngland511)"}},{"type":"Feature","geometry":{"type":"Point","coordinates":[-71.522133,43.186419]},"properties":{"id":"ora-nh-81","name":"93 N MM 36.8","state":"NH","provider":"NH DOT (NewEngland511)","hls":null,"snapshot":"https://www.newengland511.org/map/Cctv/1326","refreshMs":30000,"attribution":"Ora (Warner Varnado) · NH DOT (NewEngland511)"}},{"type":"Feature","geometry":{"type":"Point","coordinates":[-71.317663,42.853976]},"properties":{"id":"ora-nh-82","name":"93 S MM 10.0","state":"NH","provider":"NH DOT (NewEngland511)","hls":null,"snapshot":"https://www.newengland511.org/map/Cctv/1327","refreshMs":30000,"attribution":"Ora (Warner Varnado) · NH DOT (NewEngland511)"}},{"type":"Feature","geometry":{"type":"Point","coordinates":[-71.323113,42.858223]},"properties":{"id":"ora-nh-83","name":"93 N MM 10.4","state":"NH","provider":"NH DOT (NewEngland511)","hls":null,"snapshot":"https://www.newengland511.org/map/Cctv/1328","refreshMs":30000,"attribution":"Ora (Warner Varnado) · NH DOT (NewEngland511)"}},{"type":"Feature","geometry":{"type":"Point","coordinates":[-71.300797,42.836356]},"properties":{"id":"ora-nh-84","name":"93 S MM 8.5","state":"NH","provider":"NH DOT (NewEngland511)","hls":null,"snapshot":"https://www.newengland511.org/map/Cctv/1329","refreshMs":30000,"attribution":"Ora (Warner Varnado) · NH DOT (NewEngland511)"}},{"type":"Feature","geometry":{"type":"Point","coordinates":[-71.311354,42.846992]},"properties":{"id":"ora-nh-85","name":"93 S MM 9.4","state":"NH","provider":"NH DOT (NewEngland511)","hls":null,"snapshot":"https://www.newengland511.org/map/Cctv/1330","refreshMs":30000,"attribution":"Ora (Warner Varnado) · NH DOT (NewEngland511)"}},{"type":"Feature","geometry":{"type":"Point","coordinates":[-71.616783,43.505188]},"properties":{"id":"ora-nh-86","name":"93 S MM 61.1","state":"NH","provider":"NH DOT (NewEngland511)","hls":null,"snapshot":"https://www.newengland511.org/map/Cctv/1331","refreshMs":30000,"attribution":"Ora (Warner Varnado) · NH DOT (NewEngland511)"}},{"type":"Feature","geometry":{"type":"Point","coordinates":[-71.447331,42.953705]},"properties":{"id":"ora-nh-87","name":"293 N MM 2.2","state":"NH","provider":"NH DOT (NewEngland511)","hls":null,"snapshot":"https://www.newengland511.org/map/Cctv/1332","refreshMs":30000,"attribution":"Ora (Warner Varnado) · NH DOT (NewEngland511)"}},{"type":"Feature","geometry":{"type":"Point","coordinates":[-70.822699,43.11541]},"properties":{"id":"ora-nh-88","name":"ST SS 3.8 CCTV AX T","state":"NH","provider":"NH DOT (NewEngland511)","hls":null,"snapshot":"https://www.newengland511.org/map/Cctv/1333","refreshMs":30000,"attribution":"Ora (Warner Varnado) · NH DOT (NewEngland511)"}},{"type":"Feature","geometry":{"type":"Point","coordinates":[-70.823166,43.115226]},"properties":{"id":"ora-nh-89","name":"ST SN 3.8 CCTV AX T","state":"NH","provider":"NH DOT (NewEngland511)","hls":null,"snapshot":"https://www.newengland511.org/map/Cctv/1334","refreshMs":30000,"attribution":"Ora (Warner Varnado) · NH DOT (NewEngland511)"}},{"type":"Feature","geometry":{"type":"Point","coordinates":[-70.827883,43.120606]},"properties":{"id":"ora-nh-90","name":"ST NN 4.1 CCTV AX T","state":"NH","provider":"NH DOT (NewEngland511)","hls":null,"snapshot":"https://www.newengland511.org/map/Cctv/1335","refreshMs":30000,"attribution":"Ora (Warner Varnado) · NH DOT (NewEngland511)"}},{"type":"Feature","geometry":{"type":"Point","coordinates":[-70.827355,43.120642]},"properties":{"id":"ora-nh-91","name":"ST NS 4.1 CCTV AX T","state":"NH","provider":"NH DOT (NewEngland511)","hls":null,"snapshot":"https://www.newengland511.org/map/Cctv/1336","refreshMs":30000,"attribution":"Ora (Warner Varnado) · NH DOT (NewEngland511)"}},{"type":"Feature","geometry":{"type":"Point","coordinates":[-71.474218,43.073276]},"properties":{"id":"ora-nh-92","name":"93 SS 27.8","state":"NH","provider":"NH DOT (NewEngland511)","hls":null,"snapshot":"https://www.newengland511.org/map/Cctv/1337","refreshMs":30000,"attribution":"Ora (Warner Varnado) · NH DOT (NewEngland511)"}},{"type":"Feature","geometry":{"type":"Point","coordinates":[-71.652998,43.63279]},"properties":{"id":"ora-nh-93","name":"93 S MM 70.6","state":"NH","provider":"NH DOT (NewEngland511)","hls":null,"snapshot":"https://www.newengland511.org/map/Cctv/1338","refreshMs":30000,"attribution":"Ora (Warner Varnado) · NH DOT (NewEngland511)"}},{"type":"Feature","geometry":{"type":"Point","coordinates":[-70.818428,43.112371]},"properties":{"id":"ora-nh-94","name":"ST NS MM 3.4","state":"NH","provider":"NH DOT (NewEngland511)","hls":null,"snapshot":"https://www.newengland511.org/map/Cctv/1339","refreshMs":30000,"attribution":"Ora (Warner Varnado) · NH DOT (NewEngland511)"}},{"type":"Feature","geometry":{"type":"Point","coordinates":[-70.817377,43.112826]},"properties":{"id":"ora-nh-95","name":"ST NN MM 3.4 ","state":"NH","provider":"NH DOT (NewEngland511)","hls":null,"snapshot":"https://www.newengland511.org/map/Cctv/1340","refreshMs":30000,"attribution":"Ora (Warner Varnado) · NH DOT (NewEngland511)"}},{"type":"Feature","geometry":{"type":"Point","coordinates":[-71.476814,42.95025]},"properties":{"id":"ora-nh-96","name":"101 E MM 53.8","state":"NH","provider":"NH DOT (NewEngland511)","hls":null,"snapshot":"https://www.newengland511.org/map/Cctv/1341","refreshMs":30000,"attribution":"Ora (Warner Varnado) · NH DOT (NewEngland511)"}},{"type":"Feature","geometry":{"type":"Point","coordinates":[-71.569705,43.449367]},"properties":{"id":"ora-nh-97","name":"93 N MM 56.6","state":"NH","provider":"NH DOT (NewEngland511)","hls":null,"snapshot":"https://www.newengland511.org/map/Cctv/1342","refreshMs":30000,"attribution":"Ora (Warner Varnado) · NH DOT (NewEngland511)"}},{"type":"Feature","geometry":{"type":"Point","coordinates":[-71.570134,43.453931]},"properties":{"id":"ora-nh-98","name":"93 N MM 56.9","state":"NH","provider":"NH DOT (NewEngland511)","hls":null,"snapshot":"https://www.newengland511.org/map/Cctv/1343","refreshMs":30000,"attribution":"Ora (Warner Varnado) · NH DOT (NewEngland511)"}},{"type":"Feature","geometry":{"type":"Point","coordinates":[-71.263718,42.78677]},"properties":{"id":"ora-nh-99","name":"93 N MM 4.2","state":"NH","provider":"NH DOT (NewEngland511)","hls":null,"snapshot":"https://www.newengland511.org/map/Cctv/1344","refreshMs":30000,"attribution":"Ora (Warner Varnado) · NH DOT (NewEngland511)"}},{"type":"Feature","geometry":{"type":"Point","coordinates":[-71.270899,42.802702]},"properties":{"id":"ora-nh-100","name":"93 N 5.4 ","state":"NH","provider":"NH DOT (NewEngland511)","hls":null,"snapshot":"https://www.newengland511.org/map/Cctv/1345","refreshMs":30000,"attribution":"Ora (Warner Varnado) · NH DOT (NewEngland511)"}},{"type":"Feature","geometry":{"type":"Point","coordinates":[-71.429965,42.958564]},"properties":{"id":"ora-nh-101","name":"293 S 1.4 ","state":"NH","provider":"NH DOT (NewEngland511)","hls":null,"snapshot":"https://www.newengland511.org/map/Cctv/1346","refreshMs":30000,"attribution":"Ora (Warner Varnado) · NH DOT (NewEngland511)"}},{"type":"Feature","geometry":{"type":"Point","coordinates":[-70.762081,43.084765]},"properties":{"id":"ora-nh-102","name":"SLB Portsmouth Approach","state":"NH","provider":"NH DOT (NewEngland511)","hls":null,"snapshot":"https://www.newengland511.org/map/Cctv/1347","refreshMs":30000,"attribution":"Ora (Warner Varnado) · NH DOT (NewEngland511)"}},{"type":"Feature","geometry":{"type":"Point","coordinates":[-70.759034,43.087914]},"properties":{"id":"ora-nh-103","name":"SLB Kittery Approach","state":"NH","provider":"NH DOT (NewEngland511)","hls":null,"snapshot":"https://www.newengland511.org/map/Cctv/1348","refreshMs":30000,"attribution":"Ora (Warner Varnado) · NH DOT (NewEngland511)"}},{"type":"Feature","geometry":{"type":"Point","coordinates":[-71.682894,44.105414]},"properties":{"id":"ora-nh-104","name":"I 93 N MM 105.6 RWIS Station","state":"NH","provider":"NH DOT (NewEngland511)","hls":null,"snapshot":"https://www.newengland511.org/map/Cctv/1349","refreshMs":30000,"attribution":"Ora (Warner Varnado) · NH DOT (NewEngland511)"}},{"type":"Feature","geometry":{"type":"Point","coordinates":[-70.860915,42.936506]},"properties":{"id":"ora-nh-105","name":"95N MM 4.0 CCTV","state":"NH","provider":"NH DOT (NewEngland511)","hls":null,"snapshot":"https://www.newengland511.org/map/Cctv/1350","refreshMs":30000,"attribution":"Ora (Warner Varnado) · NH DOT (NewEngland511)"}},{"type":"Feature","geometry":{"type":"Point","coordinates":[-71.580262,44.453266]},"properties":{"id":"ora-nh-106","name":"3 S MM 163.1 CCTV","state":"NH","provider":"NH DOT (NewEngland511)","hls":null,"snapshot":"https://www.newengland511.org/map/Cctv/1351","refreshMs":30000,"attribution":"Ora (Warner Varnado) · NH DOT (NewEngland511)"}},{"type":"Feature","geometry":{"type":"Point","coordinates":[-71.532411,43.179551]},"properties":{"id":"ora-nh-107","name":"93 NS 36.2","state":"NH","provider":"NH DOT (NewEngland511)","hls":null,"snapshot":"https://www.newengland511.org/map/Cctv/1352","refreshMs":30000,"attribution":"Ora (Warner Varnado) · NH DOT (NewEngland511)"}},{"type":"Feature","geometry":{"type":"Point","coordinates":[-71.530179,43.179598]},"properties":{"id":"ora-nh-108","name":"93 NN 36.2","state":"NH","provider":"NH DOT (NewEngland511)","hls":null,"snapshot":"https://www.newengland511.org/map/Cctv/1353","refreshMs":30000,"attribution":"Ora (Warner Varnado) · NH DOT (NewEngland511)"}},{"type":"Feature","geometry":{"type":"Point","coordinates":[-71.272001,42.791842]},"properties":{"id":"ora-nh-109","name":"93 S MM 4.7","state":"NH","provider":"NH DOT (NewEngland511)","hls":null,"snapshot":"https://www.newengland511.org/map/Cctv/1354","refreshMs":30000,"attribution":"Ora (Warner Varnado) · NH DOT (NewEngland511)"}},{"type":"Feature","geometry":{"type":"Point","coordinates":[-70.802507,43.090202]},"properties":{"id":"ora-nh-110","name":"ST S MM 1.6 ","state":"NH","provider":"NH DOT (NewEngland511)","hls":null,"snapshot":"https://www.newengland511.org/map/Cctv/1355","refreshMs":30000,"attribution":"Ora (Warner Varnado) · NH DOT (NewEngland511)"}},{"type":"Feature","geometry":{"type":"Point","coordinates":[-70.96992,43.279189]},"properties":{"id":"ora-nh-111","name":"ST N, MM 18","state":"NH","provider":"NH DOT (NewEngland511)","hls":null,"snapshot":"https://www.newengland511.org/map/Cctv/1356","refreshMs":30000,"attribution":"Ora (Warner Varnado) · NH DOT (NewEngland511)"}},{"type":"Feature","geometry":{"type":"Point","coordinates":[-70.774161,43.084091]},"properties":{"id":"ora-nh-112","name":"95 SS, MM 15.4","state":"NH","provider":"NH DOT (NewEngland511)","hls":null,"snapshot":"https://www.newengland511.org/map/Cctv/1357","refreshMs":30000,"attribution":"Ora (Warner Varnado) · NH DOT (NewEngland511)"}},{"type":"Feature","geometry":{"type":"Point","coordinates":[-71.365041,42.904215]},"properties":{"id":"ora-nh-113","name":"93 S, MM 14.4","state":"NH","provider":"NH DOT (NewEngland511)","hls":null,"snapshot":"https://www.newengland511.org/map/Cctv/1358","refreshMs":30000,"attribution":"Ora (Warner Varnado) · NH DOT (NewEngland511)"}},{"type":"Feature","geometry":{"type":"Point","coordinates":[-71.240651,42.772282]},"properties":{"id":"ora-nh-114","name":"93 N, MM 2.6","state":"NH","provider":"NH DOT (NewEngland511)","hls":null,"snapshot":"https://www.newengland511.org/map/Cctv/1359","refreshMs":30000,"attribution":"Ora (Warner Varnado) · NH DOT (NewEngland511)"}},{"type":"Feature","geometry":{"type":"Point","coordinates":[-71.45895,43.253751]},"properties":{"id":"ora-nh-115","name":"106 N, MM 5.6","state":"NH","provider":"NH DOT (NewEngland511)","hls":null,"snapshot":"https://www.newengland511.org/map/Cctv/1360","refreshMs":30000,"attribution":"Ora (Warner Varnado) · NH DOT (NewEngland511)"}},{"type":"Feature","geometry":{"type":"Point","coordinates":[-71.827991,42.750006]},"properties":{"id":"ora-nh-116","name":"124 N, MM 4.2, RWIS Station","state":"NH","provider":"NH DOT (NewEngland511)","hls":null,"snapshot":"https://www.newengland511.org/map/Cctv/1361","refreshMs":30000,"attribution":"Ora (Warner Varnado) · NH DOT (NewEngland511)"}},{"type":"Feature","geometry":{"type":"Point","coordinates":[-70.84347,43.140921]},"properties":{"id":"ora-nh-117","name":"ST S, MM 5.8","state":"NH","provider":"NH DOT (NewEngland511)","hls":null,"snapshot":"https://www.newengland511.org/map/Cctv/1362","refreshMs":30000,"attribution":"Ora (Warner Varnado) · NH DOT (NewEngland511)"}},{"type":"Feature","geometry":{"type":"Point","coordinates":[-70.839249,43.130948]},"properties":{"id":"ora-nh-118","name":"ST S, MM 5.0","state":"NH","provider":"NH DOT (NewEngland511)","hls":null,"snapshot":"https://www.newengland511.org/map/Cctv/1363","refreshMs":30000,"attribution":"Ora (Warner Varnado) · NH DOT (NewEngland511)"}},{"type":"Feature","geometry":{"type":"Point","coordinates":[-70.986322,43.327832]},"properties":{"id":"ora-nh-119","name":"ST S, MM 22.0","state":"NH","provider":"NH DOT (NewEngland511)","hls":null,"snapshot":"https://www.newengland511.org/map/Cctv/1364","refreshMs":30000,"attribution":"Ora (Warner Varnado) · NH DOT (NewEngland511)"}},{"type":"Feature","geometry":{"type":"Point","coordinates":[-70.942232,43.256236]},"properties":{"id":"ora-nh-120","name":"ST S, MM 15.9","state":"NH","provider":"NH DOT (NewEngland511)","hls":null,"snapshot":"https://www.newengland511.org/map/Cctv/1365","refreshMs":30000,"attribution":"Ora (Warner Varnado) · NH DOT (NewEngland511)"}},{"type":"Feature","geometry":{"type":"Point","coordinates":[-70.873188,43.180051]},"properties":{"id":"ora-nh-121","name":"ST N, MM 9","state":"NH","provider":"NH DOT (NewEngland511)","hls":null,"snapshot":"https://www.newengland511.org/map/Cctv/1366","refreshMs":30000,"attribution":"Ora (Warner Varnado) · NH DOT (NewEngland511)"}},{"type":"Feature","geometry":{"type":"Point","coordinates":[-70.811219,43.102236]},"properties":{"id":"ora-nh-122","name":"ST N, MM 2.6","state":"NH","provider":"NH DOT (NewEngland511)","hls":null,"snapshot":"https://www.newengland511.org/map/Cctv/1367","refreshMs":30000,"attribution":"Ora (Warner Varnado) · NH DOT (NewEngland511)"}},{"type":"Feature","geometry":{"type":"Point","coordinates":[-70.956337,43.268471]},"properties":{"id":"ora-nh-123","name":"ST N, MM 17.0","state":"NH","provider":"NH DOT (NewEngland511)","hls":null,"snapshot":"https://www.newengland511.org/map/Cctv/1368","refreshMs":30000,"attribution":"Ora (Warner Varnado) · NH DOT (NewEngland511)"}},{"type":"Feature","geometry":{"type":"Point","coordinates":[-70.894683,43.219067]},"properties":{"id":"ora-nh-124","name":"ST N, MM 12.4","state":"NH","provider":"NH DOT (NewEngland511)","hls":null,"snapshot":"https://www.newengland511.org/map/Cctv/1369","refreshMs":30000,"attribution":"Ora (Warner Varnado) · NH DOT (NewEngland511)"}},{"type":"Feature","geometry":{"type":"Point","coordinates":[-70.891599,43.214168]},"properties":{"id":"ora-nh-125","name":"ST N, MM 12.0","state":"NH","provider":"NH DOT (NewEngland511)","hls":null,"snapshot":"https://www.newengland511.org/map/Cctv/1370","refreshMs":30000,"attribution":"Ora (Warner Varnado) · NH DOT (NewEngland511)"}},{"type":"Feature","geometry":{"type":"Point","coordinates":[-71.49707,42.793778]},"properties":{"id":"ora-nh-126","name":"FEET S, MM 8","state":"NH","provider":"NH DOT (NewEngland511)","hls":null,"snapshot":"https://www.newengland511.org/map/Cctv/1371","refreshMs":30000,"attribution":"Ora (Warner Varnado) · NH DOT (NewEngland511)"}},{"type":"Feature","geometry":{"type":"Point","coordinates":[-70.856623,42.965122]},"properties":{"id":"ora-nh-127","name":"95 S, MM 6.0","state":"NH","provider":"NH DOT (NewEngland511)","hls":null,"snapshot":"https://www.newengland511.org/map/Cctv/1372","refreshMs":30000,"attribution":"Ora (Warner Varnado) · NH DOT (NewEngland511)"}},{"type":"Feature","geometry":{"type":"Point","coordinates":[-70.857675,42.959563]},"properties":{"id":"ora-nh-128","name":"95 SS, MM 5.6","state":"NH","provider":"NH DOT (NewEngland511)","hls":null,"snapshot":"https://www.newengland511.org/map/Cctv/1373","refreshMs":30000,"attribution":"Ora (Warner Varnado) · NH DOT (NewEngland511)"}},{"type":"Feature","geometry":{"type":"Point","coordinates":[-70.773389,43.083965]},"properties":{"id":"ora-nh-129","name":"95 SN, MM 15.4","state":"NH","provider":"NH DOT (NewEngland511)","hls":null,"snapshot":"https://www.newengland511.org/map/Cctv/1374","refreshMs":30000,"attribution":"Ora (Warner Varnado) · NH DOT (NewEngland511)"}},{"type":"Feature","geometry":{"type":"Point","coordinates":[-70.80888,43.05321]},"properties":{"id":"ora-nh-130","name":"95 SN, MM 12.6","state":"NH","provider":"NH DOT (NewEngland511)","hls":null,"snapshot":"https://www.newengland511.org/map/Cctv/1375","refreshMs":30000,"attribution":"Ora (Warner Varnado) · NH DOT (NewEngland511)"}},{"type":"Feature","geometry":{"type":"Point","coordinates":[-70.810698,43.053727]},"properties":{"id":"ora-nh-131","name":"95 SS, MM 12.6","state":"NH","provider":"NH DOT (NewEngland511)","hls":null,"snapshot":"https://www.newengland511.org/map/Cctv/1376","refreshMs":30000,"attribution":"Ora (Warner Varnado) · NH DOT (NewEngland511)"}},{"type":"Feature","geometry":{"type":"Point","coordinates":[-70.831325,43.020007]},"properties":{"id":"ora-nh-132","name":"95 SN, MM 10.0","state":"NH","provider":"NH DOT (NewEngland511)","hls":null,"snapshot":"https://www.newengland511.org/map/Cctv/1377","refreshMs":30000,"attribution":"Ora (Warner Varnado) · NH DOT (NewEngland511)"}},{"type":"Feature","geometry":{"type":"Point","coordinates":[-70.880513,42.895236]},"properties":{"id":"ora-nh-133","name":"95 SS, MM 1.0","state":"NH","provider":"NH DOT (NewEngland511)","hls":null,"snapshot":"https://www.newengland511.org/map/Cctv/1378","refreshMs":30000,"attribution":"Ora (Warner Varnado) · NH DOT (NewEngland511)"}},{"type":"Feature","geometry":{"type":"Point","coordinates":[-70.856387,42.959327]},"properties":{"id":"ora-nh-134","name":"95 SN, MM 5.6","state":"NH","provider":"NH DOT (NewEngland511)","hls":null,"snapshot":"https://www.newengland511.org/map/Cctv/1379","refreshMs":30000,"attribution":"Ora (Warner Varnado) · NH DOT (NewEngland511)"}},{"type":"Feature","geometry":{"type":"Point","coordinates":[-70.782873,43.074765]},"properties":{"id":"ora-nh-135","name":"95 MS, MM 14.6","state":"NH","provider":"NH DOT (NewEngland511)","hls":null,"snapshot":"https://www.newengland511.org/map/Cctv/1380","refreshMs":30000,"attribution":"Ora (Warner Varnado) · NH DOT (NewEngland511)"}},{"type":"Feature","geometry":{"type":"Point","coordinates":[-70.782251,43.074326]},"properties":{"id":"ora-nh-136","name":"95 MN, MM 14.6","state":"NH","provider":"NH DOT (NewEngland511)","hls":null,"snapshot":"https://www.newengland511.org/map/Cctv/1381","refreshMs":30000,"attribution":"Ora (Warner Varnado) · NH DOT (NewEngland511)"}},{"type":"Feature","geometry":{"type":"Point","coordinates":[-70.797915,43.061551]},"properties":{"id":"ora-nh-137","name":"95 N, MM 13.4","state":"NH","provider":"NH DOT (NewEngland511)","hls":null,"snapshot":"https://www.newengland511.org/map/Cctv/1382","refreshMs":30000,"attribution":"Ora (Warner Varnado) · NH DOT (NewEngland511)"}},{"type":"Feature","geometry":{"type":"Point","coordinates":[-70.830166,43.019929]},"properties":{"id":"ora-nh-138","name":"95 SS, MM 10.0","state":"NH","provider":"NH DOT (NewEngland511)","hls":null,"snapshot":"https://www.newengland511.org/map/Cctv/1383","refreshMs":30000,"attribution":"Ora (Warner Varnado) · NH DOT (NewEngland511)"}},{"type":"Feature","geometry":{"type":"Point","coordinates":[-70.879323,42.895272]},"properties":{"id":"ora-nh-139","name":"95 SN, MM 1.0","state":"NH","provider":"NH DOT (NewEngland511)","hls":null,"snapshot":"https://www.newengland511.org/map/Cctv/1384","refreshMs":30000,"attribution":"Ora (Warner Varnado) · NH DOT (NewEngland511)"}},{"type":"Feature","geometry":{"type":"Point","coordinates":[-70.768153,43.092324]},"properties":{"id":"ora-nh-140","name":"95 High Level BRG SW","state":"NH","provider":"NH DOT (NewEngland511)","hls":null,"snapshot":"https://www.newengland511.org/map/Cctv/1385","refreshMs":30000,"attribution":"Ora (Warner Varnado) · NH DOT (NewEngland511)"}},{"type":"Feature","geometry":{"type":"Point","coordinates":[-70.767386,43.091721]},"properties":{"id":"ora-nh-141","name":"95 High Level BRG SE","state":"NH","provider":"NH DOT (NewEngland511)","hls":null,"snapshot":"https://www.newengland511.org/map/Cctv/1386","refreshMs":30000,"attribution":"Ora (Warner Varnado) · NH DOT (NewEngland511)"}},{"type":"Feature","geometry":{"type":"Point","coordinates":[-70.765149,43.093822]},"properties":{"id":"ora-nh-142","name":"95 High Level BRG NW","state":"NH","provider":"NH DOT (NewEngland511)","hls":null,"snapshot":"https://www.newengland511.org/map/Cctv/1387","refreshMs":30000,"attribution":"Ora (Warner Varnado) · NH DOT (NewEngland511)"}},{"type":"Feature","geometry":{"type":"Point","coordinates":[-70.764698,43.093321]},"properties":{"id":"ora-nh-143","name":"95 High Level BRG NE","state":"NH","provider":"NH DOT (NewEngland511)","hls":null,"snapshot":"https://www.newengland511.org/map/Cctv/1388","refreshMs":30000,"attribution":"Ora (Warner Varnado) · NH DOT (NewEngland511)"}},{"type":"Feature","geometry":{"type":"Point","coordinates":[-71.675705,43.971291]},"properties":{"id":"ora-nh-144","name":"93 S, MM 95.9, RWIS Station","state":"NH","provider":"NH DOT (NewEngland511)","hls":null,"snapshot":"https://www.newengland511.org/map/Cctv/1389","refreshMs":30000,"attribution":"Ora (Warner Varnado) · NH DOT (NewEngland511)"}},{"type":"Feature","geometry":{"type":"Point","coordinates":[-71.651168,43.711878]},"properties":{"id":"ora-nh-145","name":"93 S, MM 76.2, RWIS Station","state":"NH","provider":"NH DOT (NewEngland511)","hls":null,"snapshot":"https://www.newengland511.org/map/Cctv/1390","refreshMs":30000,"attribution":"Ora (Warner Varnado) · NH DOT (NewEngland511)"}},{"type":"Feature","geometry":{"type":"Point","coordinates":[-71.289124,42.820619]},"properties":{"id":"ora-nh-146","name":"93 S, MM 7.2","state":"NH","provider":"NH DOT (NewEngland511)","hls":null,"snapshot":"https://www.newengland511.org/map/Cctv/1391","refreshMs":30000,"attribution":"Ora (Warner Varnado) · NH DOT (NewEngland511)"}},{"type":"Feature","geometry":{"type":"Point","coordinates":[-71.5987,43.49211]},"properties":{"id":"ora-nh-147","name":"93 S, MM 60, RWIS Station","state":"NH","provider":"NH DOT (NewEngland511)","hls":null,"snapshot":"https://www.newengland511.org/map/Cctv/1392","refreshMs":30000,"attribution":"Ora (Warner Varnado) · NH DOT (NewEngland511)"}},{"type":"Feature","geometry":{"type":"Point","coordinates":[-71.272902,42.808278]},"properties":{"id":"ora-nh-148","name":"93 S, MM 6.0","state":"NH","provider":"NH DOT (NewEngland511)","hls":null,"snapshot":"https://www.newengland511.org/map/Cctv/1393","refreshMs":30000,"attribution":"Ora (Warner Varnado) · NH DOT (NewEngland511)"}},{"type":"Feature","geometry":{"type":"Point","coordinates":[-71.531124,43.171648]},"properties":{"id":"ora-nh-149","name":"93 S, MM 35.6","state":"NH","provider":"NH DOT (NewEngland511)","hls":null,"snapshot":"https://www.newengland511.org/map/Cctv/1394","refreshMs":30000,"attribution":"Ora (Warner Varnado) · NH DOT (NewEngland511)"}},{"type":"Feature","geometry":{"type":"Point","coordinates":[-71.255828,42.783096]},"properties":{"id":"ora-nh-150","name":"93 S MM 3.8","state":"NH","provider":"NH DOT (NewEngland511)","hls":null,"snapshot":"https://www.newengland511.org/map/Cctv/1395","refreshMs":30000,"attribution":"Ora (Warner Varnado) · NH DOT (NewEngland511)"}},{"type":"Feature","geometry":{"type":"Point","coordinates":[-71.238262,42.765672]},"properties":{"id":"ora-nh-151","name":"93 SS, MM 2.1","state":"NH","provider":"NH DOT (NewEngland511)","hls":null,"snapshot":"https://www.newengland511.org/map/Cctv/1396","refreshMs":30000,"attribution":"Ora (Warner Varnado) · NH DOT (NewEngland511)"}},{"type":"Feature","geometry":{"type":"Point","coordinates":[-71.371865,42.916222]},"properties":{"id":"ora-nh-152","name":"93 S, MM 15.3","state":"NH","provider":"NH DOT (NewEngland511)","hls":null,"snapshot":"https://www.newengland511.org/map/Cctv/1397","refreshMs":30000,"attribution":"Ora (Warner Varnado) · NH DOT (NewEngland511)"}},{"type":"Feature","geometry":{"type":"Point","coordinates":[-71.874414,44.329871]},"properties":{"id":"ora-nh-153","name":"93 S, MM 130.4 , RWIS Station","state":"NH","provider":"NH DOT (NewEngland511)","hls":null,"snapshot":"https://www.newengland511.org/map/Cctv/1398","refreshMs":30000,"attribution":"Ora (Warner Varnado) · NH DOT (NewEngland511)"}},{"type":"Feature","geometry":{"type":"Point","coordinates":[-71.757609,44.238573]},"properties":{"id":"ora-nh-154","name":"93 S, MM 117.6","state":"NH","provider":"NH DOT (NewEngland511)","hls":null,"snapshot":"https://www.newengland511.org/map/Cctv/1399","refreshMs":30000,"attribution":"Ora (Warner Varnado) · NH DOT (NewEngland511)"}},{"type":"Feature","geometry":{"type":"Point","coordinates":[-71.68888,44.182742]},"properties":{"id":"ora-nh-155","name":"93 S, MM 111.4","state":"NH","provider":"NH DOT (NewEngland511)","hls":null,"snapshot":"https://www.newengland511.org/map/Cctv/1400","refreshMs":30000,"attribution":"Ora (Warner Varnado) · NH DOT (NewEngland511)"}},{"type":"Feature","geometry":{"type":"Point","coordinates":[-71.334221,42.861197]},"properties":{"id":"ora-nh-156","name":"93 S, MM 11.0","state":"NH","provider":"NH DOT (NewEngland511)","hls":null,"snapshot":"https://www.newengland511.org/map/Cctv/1401","refreshMs":30000,"attribution":"Ora (Warner Varnado) · NH DOT (NewEngland511)"}},{"type":"Feature","geometry":{"type":"Point","coordinates":[-71.682195,44.143426]},"properties":{"id":"ora-nh-157","name":"93 S, MM 108.2","state":"NH","provider":"NH DOT (NewEngland511)","hls":null,"snapshot":"https://www.newengland511.org/map/Cctv/1402","refreshMs":30000,"attribution":"Ora (Warner Varnado) · NH DOT (NewEngland511)"}},{"type":"Feature","geometry":{"type":"Point","coordinates":[-71.676638,44.021396]},"properties":{"id":"ora-nh-158","name":"93 N, MM 99.6","state":"NH","provider":"NH DOT (NewEngland511)","hls":null,"snapshot":"https://www.newengland511.org/map/Cctv/1403","refreshMs":30000,"attribution":"Ora (Warner Varnado) · NH DOT (NewEngland511)"}},{"type":"Feature","geometry":{"type":"Point","coordinates":[-71.289145,42.824506]},"properties":{"id":"ora-nh-159","name":"93 N, MM 7.5","state":"NH","provider":"NH DOT (NewEngland511)","hls":null,"snapshot":"https://www.newengland511.org/map/Cctv/1404","refreshMs":30000,"attribution":"Ora (Warner Varnado) · NH DOT (NewEngland511)"}},{"type":"Feature","geometry":{"type":"Point","coordinates":[-71.609557,43.373951]},"properties":{"id":"ora-nh-160","name":"93 N, MM 50.8","state":"NH","provider":"NH DOT (NewEngland511)","hls":null,"snapshot":"https://www.newengland511.org/map/Cctv/1405","refreshMs":30000,"attribution":"Ora (Warner Varnado) · NH DOT (NewEngland511)"}},{"type":"Feature","geometry":{"type":"Point","coordinates":[-71.520266,43.16423]},"properties":{"id":"ora-nh-161","name":"93 N, MM 34.8","state":"NH","provider":"NH DOT (NewEngland511)","hls":null,"snapshot":"https://www.newengland511.org/map/Cctv/1406","refreshMs":30000,"attribution":"Ora (Warner Varnado) · NH DOT (NewEngland511)"}},{"type":"Feature","geometry":{"type":"Point","coordinates":[-71.507076,43.154567]},"properties":{"id":"ora-nh-162","name":"93 N, MM 33.8","state":"NH","provider":"NH DOT (NewEngland511)","hls":null,"snapshot":"https://www.newengland511.org/map/Cctv/1407","refreshMs":30000,"attribution":"Ora (Warner Varnado) · NH DOT (NewEngland511)"}},{"type":"Feature","geometry":{"type":"Point","coordinates":[-71.23691,42.765641]},"properties":{"id":"ora-nh-163","name":"93 SN, MM 2.1","state":"NH","provider":"NH DOT (NewEngland511)","hls":null,"snapshot":"https://www.newengland511.org/map/Cctv/1408","refreshMs":30000,"attribution":"Ora (Warner Varnado) · NH DOT (NewEngland511)"}},{"type":"Feature","geometry":{"type":"Point","coordinates":[-71.688,44.062]},"properties":{"id":"ora-nh-164","name":"93 N, MM 102.6, RWIS Station","state":"NH","provider":"NH DOT (NewEngland511)","hls":null,"snapshot":"https://www.newengland511.org/map/Cctv/1409","refreshMs":30000,"attribution":"Ora (Warner Varnado) · NH DOT (NewEngland511)"}},{"type":"Feature","geometry":{"type":"Point","coordinates":[-71.23365,42.762018]},"properties":{"id":"ora-nh-165","name":"93 N, MM 1.8","state":"NH","provider":"NH DOT (NewEngland511)","hls":null,"snapshot":"https://www.newengland511.org/map/Cctv/1410","refreshMs":30000,"attribution":"Ora (Warner Varnado) · NH DOT (NewEngland511)"}},{"type":"Feature","geometry":{"type":"Point","coordinates":[-71.403443,42.95439]},"properties":{"id":"ora-nh-166","name":"93 M, MM 18.4","state":"NH","provider":"NH DOT (NewEngland511)","hls":null,"snapshot":"https://www.newengland511.org/map/Cctv/1411","refreshMs":30000,"attribution":"Ora (Warner Varnado) · NH DOT (NewEngland511)"}},{"type":"Feature","geometry":{"type":"Point","coordinates":[-71.838514,43.291855]},"properties":{"id":"ora-nh-167","name":"89 S, MM 20.2","state":"NH","provider":"NH DOT (NewEngland511)","hls":null,"snapshot":"https://www.newengland511.org/map/Cctv/1412","refreshMs":30000,"attribution":"Ora (Warner Varnado) · NH DOT (NewEngland511)"}},{"type":"Feature","geometry":{"type":"Point","coordinates":[-72.102455,43.467963]},"properties":{"id":"ora-nh-168","name":"89 N, MM 39.6 RWIS Station","state":"NH","provider":"NH DOT (NewEngland511)","hls":null,"snapshot":"https://www.newengland511.org/map/Cctv/1413","refreshMs":30000,"attribution":"Ora (Warner Varnado) · NH DOT (NewEngland511)"}},{"type":"Feature","geometry":{"type":"Point","coordinates":[-70.852804,43.129929]},"properties":{"id":"ora-nh-169","name":"4 W, MM 101.6","state":"NH","provider":"NH DOT (NewEngland511)","hls":null,"snapshot":"https://www.newengland511.org/map/Cctv/1414","refreshMs":30000,"attribution":"Ora (Warner Varnado) · NH DOT (NewEngland511)"}},{"type":"Feature","geometry":{"type":"Point","coordinates":[-71.479175,43.040649]},"properties":{"id":"ora-nh-170","name":"293 S MM 10.4, RWIS Station","state":"NH","provider":"NH DOT (NewEngland511)","hls":null,"snapshot":"https://www.newengland511.org/map/Cctv/1415","refreshMs":30000,"attribution":"Ora (Warner Varnado) · NH DOT (NewEngland511)"}},{"type":"Feature","geometry":{"type":"Point","coordinates":[-71.783058,44.036609]},"properties":{"id":"ora-nh-171","name":"112 N, MM 14.8, RWIS Station","state":"NH","provider":"NH DOT (NewEngland511)","hls":null,"snapshot":"https://www.newengland511.org/map/Cctv/1416","refreshMs":30000,"attribution":"Ora (Warner Varnado) · NH DOT (NewEngland511)"}},{"type":"Feature","geometry":{"type":"Point","coordinates":[-70.753412,43.078113]},"properties":{"id":"ora-nh-172","name":"1 Mem BRG S South","state":"NH","provider":"NH DOT (NewEngland511)","hls":null,"snapshot":"https://www.newengland511.org/map/Cctv/1417","refreshMs":30000,"attribution":"Ora (Warner Varnado) · NH DOT (NewEngland511)"}},{"type":"Feature","geometry":{"type":"Point","coordinates":[-70.752,43.081027]},"properties":{"id":"ora-nh-173","name":"1 Mem BRG N North","state":"NH","provider":"NH DOT (NewEngland511)","hls":null,"snapshot":"https://www.newengland511.org/map/Cctv/1418","refreshMs":30000,"attribution":"Ora (Warner Varnado) · NH DOT (NewEngland511)"}},{"type":"Feature","geometry":{"type":"Point","coordinates":[-71.64463,43.850658]},"properties":{"id":"ora-nh-174","name":"93 NN 86.8 ","state":"NH","provider":"NH DOT (NewEngland511)","hls":null,"snapshot":"https://www.newengland511.org/map/Cctv/1420","refreshMs":30000,"attribution":"Ora (Warner Varnado) · NH DOT (NewEngland511)"}},{"type":"Feature","geometry":{"type":"Point","coordinates":[-71.517959,42.942307]},"properties":{"id":"ora-nh-175","name":"101 E 50.8  - Nashua Road","state":"NH","provider":"NH DOT (NewEngland511)","hls":null,"snapshot":"https://www.newengland511.org/map/Cctv/1841","refreshMs":30000,"attribution":"Ora (Warner Varnado) · NH DOT (NewEngland511)"}},{"type":"Feature","geometry":{"type":"Point","coordinates":[-71.505771,42.957055]},"properties":{"id":"ora-nh-176","name":"101 E 52.1 ??? NH101 / NH114","state":"NH","provider":"NH DOT (NewEngland511)","hls":null,"snapshot":"https://www.newengland511.org/map/Cctv/1842","refreshMs":30000,"attribution":"Ora (Warner Varnado) · NH DOT (NewEngland511)"}},{"type":"Feature","geometry":{"type":"Point","coordinates":[-71.195327,44.39806]},"properties":{"id":"ora-nh-177","name":"NH 16 N 109.6 - US 2 Gorham","state":"NH","provider":"NH DOT (NewEngland511)","hls":null,"snapshot":"https://www.newengland511.org/map/Cctv/2312","refreshMs":30000,"attribution":"Ora (Warner Varnado) · NH DOT (NewEngland511)"}},{"type":"Feature","geometry":{"type":"Point","coordinates":[-71.567628,43.454565]},"properties":{"id":"ora-nh-178","name":"US 3 66.4 - NH 140","state":"NH","provider":"NH DOT (NewEngland511)","hls":null,"snapshot":"https://www.newengland511.org/map/Cctv/2325","refreshMs":30000,"attribution":"Ora (Warner Varnado) · NH DOT (NewEngland511)"}},{"type":"Feature","geometry":{"type":"Point","coordinates":[-71.502259,42.868612]},"properties":{"id":"ora-nh-179","name":"FEE S 13.1 SWZ C-02","state":"NH","provider":"NH DOT (NewEngland511)","hls":null,"snapshot":"https://www.newengland511.org/map/Cctv/2326","refreshMs":30000,"attribution":"Ora (Warner Varnado) · NH DOT (NewEngland511)"}},{"type":"Feature","geometry":{"type":"Point","coordinates":[-71.491149,42.87677]},"properties":{"id":"ora-nh-180","name":"FEE N 13.9 SWZ C-01","state":"NH","provider":"NH DOT (NewEngland511)","hls":null,"snapshot":"https://www.newengland511.org/map/Cctv/2327","refreshMs":30000,"attribution":"Ora (Warner Varnado) · NH DOT (NewEngland511)"}}]}