{"type":"FeatureCollection","features":[{"type":"Feature","geometry":{"type":"Point","coordinates":[-106.244,35.506001]},"properties":{"id":"ora-nm-0","name":"I-25 @ Lower La Bajada","state":"NM","provider":"New Mexico DOT","hls":null,"snapshot":"http://ss.nmroads.com/snapshots/i25_lowerlabajada.jpg","refreshMs":30000,"attribution":"Ora (Warner Varnado) · New Mexico DOT"}},{"type":"Feature","geometry":{"type":"Point","coordinates":[-106.168,35.521]},"properties":{"id":"ora-nm-1","name":"I-25 @ Upper La Bajada","state":"NM","provider":"New Mexico DOT","hls":null,"snapshot":"http://ss.nmroads.com/snapshots/i25_upperlabajada.jpg","refreshMs":30000,"attribution":"Ora (Warner Varnado) · New Mexico DOT"}},{"type":"Feature","geometry":{"type":"Point","coordinates":[-106.545,35.318001]},"properties":{"id":"ora-nm-2","name":"US 550 @ NM 313","state":"NM","provider":"New Mexico DOT","hls":null,"snapshot":"http://ss.nmroads.com/snapshots/us550_nm313.jpg","refreshMs":30000,"attribution":"Ora (Warner Varnado) · New Mexico DOT"}},{"type":"Feature","geometry":{"type":"Point","coordinates":[-106.53457,35.316078]},"properties":{"id":"ora-nm-3","name":"I-25 SB @ US 550","state":"NM","provider":"New Mexico DOT","hls":null,"snapshot":"http://ss.nmroads.com/snapshots/i-25sb_us550.jpg","refreshMs":30000,"attribution":"Ora (Warner Varnado) · New Mexico DOT"}},{"type":"Feature","geometry":{"type":"Point","coordinates":[-108.31265,35.423321]},"properties":{"id":"ora-nm-4","name":"I-40 @ Continental Divide","state":"NM","provider":"New Mexico DOT","hls":null,"snapshot":"http://ss.nmroads.com/snapshots/i40_continentaldivide.jpg","refreshMs":30000,"attribution":"Ora (Warner Varnado) · New Mexico DOT"}},{"type":"Feature","geometry":{"type":"Point","coordinates":[-105.65938,35.008205]},"properties":{"id":"ora-nm-5","name":"I-40 @ Clines Corners","state":"NM","provider":"New Mexico DOT","hls":null,"snapshot":"http://ss.nmroads.com/snapshots/i40clinescorner.jpg","refreshMs":30000,"attribution":"Ora (Warner Varnado) · New Mexico DOT"}},{"type":"Feature","geometry":{"type":"Point","coordinates":[-104.641,34.946999]},"properties":{"id":"ora-nm-6","name":"I-40 @ Santa Rosa East","state":"NM","provider":"New Mexico DOT","hls":null,"snapshot":"http://ss.nmroads.com/snapshots/i40_santarosaeast.jpg","refreshMs":30000,"attribution":"Ora (Warner Varnado) · New Mexico DOT"}},{"type":"Feature","geometry":{"type":"Point","coordinates":[-104.706,34.945999]},"properties":{"id":"ora-nm-7","name":"I-40 @ Santa Rosa West","state":"NM","provider":"New Mexico DOT","hls":null,"snapshot":"http://ss.nmroads.com/snapshots/i40_santarosawest.jpg","refreshMs":30000,"attribution":"Ora (Warner Varnado) · New Mexico DOT"}},{"type":"Feature","geometry":{"type":"Point","coordinates":[-106.668,35.181]},"properties":{"id":"ora-nm-8","name":"Paseo Del Norte @ Coors","state":"NM","provider":"New Mexico DOT","hls":null,"snapshot":"http://ss.nmroads.com/snapshots/pdn_coors.jpg","refreshMs":30000,"attribution":"Ora (Warner Varnado) · New Mexico DOT"}},{"type":"Feature","geometry":{"type":"Point","coordinates":[-106.628,35.179001]},"properties":{"id":"ora-nm-9","name":"Paseo Del Norte @ 4th St","state":"NM","provider":"New Mexico DOT","hls":null,"snapshot":"http://ss.nmroads.com/snapshots/pdn_4th.jpg","refreshMs":30000,"attribution":"Ora (Warner Varnado) · New Mexico DOT"}},{"type":"Feature","geometry":{"type":"Point","coordinates":[-105.188957,34.593368]},"properties":{"id":"ora-nm-10","name":"Vaughn","state":"NM","provider":"New Mexico DOT","hls":null,"snapshot":"http://ss.nmroads.com/snapshots/vaughn.jpg","refreshMs":30000,"attribution":"Ora (Warner Varnado) · New Mexico DOT"}},{"type":"Feature","geometry":{"type":"Point","coordinates":[-103.67529,35.17074]},"properties":{"id":"ora-nm-11","name":"I-40 @ Tucumcari East","state":"NM","provider":"New Mexico DOT","hls":null,"snapshot":"http://ss.nmroads.com/snapshots/i40_tucumcari.jpg","refreshMs":30000,"attribution":"Ora (Warner Varnado) · New Mexico DOT"}},{"type":"Feature","geometry":{"type":"Point","coordinates":[-105.7764,35.591301]},"properties":{"id":"ora-nm-12","name":"I-25 @ Glorieta","state":"NM","provider":"New Mexico DOT","hls":null,"snapshot":"http://ss.nmroads.com/snapshots/i25_glorietapass.jpg","refreshMs":30000,"attribution":"Ora (Warner Varnado) · New Mexico DOT"}},{"type":"Feature","geometry":{"type":"Point","coordinates":[-104.48282,36.98962]},"properties":{"id":"ora-nm-13","name":"I-25 @ Raton Pass","state":"NM","provider":"New Mexico DOT","hls":null,"snapshot":"http://ss.nmroads.com/snapshots/i25_ratonpass.jpg","refreshMs":30000,"attribution":"Ora (Warner Varnado) · New Mexico DOT"}},{"type":"Feature","geometry":{"type":"Point","coordinates":[-107.13556,36.076134]},"properties":{"id":"ora-nm-14","name":"US 550 @ Continental Divide","state":"NM","provider":"New Mexico DOT","hls":null,"snapshot":"http://ss.nmroads.com/snapshots/us550_continentaldivide.jpg","refreshMs":30000,"attribution":"Ora (Warner Varnado) · New Mexico DOT"}},{"type":"Feature","geometry":{"type":"Point","coordinates":[-106.037,35.6048]},"properties":{"id":"ora-nm-15","name":"I-25 SB @ Cerrillos Road","state":"NM","provider":"New Mexico DOT","hls":null,"snapshot":"http://ss.nmroads.com/snapshots/i25_cerrillos.jpg","refreshMs":30000,"attribution":"Ora (Warner Varnado) · New Mexico DOT"}},{"type":"Feature","geometry":{"type":"Point","coordinates":[-106.02326,35.890781]},"properties":{"id":"ora-nm-16","name":"US 285 @ Pojoaque","state":"NM","provider":"New Mexico DOT","hls":null,"snapshot":"http://ss.nmroads.com/snapshots/pojoaque.jpg","refreshMs":30000,"attribution":"Ora (Warner Varnado) · New Mexico DOT"}},{"type":"Feature","geometry":{"type":"Point","coordinates":[-106.636,35.083]},"properties":{"id":"ora-nm-17","name":"I-25NB @ Central","state":"NM","provider":"New Mexico DOT","hls":null,"snapshot":"http://ss.nmroads.com/snapshots/i25nbcentral.jpg","refreshMs":30000,"attribution":"Ora (Warner Varnado) · New Mexico DOT"}},{"type":"Feature","geometry":{"type":"Point","coordinates":[-106.628156,35.107995]},"properties":{"id":"ora-nm-18","name":"I-25 @ N of Big I","state":"NM","provider":"New Mexico DOT","hls":null,"snapshot":"http://ss.nmroads.com/snapshots/i-25n_bigi.jpg","refreshMs":30000,"attribution":"Ora (Warner Varnado) · New Mexico DOT"}},{"type":"Feature","geometry":{"type":"Point","coordinates":[-106.58755,35.103828]},"properties":{"id":"ora-nm-19","name":"I-40 @ San Mateo","state":"NM","provider":"New Mexico DOT","hls":null,"snapshot":"http://ss.nmroads.com/snapshots/i-40_sanmateo.jpg","refreshMs":30000,"attribution":"Ora (Warner Varnado) · New Mexico DOT"}},{"type":"Feature","geometry":{"type":"Point","coordinates":[-106.5955,35.103981]},"properties":{"id":"ora-nm-20","name":"I-40 @ Washington","state":"NM","provider":"New Mexico DOT","hls":null,"snapshot":"http://ss.nmroads.com/snapshots/i-40_washington.jpg","refreshMs":30000,"attribution":"Ora (Warner Varnado) · New Mexico DOT"}},{"type":"Feature","geometry":{"type":"Point","coordinates":[-106.57841,35.196884]},"properties":{"id":"ora-nm-21","name":"I-25 @ S of Tramway","state":"NM","provider":"New Mexico DOT","hls":null,"snapshot":"http://ss.nmroads.com/snapshots/i-25s_tramway.jpg","refreshMs":30000,"attribution":"Ora (Warner Varnado) · New Mexico DOT"}},{"type":"Feature","geometry":{"type":"Point","coordinates":[-105.95575,35.635273]},"properties":{"id":"ora-nm-22","name":"I-25 SB @ St. Francis Dr.","state":"NM","provider":"New Mexico DOT","hls":null,"snapshot":"http://ss.nmroads.com/snapshots/i25sb_stfrancis.jpg","refreshMs":30000,"attribution":"Ora (Warner Varnado) · New Mexico DOT"}},{"type":"Feature","geometry":{"type":"Point","coordinates":[-106.63828,35.023491]},"properties":{"id":"ora-nm-23","name":"I-25 @ Rio Bravo","state":"NM","provider":"New Mexico DOT","hls":null,"snapshot":"http://ss.nmroads.com/snapshots/i-25_riobravo.jpg","refreshMs":30000,"attribution":"Ora (Warner Varnado) · New Mexico DOT"}},{"type":"Feature","geometry":{"type":"Point","coordinates":[-106.63781,35.0476]},"properties":{"id":"ora-nm-24","name":"I-25 @ Sunport","state":"NM","provider":"New Mexico DOT","hls":null,"snapshot":"http://ss.nmroads.com/snapshots/i-25_sunport.jpg","refreshMs":30000,"attribution":"Ora (Warner Varnado) · New Mexico DOT"}},{"type":"Feature","geometry":{"type":"Point","coordinates":[-106.64335,35.182758]},"properties":{"id":"ora-nm-25","name":"Paseo Del Norte @ Rio Grande Blvd","state":"NM","provider":"New Mexico DOT","hls":null,"snapshot":"http://ss.nmroads.com/snapshots/pdnriogrande.jpg","refreshMs":30000,"attribution":"Ora (Warner Varnado) · New Mexico DOT"}},{"type":"Feature","geometry":{"type":"Point","coordinates":[-106.69275,35.1063]},"properties":{"id":"ora-nm-26","name":"I-40 @ Rio Grande River","state":"NM","provider":"New Mexico DOT","hls":null,"snapshot":"http://ss.nmroads.com/snapshots/i-40RioGrandeRiver.jpg","refreshMs":30000,"attribution":"Ora (Warner Varnado) · New Mexico DOT"}},{"type":"Feature","geometry":{"type":"Point","coordinates":[-106.62186,35.12381]},"properties":{"id":"ora-nm-27","name":"I-25 @ Comanche","state":"NM","provider":"New Mexico DOT","hls":null,"snapshot":"http://ss.nmroads.com/snapshots/i-25_comanche.jpg","refreshMs":30000,"attribution":"Ora (Warner Varnado) · New Mexico DOT"}},{"type":"Feature","geometry":{"type":"Point","coordinates":[-106.5871,35.160198]},"properties":{"id":"ora-nm-28","name":"I-25 @ San Antonio","state":"NM","provider":"New Mexico DOT","hls":null,"snapshot":"http://ss.nmroads.com/snapshots/i-25_sanantonio.jpg","refreshMs":30000,"attribution":"Ora (Warner Varnado) · New Mexico DOT"}},{"type":"Feature","geometry":{"type":"Point","coordinates":[-106.53216,35.08437]},"properties":{"id":"ora-nm-29","name":"I-40 @ Eubank","state":"NM","provider":"New Mexico DOT","hls":null,"snapshot":"http://ss.nmroads.com/snapshots/i-40_eubank.jpg","refreshMs":30000,"attribution":"Ora (Warner Varnado) · New Mexico DOT"}},{"type":"Feature","geometry":{"type":"Point","coordinates":[-106.58856,35.153252]},"properties":{"id":"ora-nm-30","name":"I-25 @ San Mateo","state":"NM","provider":"New Mexico DOT","hls":null,"snapshot":"http://ss.nmroads.com/snapshots/i25sanmateo.jpg","refreshMs":30000,"attribution":"Ora (Warner Varnado) · New Mexico DOT"}},{"type":"Feature","geometry":{"type":"Point","coordinates":[-106.58386,35.17429]},"properties":{"id":"ora-nm-31","name":"I-25 @ Paseo Del Norte","state":"NM","provider":"New Mexico DOT","hls":null,"snapshot":"http://ss.nmroads.com/snapshots/i-25_pdn.jpg","refreshMs":30000,"attribution":"Ora (Warner Varnado) · New Mexico DOT"}},{"type":"Feature","geometry":{"type":"Point","coordinates":[-106.78721,35.064919]},"properties":{"id":"ora-nm-32","name":"I-40 @ Atrisco Vista","state":"NM","provider":"New Mexico DOT","hls":null,"snapshot":"http://ss.nmroads.com/snapshots/i40atriscovista.jpg","refreshMs":30000,"attribution":"Ora (Warner Varnado) · New Mexico DOT"}},{"type":"Feature","geometry":{"type":"Point","coordinates":[-106.7,35.106571]},"properties":{"id":"ora-nm-33","name":"Coors @ Atrisco","state":"NM","provider":"New Mexico DOT","hls":null,"snapshot":"http://ss.nmroads.com/snapshots/coors_atrisco.jpg","refreshMs":30000,"attribution":"Ora (Warner Varnado) · New Mexico DOT"}},{"type":"Feature","geometry":{"type":"Point","coordinates":[-106.7045,35.106598]},"properties":{"id":"ora-nm-34","name":"I-40 @ Coors","state":"NM","provider":"New Mexico DOT","hls":null,"snapshot":"http://ss.nmroads.com/snapshots/i-40_coors.jpg","refreshMs":30000,"attribution":"Ora (Warner Varnado) · New Mexico DOT"}},{"type":"Feature","geometry":{"type":"Point","coordinates":[-106.61685,35.107796]},"properties":{"id":"ora-nm-35","name":"I-40 @ University","state":"NM","provider":"New Mexico DOT","hls":null,"snapshot":"http://ss.nmroads.com/snapshots/i-40_university.jpg","refreshMs":30000,"attribution":"Ora (Warner Varnado) · New Mexico DOT"}},{"type":"Feature","geometry":{"type":"Point","coordinates":[-106.56889,35.097527]},"properties":{"id":"ora-nm-36","name":"I-40 @ Louisiana","state":"NM","provider":"New Mexico DOT","hls":null,"snapshot":"http://ss.nmroads.com/snapshots/i-40_louisiana.jpg","refreshMs":30000,"attribution":"Ora (Warner Varnado) · New Mexico DOT"}},{"type":"Feature","geometry":{"type":"Point","coordinates":[-106.6379,35.059101]},"properties":{"id":"ora-nm-37","name":"I-25 @ Gibson","state":"NM","provider":"New Mexico DOT","hls":null,"snapshot":"http://ss.nmroads.com/snapshots/i-25_gibson.jpg","refreshMs":30000,"attribution":"Ora (Warner Varnado) · New Mexico DOT"}},{"type":"Feature","geometry":{"type":"Point","coordinates":[-106.49289,35.06776]},"properties":{"id":"ora-nm-38","name":"I-40 @ Tramway Onramp","state":"NM","provider":"New Mexico DOT","hls":null,"snapshot":"http://ss.nmroads.com/snapshots/i-40_tramway_onramp.jpg","refreshMs":30000,"attribution":"Ora (Warner Varnado) · New Mexico DOT"}},{"type":"Feature","geometry":{"type":"Point","coordinates":[-106.634,35.105]},"properties":{"id":"ora-nm-39","name":"I-40 @ I-25","state":"NM","provider":"New Mexico DOT","hls":null,"snapshot":"http://ss.nmroads.com/snapshots/i40-i25gore-eb.jpg","refreshMs":30000,"attribution":"Ora (Warner Varnado) · New Mexico DOT"}},{"type":"Feature","geometry":{"type":"Point","coordinates":[-106.63956,35.06982]},"properties":{"id":"ora-nm-40","name":"I-25 @ Cesar Chavez","state":"NM","provider":"New Mexico DOT","hls":null,"snapshot":"http://ss.nmroads.com/snapshots/i-25_cesarchavez.jpg","refreshMs":30000,"attribution":"Ora (Warner Varnado) · New Mexico DOT"}},{"type":"Feature","geometry":{"type":"Point","coordinates":[-106.60971,35.132748]},"properties":{"id":"ora-nm-41","name":"I-25 @ Montgomery","state":"NM","provider":"New Mexico DOT","hls":null,"snapshot":"http://ss.nmroads.com/snapshots/i-25_montgomery.jpg","refreshMs":30000,"attribution":"Ora (Warner Varnado) · New Mexico DOT"}},{"type":"Feature","geometry":{"type":"Point","coordinates":[-106.55068,35.089928]},"properties":{"id":"ora-nm-42","name":"I-40 @ Wyoming","state":"NM","provider":"New Mexico DOT","hls":null,"snapshot":"http://ss.nmroads.com/snapshots/i-40_wyoming.jpg","refreshMs":30000,"attribution":"Ora (Warner Varnado) · New Mexico DOT"}},{"type":"Feature","geometry":{"type":"Point","coordinates":[-106.63457,35.091244]},"properties":{"id":"ora-nm-43","name":"I-25 @ Lomas","state":"NM","provider":"New Mexico DOT","hls":null,"snapshot":"http://ss.nmroads.com/snapshots/i25lomas.jpg","refreshMs":30000,"attribution":"Ora (Warner Varnado) · New Mexico DOT"}},{"type":"Feature","geometry":{"type":"Point","coordinates":[-106.59502,35.141708]},"properties":{"id":"ora-nm-44","name":"I-25 @ Jefferson","state":"NM","provider":"New Mexico DOT","hls":null,"snapshot":"http://ss.nmroads.com/snapshots/i-25_jefferson.jpg","refreshMs":30000,"attribution":"Ora (Warner Varnado) · New Mexico DOT"}},{"type":"Feature","geometry":{"type":"Point","coordinates":[-106.60422,35.105026]},"properties":{"id":"ora-nm-45","name":"I-40 @ Carlisle","state":"NM","provider":"New Mexico DOT","hls":null,"snapshot":"http://ss.nmroads.com/snapshots/i-40_carlisle.jpg","refreshMs":30000,"attribution":"Ora (Warner Varnado) · New Mexico DOT"}},{"type":"Feature","geometry":{"type":"Point","coordinates":[-106.73,35.094109]},"properties":{"id":"ora-nm-46","name":"I-40 @ Unser","state":"NM","provider":"New Mexico DOT","hls":null,"snapshot":"http://ss.nmroads.com/snapshots/i40unser.jpg","refreshMs":30000,"attribution":"Ora (Warner Varnado) · New Mexico DOT"}},{"type":"Feature","geometry":{"type":"Point","coordinates":[-106.74665,35.085773]},"properties":{"id":"ora-nm-47","name":"I-40 @ 98th St","state":"NM","provider":"New Mexico DOT","hls":null,"snapshot":"http://ss.nmroads.com/snapshots/I40-98th.jpg","refreshMs":30000,"attribution":"Ora (Warner Varnado) · New Mexico DOT"}},{"type":"Feature","geometry":{"type":"Point","coordinates":[-106.67075,35.105148]},"properties":{"id":"ora-nm-48","name":"I-40 @ Rio Grande Blvd","state":"NM","provider":"New Mexico DOT","hls":null,"snapshot":"http://ss.nmroads.com/snapshots/i-40_riograndeblvd.jpg","refreshMs":30000,"attribution":"Ora (Warner Varnado) · New Mexico DOT"}},{"type":"Feature","geometry":{"type":"Point","coordinates":[-106.65823,35.10627]},"properties":{"id":"ora-nm-49","name":"I-40 @ 12th St","state":"NM","provider":"New Mexico DOT","hls":null,"snapshot":"http://ss.nmroads.com/snapshots/i-40_12st.jpg","refreshMs":30000,"attribution":"Ora (Warner Varnado) · New Mexico DOT"}},{"type":"Feature","geometry":{"type":"Point","coordinates":[-106.64751,35.106171]},"properties":{"id":"ora-nm-50","name":"I-40 @ 4th St","state":"NM","provider":"New Mexico DOT","hls":null,"snapshot":"http://ss.nmroads.com/snapshots/i40-4th.jpg","refreshMs":30000,"attribution":"Ora (Warner Varnado) · New Mexico DOT"}},{"type":"Feature","geometry":{"type":"Point","coordinates":[-106.51483,35.076199]},"properties":{"id":"ora-nm-51","name":"I-40 EB @ Juan Tabo","state":"NM","provider":"New Mexico DOT","hls":null,"snapshot":"http://ss.nmroads.com/snapshots/i-40eb_juantabo.jpg","refreshMs":30000,"attribution":"Ora (Warner Varnado) · New Mexico DOT"}},{"type":"Feature","geometry":{"type":"Point","coordinates":[-106.515334,35.077207]},"properties":{"id":"ora-nm-52","name":"I-40 WB @ Juan Tabo","state":"NM","provider":"New Mexico DOT","hls":null,"snapshot":"http://ss.nmroads.com/snapshots/i-40wb_juantabo.jpg","refreshMs":30000,"attribution":"Ora (Warner Varnado) · New Mexico DOT"}},{"type":"Feature","geometry":{"type":"Point","coordinates":[-106.57683,35.204189]},"properties":{"id":"ora-nm-53","name":"I-25 @ Tramway","state":"NM","provider":"New Mexico DOT","hls":null,"snapshot":"http://ss.nmroads.com/snapshots/i-25nb_tramway.jpg","refreshMs":30000,"attribution":"Ora (Warner Varnado) · New Mexico DOT"}},{"type":"Feature","geometry":{"type":"Point","coordinates":[-106.55954,35.093739]},"properties":{"id":"ora-nm-54","name":"I-40 @ Pennsylvania","state":"NM","provider":"New Mexico DOT","hls":null,"snapshot":"http://ss.nmroads.com/snapshots/i40pennsylvania.jpg","refreshMs":30000,"attribution":"Ora (Warner Varnado) · New Mexico DOT"}},{"type":"Feature","geometry":{"type":"Point","coordinates":[-106.63746,35.078548]},"properties":{"id":"ora-nm-55","name":"I-25 @ Coal","state":"NM","provider":"New Mexico DOT","hls":null,"snapshot":"http://ss.nmroads.com/snapshots/i-25_coal.jpg","refreshMs":30000,"attribution":"Ora (Warner Varnado) · New Mexico DOT"}},{"type":"Feature","geometry":{"type":"Point","coordinates":[-106.42228,35.066101]},"properties":{"id":"ora-nm-56","name":"I-40 @ Carnuel","state":"NM","provider":"New Mexico DOT","hls":null,"snapshot":"http://ss.nmroads.com/snapshots/i-40_carnuel.jpg","refreshMs":30000,"attribution":"Ora (Warner Varnado) · New Mexico DOT"}},{"type":"Feature","geometry":{"type":"Point","coordinates":[-106.38063,35.085304]},"properties":{"id":"ora-nm-57","name":"I-40 @ NM 14","state":"NM","provider":"New Mexico DOT","hls":null,"snapshot":"http://ss.nmroads.com/snapshots/i-40_nm14.jpg","refreshMs":30000,"attribution":"Ora (Warner Varnado) · New Mexico DOT"}},{"type":"Feature","geometry":{"type":"Point","coordinates":[-106.3718,35.092701]},"properties":{"id":"ora-nm-58","name":"I-40 @ Zamora Road","state":"NM","provider":"New Mexico DOT","hls":null,"snapshot":"http://ss.nmroads.com/snapshots/i-40_zamoraroad.jpg","refreshMs":30000,"attribution":"Ora (Warner Varnado) · New Mexico DOT"}},{"type":"Feature","geometry":{"type":"Point","coordinates":[-106.46776,35.063202]},"properties":{"id":"ora-nm-59","name":"I-40 @ Carnuel Overpass","state":"NM","provider":"New Mexico DOT","hls":null,"snapshot":"http://ss.nmroads.com/snapshots/i-40_carnuel_overpass.jpg","refreshMs":30000,"attribution":"Ora (Warner Varnado) · New Mexico DOT"}},{"type":"Feature","geometry":{"type":"Point","coordinates":[-106.283376,35.100554]},"properties":{"id":"ora-nm-60","name":"I-40 EB @ Sedillo","state":"NM","provider":"New Mexico DOT","hls":null,"snapshot":"http://ss.nmroads.com/snapshots/I40SedilloHillExit.jpg","refreshMs":30000,"attribution":"Ora (Warner Varnado) · New Mexico DOT"}},{"type":"Feature","geometry":{"type":"Point","coordinates":[-104.07627,36.75499]},"properties":{"id":"ora-nm-61","name":"US 64/87 @ Capulin","state":"NM","provider":"New Mexico DOT","hls":null,"snapshot":"http://ss.nmroads.com/snapshots/us67_capulin.jpg","refreshMs":30000,"attribution":"Ora (Warner Varnado) · New Mexico DOT"}},{"type":"Feature","geometry":{"type":"Point","coordinates":[-108.95414,32.237061]},"properties":{"id":"ora-nm-62","name":"I-10 @ E of Steins","state":"NM","provider":"New Mexico DOT","hls":null,"snapshot":"http://ss.nmroads.com/snapshots/i10steinseast.jpg","refreshMs":30000,"attribution":"Ora (Warner Varnado) · New Mexico DOT"}},{"type":"Feature","geometry":{"type":"Point","coordinates":[-108.74193,32.352959]},"properties":{"id":"ora-nm-63","name":"I-10 @ W of Lordsburg","state":"NM","provider":"New Mexico DOT","hls":null,"snapshot":"http://ss.nmroads.com/snapshots/i10lordsburgwest.jpg","refreshMs":30000,"attribution":"Ora (Warner Varnado) · New Mexico DOT"}},{"type":"Feature","geometry":{"type":"Point","coordinates":[-108.67968,32.339691]},"properties":{"id":"ora-nm-64","name":"I-10 @ E of Lordsburg","state":"NM","provider":"New Mexico DOT","hls":null,"snapshot":"http://ss.nmroads.com/snapshots/i10lordsburgeast.jpg","refreshMs":30000,"attribution":"Ora (Warner Varnado) · New Mexico DOT"}},{"type":"Feature","geometry":{"type":"Point","coordinates":[-106.86707,32.282341]},"properties":{"id":"ora-nm-65","name":"I-10 @ E of US 70","state":"NM","provider":"New Mexico DOT","hls":null,"snapshot":"http://ss.nmroads.com/snapshots/i10eastus70.jpg","refreshMs":30000,"attribution":"Ora (Warner Varnado) · New Mexico DOT"}},{"type":"Feature","geometry":{"type":"Point","coordinates":[-106.733,32.261501]},"properties":{"id":"ora-nm-66","name":"I-10 / I-25 Interchange I-10","state":"NM","provider":"New Mexico DOT","hls":null,"snapshot":"http://ss.nmroads.com/snapshots/lci25i10.jpg","refreshMs":30000,"attribution":"Ora (Warner Varnado) · New Mexico DOT"}},{"type":"Feature","geometry":{"type":"Point","coordinates":[-106.73,32.261501]},"properties":{"id":"ora-nm-67","name":"I-10 / I-25 Interchange I-25","state":"NM","provider":"New Mexico DOT","hls":null,"snapshot":"http://ss.nmroads.com/snapshots/lci10i25.jpg","refreshMs":30000,"attribution":"Ora (Warner Varnado) · New Mexico DOT"}},{"type":"Feature","geometry":{"type":"Point","coordinates":[-106.8162,35.057732]},"properties":{"id":"ora-nm-68","name":"I-40 West of Atrisco Vista","state":"NM","provider":"New Mexico DOT","hls":null,"snapshot":"http://ss.nmroads.com/snapshots/i-40w_atriscovista.jpg","refreshMs":30000,"attribution":"Ora (Warner Varnado) · New Mexico DOT"}},{"type":"Feature","geometry":{"type":"Point","coordinates":[-106.64917,34.988892]},"properties":{"id":"ora-nm-69","name":"I-25 NB @ Bobby Foster","state":"NM","provider":"New Mexico DOT","hls":null,"snapshot":"http://ss.nmroads.com/snapshots/i-25nb_bobbyfoster.jpg","refreshMs":30000,"attribution":"Ora (Warner Varnado) · New Mexico DOT"}},{"type":"Feature","geometry":{"type":"Point","coordinates":[-106.664561,34.952808]},"properties":{"id":"ora-nm-70","name":"I-25 SB @ Broadway","state":"NM","provider":"New Mexico DOT","hls":null,"snapshot":"http://ss.nmroads.com/snapshots/I25SBBroadaway.jpg","refreshMs":30000,"attribution":"Ora (Warner Varnado) · New Mexico DOT"}},{"type":"Feature","geometry":{"type":"Point","coordinates":[-106.49755,35.086472]},"properties":{"id":"ora-nm-71","name":"Tramway @ Lomas","state":"NM","provider":"New Mexico DOT","hls":null,"snapshot":"http://ss.nmroads.com/snapshots/tramway_lomas.jpg","refreshMs":30000,"attribution":"Ora (Warner Varnado) · New Mexico DOT"}},{"type":"Feature","geometry":{"type":"Point","coordinates":[-106.55362,35.280682]},"properties":{"id":"ora-nm-72","name":"I-25 @ Bernalillo","state":"NM","provider":"New Mexico DOT","hls":null,"snapshot":"http://ss.nmroads.com/snapshots/i-25_bernalillo.jpg","refreshMs":30000,"attribution":"Ora (Warner Varnado) · New Mexico DOT"}},{"type":"Feature","geometry":{"type":"Point","coordinates":[-106.5828,35.178]},"properties":{"id":"ora-nm-73","name":"I-25 @ N of Paseo del Norte","state":"NM","provider":"New Mexico DOT","hls":null,"snapshot":"http://ss.nmroads.com/snapshots/i-25n_pdn.jpg","refreshMs":30000,"attribution":"Ora (Warner Varnado) · New Mexico DOT"}},{"type":"Feature","geometry":{"type":"Point","coordinates":[-106.63014,35.101913]},"properties":{"id":"ora-nm-74","name":"I-25 @ S of Big I","state":"NM","provider":"New Mexico DOT","hls":null,"snapshot":"http://ss.nmroads.com/snapshots/i-25s_bigi.jpg","refreshMs":30000,"attribution":"Ora (Warner Varnado) · New Mexico DOT"}},{"type":"Feature","geometry":{"type":"Point","coordinates":[-106.61762,35.127632]},"properties":{"id":"ora-nm-75","name":"I-25 @ Comanche on Ramp","state":"NM","provider":"New Mexico DOT","hls":null,"snapshot":"http://ss.nmroads.com/snapshots/i-25_comanche_onramp.jpg","refreshMs":30000,"attribution":"Ora (Warner Varnado) · New Mexico DOT"}},{"type":"Feature","geometry":{"type":"Point","coordinates":[-106.63697,35.080009]},"properties":{"id":"ora-nm-76","name":"I-25 @ Lead","state":"NM","provider":"New Mexico DOT","hls":null,"snapshot":"http://ss.nmroads.com/snapshots/i-25_lead.jpg","refreshMs":30000,"attribution":"Ora (Warner Varnado) · New Mexico DOT"}},{"type":"Feature","geometry":{"type":"Point","coordinates":[-106.70341,35.108345]},"properties":{"id":"ora-nm-77","name":"Coors @ N of I-40","state":"NM","provider":"New Mexico DOT","hls":null,"snapshot":"http://ss.nmroads.com/snapshots/coorsn_i40.jpg","refreshMs":30000,"attribution":"Ora (Warner Varnado) · New Mexico DOT"}},{"type":"Feature","geometry":{"type":"Point","coordinates":[-106.70802,35.097546]},"properties":{"id":"ora-nm-78","name":"Coors @ Glenrio","state":"NM","provider":"New Mexico DOT","hls":null,"snapshot":"http://ss.nmroads.com/snapshots/coors_glenrio.jpg","refreshMs":30000,"attribution":"Ora (Warner Varnado) · New Mexico DOT"}},{"type":"Feature","geometry":{"type":"Point","coordinates":[-106.70595,35.103718]},"properties":{"id":"ora-nm-79","name":"Coors @ Iliff","state":"NM","provider":"New Mexico DOT","hls":null,"snapshot":"http://ss.nmroads.com/snapshots/Coors_iliff.jpg","refreshMs":30000,"attribution":"Ora (Warner Varnado) · New Mexico DOT"}},{"type":"Feature","geometry":{"type":"Point","coordinates":[-106.49654,35.069172]},"properties":{"id":"ora-nm-80","name":"I-40 @ Tramway","state":"NM","provider":"New Mexico DOT","hls":null,"snapshot":"http://ss.nmroads.com/snapshots/i-40_tramway.jpg","refreshMs":30000,"attribution":"Ora (Warner Varnado) · New Mexico DOT"}},{"type":"Feature","geometry":{"type":"Point","coordinates":[-106.0652,36.007992]},"properties":{"id":"ora-nm-81","name":"Fairview Dr Espanola","state":"NM","provider":"New Mexico DOT","hls":null,"snapshot":"http://ss.nmroads.com/snapshots/fairviewdr_espanola.jpg","refreshMs":30000,"attribution":"Ora (Warner Varnado) · New Mexico DOT"}},{"type":"Feature","geometry":{"type":"Point","coordinates":[-106.0657,35.988628]},"properties":{"id":"ora-nm-82","name":"Stanley Griegos Bridge Espanola","state":"NM","provider":"New Mexico DOT","hls":null,"snapshot":"http://ss.nmroads.com/snapshots/stanleygriegos_espanola.jpg","refreshMs":30000,"attribution":"Ora (Warner Varnado) · New Mexico DOT"}},{"type":"Feature","geometry":{"type":"Point","coordinates":[-106.06418,35.997879]},"properties":{"id":"ora-nm-83","name":"NM 68 Espanola","state":"NM","provider":"New Mexico DOT","hls":null,"snapshot":"http://ss.nmroads.com/snapshots/nm68_espanola.jpg","refreshMs":30000,"attribution":"Ora (Warner Varnado) · New Mexico DOT"}},{"type":"Feature","geometry":{"type":"Point","coordinates":[-104.43025,36.885101]},"properties":{"id":"ora-nm-84","name":"I-25 @ Raton","state":"NM","provider":"New Mexico DOT","hls":null,"snapshot":"http://ss.nmroads.com/snapshots/i25_raton.jpg","refreshMs":30000,"attribution":"Ora (Warner Varnado) · New Mexico DOT"}},{"type":"Feature","geometry":{"type":"Point","coordinates":[-106.281,35.100498]},"properties":{"id":"ora-nm-85","name":"I-40 @ Sedillo Hill WB","state":"NM","provider":"New Mexico DOT","hls":null,"snapshot":"http://ss.nmroads.com/snapshots/i-40wb_sedillohill.jpg","refreshMs":30000,"attribution":"Ora (Warner Varnado) · New Mexico DOT"}},{"type":"Feature","geometry":{"type":"Point","coordinates":[-106.30463,35.107857]},"properties":{"id":"ora-nm-86","name":"I-40 @ Quarry Rd","state":"NM","provider":"New Mexico DOT","hls":null,"snapshot":"http://ss.nmroads.com/snapshots/i-40_quarryrd.jpg","refreshMs":30000,"attribution":"Ora (Warner Varnado) · New Mexico DOT"}},{"type":"Feature","geometry":{"type":"Point","coordinates":[-106.34878,35.102329]},"properties":{"id":"ora-nm-87","name":"I-40 @ Zuzax","state":"NM","provider":"New Mexico DOT","hls":null,"snapshot":"http://ss.nmroads.com/snapshots/i-40_zuzax.jpg","refreshMs":30000,"attribution":"Ora (Warner Varnado) · New Mexico DOT"}},{"type":"Feature","geometry":{"type":"Point","coordinates":[-106.32838,35.115318]},"properties":{"id":"ora-nm-88","name":"I-40 @ Sunset Canyon","state":"NM","provider":"New Mexico DOT","hls":null,"snapshot":"http://ss.nmroads.com/snapshots/i40-sunsetcanyon.jpg","refreshMs":30000,"attribution":"Ora (Warner Varnado) · New Mexico DOT"}},{"type":"Feature","geometry":{"type":"Point","coordinates":[-108.87,32.29]},"properties":{"id":"ora-nm-89","name":"I-10 Lordsburg @ MM 12","state":"NM","provider":"New Mexico DOT","hls":null,"snapshot":"http://ss.nmroads.com/snapshots/i-10lordsburgmm12.jpg","refreshMs":30000,"attribution":"Ora (Warner Varnado) · New Mexico DOT"}},{"type":"Feature","geometry":{"type":"Point","coordinates":[-108.882322222222,32.2794861111111]},"properties":{"id":"ora-nm-90","name":"I-10 Lordsburg @ MM11","state":"NM","provider":"New Mexico DOT","hls":null,"snapshot":"http://ss.nmroads.com/snapshots/i10lordsburgmm11.jpg","refreshMs":30000,"attribution":"Ora (Warner Varnado) · New Mexico DOT"}},{"type":"Feature","geometry":{"type":"Point","coordinates":[-106.945232,35.032766]},"properties":{"id":"ora-nm-91","name":"I-40 @ Rio Puerco","state":"NM","provider":"New Mexico DOT","hls":null,"snapshot":"http://ss.nmroads.com/snapshots/i-40_riopuerco.jpg","refreshMs":30000,"attribution":"Ora (Warner Varnado) · New Mexico DOT"}},{"type":"Feature","geometry":{"type":"Point","coordinates":[-106.533697,35.316403]},"properties":{"id":"ora-nm-92","name":"I-25 NB @ US-550","state":"NM","provider":"New Mexico DOT","hls":null,"snapshot":"http://ss.nmroads.com/snapshots/I25NBUS550.jpg","refreshMs":30000,"attribution":"Ora (Warner Varnado) · New Mexico DOT"}},{"type":"Feature","geometry":{"type":"Point","coordinates":[-106.625132,35.106425]},"properties":{"id":"ora-nm-93","name":"I-40 West To I-25","state":"NM","provider":"New Mexico DOT","hls":null,"snapshot":"http://ss.nmroads.com/snapshots/i-40w_i25.jpg","refreshMs":30000,"attribution":"Ora (Warner Varnado) · New Mexico DOT"}},{"type":"Feature","geometry":{"type":"Point","coordinates":[-108.489869,35.492]},"properties":{"id":"ora-nm-94","name":"I-40 East @ Exit 36","state":"NM","provider":"New Mexico DOT","hls":null,"snapshot":"http://ss.nmroads.com/snapshots/i40east-exit36.jpg","refreshMs":30000,"attribution":"Ora (Warner Varnado) · New Mexico DOT"}},{"type":"Feature","geometry":{"type":"Point","coordinates":[-107.1712,34.983]},"properties":{"id":"ora-nm-95","name":"I-40 @ NM 6","state":"NM","provider":"New Mexico DOT","hls":null,"snapshot":"http://ss.nmroads.com/snapshots/i40_nm6.jpg","refreshMs":30000,"attribution":"Ora (Warner Varnado) · New Mexico DOT"}},{"type":"Feature","geometry":{"type":"Point","coordinates":[-106.7696,32.3486]},"properties":{"id":"ora-nm-96","name":"I-25 NB @ US 70","state":"NM","provider":"New Mexico DOT","hls":null,"snapshot":"http://ss.nmroads.com/snapshots/i25nb_us70.jpg","refreshMs":30000,"attribution":"Ora (Warner Varnado) · New Mexico DOT"}},{"type":"Feature","geometry":{"type":"Point","coordinates":[-106.77,32.348]},"properties":{"id":"ora-nm-97","name":"I-25 SB @ US 70","state":"NM","provider":"New Mexico DOT","hls":null,"snapshot":"http://ss.nmroads.com/snapshots/i25sb_us70.jpg","refreshMs":30000,"attribution":"Ora (Warner Varnado) · New Mexico DOT"}},{"type":"Feature","geometry":{"type":"Point","coordinates":[-106.65,34.99]},"properties":{"id":"ora-nm-98","name":"I-25 SB @ Bobby Foster","state":"NM","provider":"New Mexico DOT","hls":null,"snapshot":"http://ss.nmroads.com/snapshots/i-25sb_bobbyfoster.jpg","refreshMs":30000,"attribution":"Ora (Warner Varnado) · New Mexico DOT"}},{"type":"Feature","geometry":{"type":"Point","coordinates":[-105.34,36.701]},"properties":{"id":"ora-nm-99","name":"Bobcat Pass","state":"NM","provider":"New Mexico DOT","hls":null,"snapshot":"http://ss.nmroads.com/snapshots/bobcatpass.jpg","refreshMs":30000,"attribution":"Ora (Warner Varnado) · New Mexico DOT"}},{"type":"Feature","geometry":{"type":"Point","coordinates":[-108.76,35.529]},"properties":{"id":"ora-nm-100","name":"I-40 EB 491","state":"NM","provider":"New Mexico DOT","hls":null,"snapshot":"http://ss.nmroads.com/snapshots/i40eb_491gallup.jpg","refreshMs":30000,"attribution":"Ora (Warner Varnado) · New Mexico DOT"}},{"type":"Feature","geometry":{"type":"Point","coordinates":[-108.759,35.529]},"properties":{"id":"ora-nm-101","name":"I-40 WB @ US 491","state":"NM","provider":"New Mexico DOT","hls":null,"snapshot":"http://ss.nmroads.com/snapshots/i40wb_491gallup.jpg","refreshMs":30000,"attribution":"Ora (Warner Varnado) · New Mexico DOT"}},{"type":"Feature","geometry":{"type":"Point","coordinates":[-106.81,32.294]},"properties":{"id":"ora-nm-102","name":"I-10 @ Motel Drive","state":"NM","provider":"New Mexico DOT","hls":null,"snapshot":"http://ss.nmroads.com/snapshots/i10_moteldrive.jpg","refreshMs":30000,"attribution":"Ora (Warner Varnado) · New Mexico DOT"}},{"type":"Feature","geometry":{"type":"Point","coordinates":[-106.593,35.175]},"properties":{"id":"ora-nm-103","name":"Jefferson @ PDN","state":"NM","provider":"New Mexico DOT","hls":null,"snapshot":"http://ss.nmroads.com/snapshots/pdn_jefferson.jpg","refreshMs":30000,"attribution":"Ora (Warner Varnado) · New Mexico DOT"}},{"type":"Feature","geometry":{"type":"Point","coordinates":[-106.670372,32.174077]},"properties":{"id":"ora-nm-104","name":"I-10 @ Mesquite","state":"NM","provider":"New Mexico DOT","hls":null,"snapshot":"http://ss.nmroads.com/snapshots/i10_mesquite.jpg","refreshMs":30000,"attribution":"Ora (Warner Varnado) · New Mexico DOT"}},{"type":"Feature","geometry":{"type":"Point","coordinates":[-106.261363,35.091752]},"properties":{"id":"ora-nm-105","name":"I-40 WB @ Mountain Valley","state":"NM","provider":"New Mexico DOT","hls":null,"snapshot":"http://ss.nmroads.com/snapshots/I40WBMountainView.jpg","refreshMs":30000,"attribution":"Ora (Warner Varnado) · New Mexico DOT"}},{"type":"Feature","geometry":{"type":"Point","coordinates":[-106.262083,35.091157]},"properties":{"id":"ora-nm-106","name":"I-40 EB @ Mountain Valley","state":"NM","provider":"New Mexico DOT","hls":null,"snapshot":"http://ss.nmroads.com/snapshots/i-40eb_mountainview.jpg","refreshMs":30000,"attribution":"Ora (Warner Varnado) · New Mexico DOT"}},{"type":"Feature","geometry":{"type":"Point","coordinates":[-106.118403,35.552654]},"properties":{"id":"ora-nm-107","name":"I-25 NB @ La Cienega","state":"NM","provider":"New Mexico DOT","hls":null,"snapshot":"http://ss.nmroads.com/snapshots/i25_lacienega.jpg","refreshMs":30000,"attribution":"Ora (Warner Varnado) · New Mexico DOT"}},{"type":"Feature","geometry":{"type":"Point","coordinates":[-106.664658,34.952166]},"properties":{"id":"ora-nm-108","name":"I-25 NB @ Broadway","state":"NM","provider":"New Mexico DOT","hls":null,"snapshot":"http://ss.nmroads.com/snapshots/i-25nb_broadway.jpg","refreshMs":30000,"attribution":"Ora (Warner Varnado) · New Mexico DOT"}},{"type":"Feature","geometry":{"type":"Point","coordinates":[-106.156195,35.04999]},"properties":{"id":"ora-nm-109","name":"I-40 EB @ Williams Ranch Road","state":"NM","provider":"New Mexico DOT","hls":null,"snapshot":"http://ss.nmroads.com/snapshots/i-40eb_williamsranchroad.jpg","refreshMs":30000,"attribution":"Ora (Warner Varnado) · New Mexico DOT"}},{"type":"Feature","geometry":{"type":"Point","coordinates":[-106.157257,35.051009]},"properties":{"id":"ora-nm-110","name":"I-40 WB @ Williams Ranch Road","state":"NM","provider":"New Mexico DOT","hls":null,"snapshot":"http://ss.nmroads.com/snapshots/i-40wb_williamsranchroad.jpg","refreshMs":30000,"attribution":"Ora (Warner Varnado) · New Mexico DOT"}},{"type":"Feature","geometry":{"type":"Point","coordinates":[-106.105269,35.02904]},"properties":{"id":"ora-nm-111","name":"I-40 WB @ Martin Road","state":"NM","provider":"New Mexico DOT","hls":null,"snapshot":"http://ss.nmroads.com/snapshots/i-40wb_martinroad.jpg","refreshMs":30000,"attribution":"Ora (Warner Varnado) · New Mexico DOT"}},{"type":"Feature","geometry":{"type":"Point","coordinates":[-106.102791,35.027204]},"properties":{"id":"ora-nm-112","name":"I-40 EB @ Martin Road","state":"NM","provider":"New Mexico DOT","hls":null,"snapshot":"http://ss.nmroads.com/snapshots/i-40eb_martinroad.jpg","refreshMs":30000,"attribution":"Ora (Warner Varnado) · New Mexico DOT"}},{"type":"Feature","geometry":{"type":"Point","coordinates":[-106.072195,35.015537]},"properties":{"id":"ora-nm-113","name":"I-40 WB @ Moriarty West","state":"NM","provider":"New Mexico DOT","hls":null,"snapshot":"http://ss.nmroads.com/snapshots/i-40wb_moriarty_west.jpg","refreshMs":30000,"attribution":"Ora (Warner Varnado) · New Mexico DOT"}},{"type":"Feature","geometry":{"type":"Point","coordinates":[-106.06741,35.013182]},"properties":{"id":"ora-nm-114","name":"I-40 EB @ Moriarty West","state":"NM","provider":"New Mexico DOT","hls":null,"snapshot":"http://ss.nmroads.com/snapshots/i-40eb_moriarty_west.jpg","refreshMs":30000,"attribution":"Ora (Warner Varnado) · New Mexico DOT"}},{"type":"Feature","geometry":{"type":"Point","coordinates":[-106.011369,35.005007]},"properties":{"id":"ora-nm-115","name":"I-40 WB @ Moriarty East","state":"NM","provider":"New Mexico DOT","hls":null,"snapshot":"http://ss.nmroads.com/snapshots/i-40wb_moriarty_east.jpg","refreshMs":30000,"attribution":"Ora (Warner Varnado) · New Mexico DOT"}},{"type":"Feature","geometry":{"type":"Point","coordinates":[-106.020059,35.005642]},"properties":{"id":"ora-nm-116","name":"I-40 EB @ Moriarty East","state":"NM","provider":"New Mexico DOT","hls":null,"snapshot":"http://ss.nmroads.com/snapshots/i40ebmoriartyeast.jpg","refreshMs":30000,"attribution":"Ora (Warner Varnado) · New Mexico DOT"}},{"type":"Feature","geometry":{"type":"Point","coordinates":[-106.213841666667,35.0716638888889]},"properties":{"id":"ora-nm-117","name":"I-40 @ West of Edgewood","state":"NM","provider":"New Mexico DOT","hls":null,"snapshot":"http://ss.nmroads.com/snapshots/i-40_west_edgewood.jpg","refreshMs":30000,"attribution":"Ora (Warner Varnado) · New Mexico DOT"}},{"type":"Feature","geometry":{"type":"Point","coordinates":[-106.577766666667,35.1014805555556]},"properties":{"id":"ora-nm-118","name":"I-40 WB @ San Pedro","state":"NM","provider":"New Mexico DOT","hls":null,"snapshot":"http://ss.nmroads.com/snapshots/i40wb_sanpedro.jpg","refreshMs":30000,"attribution":"Ora (Warner Varnado) · New Mexico DOT"}},{"type":"Feature","geometry":{"type":"Point","coordinates":[-106.578017,35.10122]},"properties":{"id":"ora-nm-119","name":"I-40 EB @ San Pedro","state":"NM","provider":"New Mexico DOT","hls":null,"snapshot":"http://ss.nmroads.com/snapshots/i40eb_sanpedro.jpg","refreshMs":30000,"attribution":"Ora (Warner Varnado) · New Mexico DOT"}},{"type":"Feature","geometry":{"type":"Point","coordinates":[-106.76146666666666,34.81476388888888]},"properties":{"id":"ora-nm-120","name":"I-25 SB @ NM 6","state":"NM","provider":"New Mexico DOT","hls":null,"snapshot":"http://ss.nmroads.com/snapshots/i-25sb_nm6.jpg","refreshMs":30000,"attribution":"Ora (Warner Varnado) · New Mexico DOT"}},{"type":"Feature","geometry":{"type":"Point","coordinates":[-106.693480555556,34.94845]},"properties":{"id":"ora-nm-121","name":"I-25 @ Isleta Blvd","state":"NM","provider":"New Mexico DOT","hls":null,"snapshot":"http://ss.nmroads.com/snapshots/i-25_nm314.jpg","refreshMs":30000,"attribution":"Ora (Warner Varnado) · New Mexico DOT"}},{"type":"Feature","geometry":{"type":"Point","coordinates":[-106.74223611111111,34.85782777777778]},"properties":{"id":"ora-nm-122","name":"I-25 SB @ BIA 105","state":"NM","provider":"New Mexico DOT","hls":null,"snapshot":"http://ss.nmroads.com/snapshots/i-25sb_bia105.jpg","refreshMs":30000,"attribution":"Ora (Warner Varnado) · New Mexico DOT"}},{"type":"Feature","geometry":{"type":"Point","coordinates":[-106.741619444444,34.8574805555556]},"properties":{"id":"ora-nm-123","name":"I-25 NB @ BIA 105","state":"NM","provider":"New Mexico DOT","hls":null,"snapshot":"http://ss.nmroads.com/snapshots/i-25nb_bia105.jpg","refreshMs":30000,"attribution":"Ora (Warner Varnado) · New Mexico DOT"}},{"type":"Feature","geometry":{"type":"Point","coordinates":[-106.760561111111,34.8143888888889]},"properties":{"id":"ora-nm-124","name":"I-25 NB @ NM 6","state":"NM","provider":"New Mexico DOT","hls":null,"snapshot":"http://ss.nmroads.com/snapshots/i-25nb_nm6.jpg","refreshMs":30000,"attribution":"Ora (Warner Varnado) · New Mexico DOT"}},{"type":"Feature","geometry":{"type":"Point","coordinates":[-106.54337,35.08699]},"properties":{"id":"ora-nm-125","name":"I-40 EB @ Lomas","state":"NM","provider":"New Mexico DOT","hls":null,"snapshot":"http://ss.nmroads.com/snapshots/i-40eb_lomas.jpg","refreshMs":30000,"attribution":"Ora (Warner Varnado) · New Mexico DOT"}},{"type":"Feature","geometry":{"type":"Point","coordinates":[-106.542483333333,35.0873777777778]},"properties":{"id":"ora-nm-126","name":"I-40 WB @ Lomas","state":"NM","provider":"New Mexico DOT","hls":null,"snapshot":"http://ss.nmroads.com/snapshots/i-40wb_lomas.jpg","refreshMs":30000,"attribution":"Ora (Warner Varnado) · New Mexico DOT"}},{"type":"Feature","geometry":{"type":"Point","coordinates":[-106.761472222222,32.2772972222222]},"properties":{"id":"ora-nm-127","name":"I-10 WB @ Union","state":"NM","provider":"New Mexico DOT","hls":null,"snapshot":"http://ss.nmroads.com/snapshots/i10wb_union.jpg","refreshMs":30000,"attribution":"Ora (Warner Varnado) · New Mexico DOT"}},{"type":"Feature","geometry":{"type":"Point","coordinates":[-106.761691666667,32.2770111111111]},"properties":{"id":"ora-nm-128","name":"I-10 EB @ Union","state":"NM","provider":"New Mexico DOT","hls":null,"snapshot":"http://ss.nmroads.com/snapshots/i10eb_union.jpg","refreshMs":30000,"attribution":"Ora (Warner Varnado) · New Mexico DOT"}},{"type":"Feature","geometry":{"type":"Point","coordinates":[-106.74669,32.313847]},"properties":{"id":"ora-nm-129","name":"I-25 NB @ Lohman","state":"NM","provider":"New Mexico DOT","hls":null,"snapshot":"http://ss.nmroads.com/snapshots/i25nb_lohman.jpg","refreshMs":30000,"attribution":"Ora (Warner Varnado) · New Mexico DOT"}},{"type":"Feature","geometry":{"type":"Point","coordinates":[-106.747549,32.31363]},"properties":{"id":"ora-nm-130","name":"I-25 SB @ Lohman","state":"NM","provider":"New Mexico DOT","hls":null,"snapshot":"http://ss.nmroads.com/snapshots/i25sb_lohman.jpg","refreshMs":30000,"attribution":"Ora (Warner Varnado) · New Mexico DOT"}},{"type":"Feature","geometry":{"type":"Point","coordinates":[-106.652063888889,35.1067555555556]},"properties":{"id":"ora-nm-131","name":"I-40 EB @ 7Th St","state":"NM","provider":"New Mexico DOT","hls":null,"snapshot":"http://ss.nmroads.com/snapshots/i-40_7st.jpg","refreshMs":30000,"attribution":"Ora (Warner Varnado) · New Mexico DOT"}},{"type":"Feature","geometry":{"type":"Point","coordinates":[-106.656146,35.241018]},"properties":{"id":"ora-nm-132","name":"NM 528 @ Southern Blvd","state":"NM","provider":"New Mexico DOT","hls":null,"snapshot":"http://ss.nmroads.com/snapshots/528_southern.jpg","refreshMs":30000,"attribution":"Ora (Warner Varnado) · New Mexico DOT"}},{"type":"Feature","geometry":{"type":"Point","coordinates":[-106.652691,35.248541]},"properties":{"id":"ora-nm-133","name":"NM 528 @ High Resort Blvd","state":"NM","provider":"New Mexico DOT","hls":null,"snapshot":"http://ss.nmroads.com/snapshots/528_highresort.jpg","refreshMs":30000,"attribution":"Ora (Warner Varnado) · New Mexico DOT"}},{"type":"Feature","geometry":{"type":"Point","coordinates":[-106.647589,35.253254]},"properties":{"id":"ora-nm-134","name":"NM 528 @ Ridgecrest Dr.","state":"NM","provider":"New Mexico DOT","hls":null,"snapshot":"http://ss.nmroads.com/snapshots/528_ridgecrest.jpg","refreshMs":30000,"attribution":"Ora (Warner Varnado) · New Mexico DOT"}},{"type":"Feature","geometry":{"type":"Point","coordinates":[-106.654938,35.243564]},"properties":{"id":"ora-nm-135","name":"NM 528 @ Sabana Grande Ave","state":"NM","provider":"New Mexico DOT","hls":null,"snapshot":"http://ss.nmroads.com/snapshots/528_sabana.jpg","refreshMs":30000,"attribution":"Ora (Warner Varnado) · New Mexico DOT"}},{"type":"Feature","geometry":{"type":"Point","coordinates":[-106.57141,35.33055]},"properties":{"id":"ora-nm-136","name":"US 550 West @ NM 528","state":"NM","provider":"New Mexico DOT","hls":null,"snapshot":"http://ss.nmroads.com/snapshots/us550w_nm528.jpg","refreshMs":30000,"attribution":"Ora (Warner Varnado) · New Mexico DOT"}},{"type":"Feature","geometry":{"type":"Point","coordinates":[-106.571893,35.330294]},"properties":{"id":"ora-nm-137","name":"US 550 East @ NM 528","state":"NM","provider":"New Mexico DOT","hls":null,"snapshot":"http://ss.nmroads.com/snapshots/us550e_nm528.jpg","refreshMs":30000,"attribution":"Ora (Warner Varnado) · New Mexico DOT"}},{"type":"Feature","geometry":{"type":"Point","coordinates":[-105.9303694,35.63720278]},"properties":{"id":"ora-nm-138","name":"I-25 SB @ Old Pecos Trail","state":"NM","provider":"New Mexico DOT","hls":null,"snapshot":"http://ss.nmroads.com/snapshots/i25_oldpecos.jpg","refreshMs":30000,"attribution":"Ora (Warner Varnado) · New Mexico DOT"}},{"type":"Feature","geometry":{"type":"Point","coordinates":[-106.0013,35.6217]},"properties":{"id":"ora-nm-139","name":"I-25 SB @ Richards Ave.","state":"NM","provider":"New Mexico DOT","hls":null,"snapshot":"http://ss.nmroads.com/snapshots/i25sb_richards.jpg","refreshMs":30000,"attribution":"Ora (Warner Varnado) · New Mexico DOT"}},{"type":"Feature","geometry":{"type":"Point","coordinates":[-106.000891666666,35.620175]},"properties":{"id":"ora-nm-140","name":"I-25 NB @ Richards Ave","state":"NM","provider":"New Mexico DOT","hls":null,"snapshot":"http://ss.nmroads.com/snapshots/i25nb_richards.jpg","refreshMs":30000,"attribution":"Ora (Warner Varnado) · New Mexico DOT"}},{"type":"Feature","geometry":{"type":"Point","coordinates":[-105.9308,35.6362]},"properties":{"id":"ora-nm-141","name":"I-25 NB @ Old Pecos Trail","state":"NM","provider":"New Mexico DOT","hls":null,"snapshot":"http://ss.nmroads.com/snapshots/i25nb_oldpecos.jpg","refreshMs":30000,"attribution":"Ora (Warner Varnado) · New Mexico DOT"}},{"type":"Feature","geometry":{"type":"Point","coordinates":[-106.56596388888889,32.42493888888889]},"properties":{"id":"ora-nm-142","name":"US 70 @ Organ Mountain Pass","state":"NM","provider":"New Mexico DOT","hls":null,"snapshot":"http://ss.nmroads.com/snapshots/us70_organmtn.jpg","refreshMs":30000,"attribution":"Ora (Warner Varnado) · New Mexico DOT"}},{"type":"Feature","geometry":{"type":"Point","coordinates":[-106.60626666666666,35.17454166666666]},"properties":{"id":"ora-nm-143","name":"PDN EB @ Edith","state":"NM","provider":"New Mexico DOT","hls":null,"snapshot":"http://ss.nmroads.com/snapshots/pdneb_edith.jpg","refreshMs":30000,"attribution":"Ora (Warner Varnado) · New Mexico DOT"}},{"type":"Feature","geometry":{"type":"Point","coordinates":[-106.60638333333333,35.174838888888885]},"properties":{"id":"ora-nm-144","name":"PDN WB @ Edith","state":"NM","provider":"New Mexico DOT","hls":null,"snapshot":"http://ss.nmroads.com/snapshots/pdnwb_edith.jpg","refreshMs":30000,"attribution":"Ora (Warner Varnado) · New Mexico DOT"}},{"type":"Feature","geometry":{"type":"Point","coordinates":[-105.955655555556,35.634075]},"properties":{"id":"ora-nm-145","name":"I-25 NB @ St. Francis","state":"NM","provider":"New Mexico DOT","hls":null,"snapshot":"http://ss.nmroads.com/snapshots/i25nbstfrancis.jpg","refreshMs":30000,"attribution":"Ora (Warner Varnado) · New Mexico DOT"}},{"type":"Feature","geometry":{"type":"Point","coordinates":[-106.0353,35.6046]},"properties":{"id":"ora-nm-146","name":"I-25 NB @ Cerrillos Road","state":"NM","provider":"New Mexico DOT","hls":null,"snapshot":"http://ss.nmroads.com/snapshots/i25nb_cerrillos.jpg","refreshMs":30000,"attribution":"Ora (Warner Varnado) · New Mexico DOT"}},{"type":"Feature","geometry":{"type":"Point","coordinates":[-106.553341666667,35.2803305555556]},"properties":{"id":"ora-nm-147","name":"I-25 NB @ Bernalillo","state":"NM","provider":"New Mexico DOT","hls":null,"snapshot":"http://ss.nmroads.com/snapshots/i-25nbbernalillo.jpg","refreshMs":30000,"attribution":"Ora (Warner Varnado) · New Mexico DOT"}},{"type":"Feature","geometry":{"type":"Point","coordinates":[-106.1193,35.553655]},"properties":{"id":"ora-nm-148","name":"I-25 SB @ La Cienega","state":"NM","provider":"New Mexico DOT","hls":null,"snapshot":"http://ss.nmroads.com/snapshots/i-25sblacienega.jpg","refreshMs":30000,"attribution":"Ora (Warner Varnado) · New Mexico DOT"}},{"type":"Feature","geometry":{"type":"Point","coordinates":[-108.909507,32.26294]},"properties":{"id":"ora-nm-149","name":"I-10 Lordsburg @ MM 9","state":"NM","provider":"New Mexico DOT","hls":null,"snapshot":"http://ss.nmroads.com/snapshots/i-10lordsburgmm9.jpg","refreshMs":30000,"attribution":"Ora (Warner Varnado) · New Mexico DOT"}},{"type":"Feature","geometry":{"type":"Point","coordinates":[-108.824797,32.312433]},"properties":{"id":"ora-nm-150","name":"I-10 Lordsburg @ MM 15","state":"NM","provider":"New Mexico DOT","hls":null,"snapshot":"http://ss.nmroads.com/snapshots/i-10lordsburgmm15.jpg","refreshMs":30000,"attribution":"Ora (Warner Varnado) · New Mexico DOT"}},{"type":"Feature","geometry":{"type":"Point","coordinates":[-108.937578,32.246834]},"properties":{"id":"ora-nm-151","name":"I-10 Lordsburg @ MM 7","state":"NM","provider":"New Mexico DOT","hls":null,"snapshot":"http://ss.nmroads.com/snapshots/i10lordsburgmm7.jpg","refreshMs":30000,"attribution":"Ora (Warner Varnado) · New Mexico DOT"}},{"type":"Feature","geometry":{"type":"Point","coordinates":[-106.63860555555556,35.02344444444444]},"properties":{"id":"ora-nm-152","name":"I-25 SB @ Rio Bravo","state":"NM","provider":"New Mexico DOT","hls":null,"snapshot":"http://ss.nmroads.com/snapshots/i25sb_riobravo.jpg","refreshMs":30000,"attribution":"Ora (Warner Varnado) · New Mexico DOT"}},{"type":"Feature","geometry":{"type":"Point","coordinates":[-106.4961,35.174]},"properties":{"id":"ora-nm-153","name":"Tramway @ PDN","state":"NM","provider":"New Mexico DOT","hls":null,"snapshot":"http://ss.nmroads.com/snapshots/tramwaypdn.jpg","refreshMs":30000,"attribution":"Ora (Warner Varnado) · New Mexico DOT"}},{"type":"Feature","geometry":{"type":"Point","coordinates":[-106.790942,32.289608]},"properties":{"id":"ora-nm-154","name":"I-10 @ Avenida De Mesilla EB","state":"NM","provider":"New Mexico DOT","hls":null,"snapshot":"http://ss.nmroads.com/snapshots/I10EBAvenidaDeMesilla.jpg","refreshMs":30000,"attribution":"Ora (Warner Varnado) · New Mexico DOT"}},{"type":"Feature","geometry":{"type":"Point","coordinates":[-106.790876,32.28982]},"properties":{"id":"ora-nm-155","name":"I-10 @ Avenida De Mesilla WB","state":"NM","provider":"New Mexico DOT","hls":null,"snapshot":"http://ss.nmroads.com/snapshots/I10WBAvenidaDeMesilla.jpg","refreshMs":30000,"attribution":"Ora (Warner Varnado) · New Mexico DOT"}},{"type":"Feature","geometry":{"type":"Point","coordinates":[-106.738744,32.286436]},"properties":{"id":"ora-nm-156","name":"I-25 @ University SB","state":"NM","provider":"New Mexico DOT","hls":null,"snapshot":"http://ss.nmroads.com/snapshots/lci25sbuniversity.jpg","refreshMs":30000,"attribution":"Ora (Warner Varnado) · New Mexico DOT"}},{"type":"Feature","geometry":{"type":"Point","coordinates":[-106.73747,32.286559]},"properties":{"id":"ora-nm-157","name":"I-25 @ University NB","state":"NM","provider":"New Mexico DOT","hls":null,"snapshot":"http://ss.nmroads.com/snapshots/lci25nbuniversity.jpg","refreshMs":30000,"attribution":"Ora (Warner Varnado) · New Mexico DOT"}},{"type":"Feature","geometry":{"type":"Point","coordinates":[-106.7713,32.281881]},"properties":{"id":"ora-nm-158","name":"I-10 @ S Main St WB","state":"NM","provider":"New Mexico DOT","hls":null,"snapshot":"http://ss.nmroads.com/snapshots/lci10wbsmainst.jpg","refreshMs":30000,"attribution":"Ora (Warner Varnado) · New Mexico DOT"}},{"type":"Feature","geometry":{"type":"Point","coordinates":[-106.77114,32.281541]},"properties":{"id":"ora-nm-159","name":"I-10 @ S Main St EB","state":"NM","provider":"New Mexico DOT","hls":null,"snapshot":"http://ss.nmroads.com/snapshots/lci10ebmainst.jpg","refreshMs":30000,"attribution":"Ora (Warner Varnado) · New Mexico DOT"}},{"type":"Feature","geometry":{"type":"Point","coordinates":[-106.560138,35.322651]},"properties":{"id":"ora-nm-160","name":"US 550 @ W of River Bridge","state":"NM","provider":"New Mexico DOT","hls":null,"snapshot":"http://ss.nmroads.com/snapshots/us550riverbridge.jpg","refreshMs":30000,"attribution":"Ora (Warner Varnado) · New Mexico DOT"}},{"type":"Feature","geometry":{"type":"Point","coordinates":[-105.6906612,33.2290197]},"properties":{"id":"ora-nm-161","name":"US 70 @ Apache Summit","state":"NM","provider":"New Mexico DOT","hls":null,"snapshot":"http://ss.nmroads.com/snapshots/us70-apachesummit.jpg","refreshMs":30000,"attribution":"Ora (Warner Varnado) · New Mexico DOT"}},{"type":"Feature","geometry":{"type":"Point","coordinates":[-108.491756,35.493133]},"properties":{"id":"ora-nm-162","name":"I-40 @ Exit 36","state":"NM","provider":"New Mexico DOT","hls":null,"snapshot":"http://ss.nmroads.com/snapshots/i40_exit36.jpg","refreshMs":30000,"attribution":"Ora (Warner Varnado) · New Mexico DOT"}},{"type":"Feature","geometry":{"type":"Point","coordinates":[-106.34927933333,35.16340283333]},"properties":{"id":"ora-nm-163","name":"NM 536 @ NM 14","state":"NM","provider":"New Mexico DOT","hls":null,"snapshot":"http://ss.nmroads.com/snapshots/nm536-nm14.jpg","refreshMs":30000,"attribution":"Ora (Warner Varnado) · New Mexico DOT"}},{"type":"Feature","geometry":{"type":"Point","coordinates":[-106.701202,35.107222]},"properties":{"id":"ora-nm-164","name":"I-40 @ East of Coors","state":"NM","provider":"New Mexico DOT","hls":null,"snapshot":"http://ss.nmroads.com/snapshots/i40east-coors.jpg","refreshMs":30000,"attribution":"Ora (Warner Varnado) · New Mexico DOT"}},{"type":"Feature","geometry":{"type":"Point","coordinates":[-106.714487,35.101936]},"properties":{"id":"ora-nm-165","name":"I-40 @ West of Coors","state":"NM","provider":"New Mexico DOT","hls":null,"snapshot":"http://ss.nmroads.com/snapshots/i40west-coors.jpg","refreshMs":30000,"attribution":"Ora (Warner Varnado) · New Mexico DOT"}},{"type":"Feature","geometry":{"type":"Point","coordinates":[-106.630041,35.10651]},"properties":{"id":"ora-nm-166","name":"I-25 SB to I-40 EB","state":"NM","provider":"New Mexico DOT","hls":null,"snapshot":"http://ss.nmroads.com/snapshots/I40eb-I25sb.jpg","refreshMs":30000,"attribution":"Ora (Warner Varnado) · New Mexico DOT"}},{"type":"Feature","geometry":{"type":"Point","coordinates":[-106.631429,35.10314]},"properties":{"id":"ora-nm-167","name":"I-40 WB to I-25 SB","state":"NM","provider":"New Mexico DOT","hls":null,"snapshot":"http://ss.nmroads.com/snapshots/i25sb-i40wb.jpg","refreshMs":30000,"attribution":"Ora (Warner Varnado) · New Mexico DOT"}},{"type":"Feature","geometry":{"type":"Point","coordinates":[-106.657723,34.960342]},"properties":{"id":"ora-nm-168","name":"I-25 @ N of Broadway","state":"NM","provider":"New Mexico DOT","hls":null,"snapshot":"http://ss.nmroads.com/snapshots/i25n-broadway.jpg","refreshMs":30000,"attribution":"Ora (Warner Varnado) · New Mexico DOT"}},{"type":"Feature","geometry":{"type":"Point","coordinates":[-106.590434,35.145113]},"properties":{"id":"ora-nm-169","name":"I-25 NB Frontage Rd @ Osuna","state":"NM","provider":"New Mexico DOT","hls":null,"snapshot":"http://ss.nmroads.com/snapshots/i25nbfrontage-osuna.jpg","refreshMs":30000,"attribution":"Ora (Warner Varnado) · New Mexico DOT"}},{"type":"Feature","geometry":{"type":"Point","coordinates":[-106.5811535,35.18514566667]},"properties":{"id":"ora-nm-170","name":"I-25 @ Alameda","state":"NM","provider":"New Mexico DOT","hls":null,"snapshot":"http://ss.nmroads.com/snapshots/i25alameda.jpg","refreshMs":30000,"attribution":"Ora (Warner Varnado) · New Mexico DOT"}},{"type":"Feature","geometry":{"type":"Point","coordinates":[-106.584378,35.173489]},"properties":{"id":"ora-nm-171","name":"I-25 SB @ PDN","state":"NM","provider":"New Mexico DOT","hls":null,"snapshot":"http://ss.nmroads.com/snapshots/i25sbpdn.jpg","refreshMs":30000,"attribution":"Ora (Warner Varnado) · New Mexico DOT"}},{"type":"Feature","geometry":{"type":"Point","coordinates":[-106.639904,35.015573]},"properties":{"id":"ora-nm-172","name":"I-25 South of Rio Bravo","state":"NM","provider":"New Mexico DOT","hls":null,"snapshot":"http://ss.nmroads.com/snapshots/i25south-riobravo.jpg","refreshMs":30000,"attribution":"Ora (Warner Varnado) · New Mexico DOT"}},{"type":"Feature","geometry":{"type":"Point","coordinates":[-106.625584,35.116174]},"properties":{"id":"ora-nm-173","name":"I-25 SB Frontage Rd @ Candelaria","state":"NM","provider":"New Mexico DOT","hls":null,"snapshot":"http://ss.nmroads.com/snapshots/i25sbfrontage-candelaria.jpg","refreshMs":30000,"attribution":"Ora (Warner Varnado) · New Mexico DOT"}},{"type":"Feature","geometry":{"type":"Point","coordinates":[-106.65511,35.181554]},"properties":{"id":"ora-nm-174","name":"PDN @ West of Rio Grande River","state":"NM","provider":"New Mexico DOT","hls":null,"snapshot":"http://ss.nmroads.com/snapshots/pdnw-riogrande.jpg","refreshMs":30000,"attribution":"Ora (Warner Varnado) · New Mexico DOT"}},{"type":"Feature","geometry":{"type":"Point","coordinates":[-105.208923,35.595613]},"properties":{"id":"ora-nm-175","name":"I-25 @ Las Vegas","state":"NM","provider":"New Mexico DOT","hls":null,"snapshot":"http://ss.nmroads.com/snapshots/i25lasvegas.jpg","refreshMs":30000,"attribution":"Ora (Warner Varnado) · New Mexico DOT"}},{"type":"Feature","geometry":{"type":"Point","coordinates":[-106.636843,35.083055]},"properties":{"id":"ora-nm-176","name":"I-25 SB @ Central","state":"NM","provider":"New Mexico DOT","hls":null,"snapshot":"http://ss.nmroads.com/snapshots/i25sbcentral.jpg","refreshMs":30000,"attribution":"Ora (Warner Varnado) · New Mexico DOT"}},{"type":"Feature","geometry":{"type":"Point","coordinates":[-106.636482,35.084897]},"properties":{"id":"ora-nm-177","name":"I-25 SB @ MLK","state":"NM","provider":"New Mexico DOT","hls":null,"snapshot":"http://ss.nmroads.com/snapshots/i25sbmlk.jpg","refreshMs":30000,"attribution":"Ora (Warner Varnado) · New Mexico DOT"}},{"type":"Feature","geometry":{"type":"Point","coordinates":[-106.6361,35.085]},"properties":{"id":"ora-nm-178","name":"I-25 NB @ MLK","state":"NM","provider":"New Mexico DOT","hls":null,"snapshot":"http://ss.nmroads.com/snapshots/i25nbmlk.jpg","refreshMs":30000,"attribution":"Ora (Warner Varnado) · New Mexico DOT"}},{"type":"Feature","geometry":{"type":"Point","coordinates":[-105.673428,35.494961]},"properties":{"id":"ora-nm-179","name":"I-25 @ Rowe NB","state":"NM","provider":"New Mexico DOT","hls":null,"snapshot":"http://ss.nmroads.com/snapshots/i25nb_rowe.jpg","refreshMs":30000,"attribution":"Ora (Warner Varnado) · New Mexico DOT"}},{"type":"Feature","geometry":{"type":"Point","coordinates":[-105.672867,35.495325]},"properties":{"id":"ora-nm-180","name":"I-25 @ Rowe SB","state":"NM","provider":"New Mexico DOT","hls":null,"snapshot":"http://ss.nmroads.com/snapshots/i25sb_rowe.jpg","refreshMs":30000,"attribution":"Ora (Warner Varnado) · New Mexico DOT"}},{"type":"Feature","geometry":{"type":"Point","coordinates":[-104.6039421,36.3609061]},"properties":{"id":"ora-nm-181","name":"I-25 @ Springer","state":"NM","provider":"New Mexico DOT","hls":null,"snapshot":"http://ss.nmroads.com/snapshots/i25springer.jpg","refreshMs":30000,"attribution":"Ora (Warner Varnado) · New Mexico DOT"}},{"type":"Feature","geometry":{"type":"Point","coordinates":[-105.299258,36.430295]},"properties":{"id":"ora-nm-182","name":"US 64 @ Angel Fire","state":"NM","provider":"New Mexico DOT","hls":null,"snapshot":"http://ss.nmroads.com/snapshots/us64_angelfire.jpg","refreshMs":30000,"attribution":"Ora (Warner Varnado) · New Mexico DOT"}}]}