{"type":"FeatureCollection","features":[{"type":"Feature","geometry":{"type":"Point","coordinates":[-97.57406,35.39637]},"properties":{"id":"ora-ok-0","name":"I-44 & I-240","state":"OK","provider":"Oklahoma DOT","hls":"https://stream.oktraffic.org/delay-stream/4782228b352b1bf0.stream/playlist.m3u8","snapshot":null,"refreshMs":30000,"attribution":"Ora (Warner Varnado) · Oklahoma DOT"}},{"type":"Feature","geometry":{"type":"Point","coordinates":[-97.57711,35.40667]},"properties":{"id":"ora-ok-1","name":"I-44 & S 59th","state":"OK","provider":"Oklahoma DOT","hls":"https://stream.oktraffic.org/delay-stream/74fd2c85f258b0b2.stream/playlist.m3u8","snapshot":null,"refreshMs":30000,"attribution":"Ora (Warner Varnado) · Oklahoma DOT"}},{"type":"Feature","geometry":{"type":"Point","coordinates":[-97.5812,35.4155]},"properties":{"id":"ora-ok-2","name":"I-44 & Airport Rd","state":"OK","provider":"Oklahoma DOT","hls":"https://stream.oktraffic.org/delay-stream/899899c6f1488a46.stream/playlist.m3u8","snapshot":null,"refreshMs":30000,"attribution":"Ora (Warner Varnado) · Oklahoma DOT"}},{"type":"Feature","geometry":{"type":"Point","coordinates":[-97.56993,35.43513]},"properties":{"id":"ora-ok-3","name":"I-44 & S 29th","state":"OK","provider":"Oklahoma DOT","hls":"https://stream.oktraffic.org/delay-stream/961407b217fda601.stream/playlist.m3u8","snapshot":null,"refreshMs":30000,"attribution":"Ora (Warner Varnado) · Oklahoma DOT"}},{"type":"Feature","geometry":{"type":"Point","coordinates":[-97.57485429,35.45988315]},"properties":{"id":"ora-ok-4","name":"I-44 & I-40","state":"OK","provider":"Oklahoma DOT","hls":"https://stream.oktraffic.org/delay-stream/36c3f9097b94899c.stream/playlist.m3u8","snapshot":null,"refreshMs":30000,"attribution":"Ora (Warner Varnado) · Oklahoma DOT"}},{"type":"Feature","geometry":{"type":"Point","coordinates":[-97.57879,35.47842]},"properties":{"id":"ora-ok-5","name":"I-44 & N 10th","state":"OK","provider":"Oklahoma DOT","hls":"https://stream.oktraffic.org/delay-stream/0d7f6a1911c75c2c.stream/playlist.m3u8","snapshot":null,"refreshMs":30000,"attribution":"Ora (Warner Varnado) · Oklahoma DOT"}},{"type":"Feature","geometry":{"type":"Point","coordinates":[-97.57904,35.4932]},"properties":{"id":"ora-ok-6","name":"I-44 & N 23rd","state":"OK","provider":"Oklahoma DOT","hls":"https://stream.oktraffic.org/delay-stream/afd3abbacb23ea5b.stream/playlist.m3u8","snapshot":null,"refreshMs":30000,"attribution":"Ora (Warner Varnado) · Oklahoma DOT"}},{"type":"Feature","geometry":{"type":"Point","coordinates":[-97.57564991,35.51097978]},"properties":{"id":"ora-ok-7","name":"I-44 & SH-66","state":"OK","provider":"Oklahoma DOT","hls":"https://stream.oktraffic.org/delay-stream/97035a08014b0e0a.stream/playlist.m3u8","snapshot":null,"refreshMs":30000,"attribution":"Ora (Warner Varnado) · Oklahoma DOT"}},{"type":"Feature","geometry":{"type":"Point","coordinates":[-97.57983148,35.53269025]},"properties":{"id":"ora-ok-8","name":"SH-74 & SH-3","state":"OK","provider":"Oklahoma DOT","hls":"https://stream.oktraffic.org/delay-stream/d2db1e216e22e63f.stream/playlist.m3u8","snapshot":null,"refreshMs":30000,"attribution":"Ora (Warner Varnado) · Oklahoma DOT"}},{"type":"Feature","geometry":{"type":"Point","coordinates":[-97.57483854,35.54459601]},"properties":{"id":"ora-ok-9","name":"SH-74 & Grand","state":"OK","provider":"Oklahoma DOT","hls":"https://stream.oktraffic.org/delay-stream/c6de72c76faada61.stream/playlist.m3u8","snapshot":null,"refreshMs":30000,"attribution":"Ora (Warner Varnado) · Oklahoma DOT"}},{"type":"Feature","geometry":{"type":"Point","coordinates":[-97.57484,35.56558]},"properties":{"id":"ora-ok-10","name":"SH-74 & Britton","state":"OK","provider":"Oklahoma DOT","hls":"https://stream.oktraffic.org/delay-stream/8bc27e7bc5991489.stream/playlist.m3u8","snapshot":null,"refreshMs":30000,"attribution":"Ora (Warner Varnado) · Oklahoma DOT"}},{"type":"Feature","geometry":{"type":"Point","coordinates":[-97.57991,35.58018]},"properties":{"id":"ora-ok-11","name":"SH-74 & Hefner","state":"OK","provider":"Oklahoma DOT","hls":"https://stream.oktraffic.org/delay-stream/a50649894be4aea4.stream/playlist.m3u8","snapshot":null,"refreshMs":30000,"attribution":"Ora (Warner Varnado) · Oklahoma DOT"}},{"type":"Feature","geometry":{"type":"Point","coordinates":[-97.58495,35.5947]},"properties":{"id":"ora-ok-12","name":"SH-74 & N 122nd","state":"OK","provider":"Oklahoma DOT","hls":"https://stream.oktraffic.org/delay-stream/6b13a50790f1c1d6.stream/playlist.m3u8","snapshot":null,"refreshMs":30000,"attribution":"Ora (Warner Varnado) · Oklahoma DOT"}},{"type":"Feature","geometry":{"type":"Point","coordinates":[-97.58505,35.60948]},"properties":{"id":"ora-ok-13","name":"SH-74 & Memorial","state":"OK","provider":"Oklahoma DOT","hls":"https://stream.oktraffic.org/delay-stream/aa11804d47ee0f5a.stream/playlist.m3u8","snapshot":null,"refreshMs":30000,"attribution":"Ora (Warner Varnado) · Oklahoma DOT"}},{"type":"Feature","geometry":{"type":"Point","coordinates":[-97.60125,35.45997]},"properties":{"id":"ora-ok-14","name":"I-40 & Meridian","state":"OK","provider":"Oklahoma DOT","hls":"https://stream.oktraffic.org/delay-stream/47564a622f55bc9f.stream/playlist.m3u8","snapshot":null,"refreshMs":30000,"attribution":"Ora (Warner Varnado) · Oklahoma DOT"}},{"type":"Feature","geometry":{"type":"Point","coordinates":[-97.566121,35.461165]},"properties":{"id":"ora-ok-15","name":"I-40 & May","state":"OK","provider":"Oklahoma DOT","hls":"https://stream.oktraffic.org/delay-stream/95acdb5891145d4b.stream/playlist.m3u8","snapshot":null,"refreshMs":30000,"attribution":"Ora (Warner Varnado) · Oklahoma DOT"}},{"type":"Feature","geometry":{"type":"Point","coordinates":[-97.55554,35.461126]},"properties":{"id":"ora-ok-16","name":"I-40 & Agnew","state":"OK","provider":"Oklahoma DOT","hls":"https://stream.oktraffic.org/delay-stream/c9145d9bc1fb7735.stream/playlist.m3u8","snapshot":null,"refreshMs":30000,"attribution":"Ora (Warner Varnado) · Oklahoma DOT"}},{"type":"Feature","geometry":{"type":"Point","coordinates":[-97.546838,35.461465]},"properties":{"id":"ora-ok-17","name":"I-40 & Penn","state":"OK","provider":"Oklahoma DOT","hls":"https://stream.oktraffic.org/delay-stream/924aedba5374b4e3.stream/playlist.m3u8","snapshot":null,"refreshMs":30000,"attribution":"Ora (Warner Varnado) · Oklahoma DOT"}},{"type":"Feature","geometry":{"type":"Point","coordinates":[-97.531872,35.458261]},"properties":{"id":"ora-ok-18","name":"I-40 & Western","state":"OK","provider":"Oklahoma DOT","hls":"https://stream.oktraffic.org/delay-stream/a6dd6e90f8763098.stream/playlist.m3u8","snapshot":null,"refreshMs":30000,"attribution":"Ora (Warner Varnado) · Oklahoma DOT"}},{"type":"Feature","geometry":{"type":"Point","coordinates":[-97.49519134,35.34903757]},"properties":{"id":"ora-ok-19","name":"I-35 & N 12th","state":"OK","provider":"Oklahoma DOT","hls":"https://stream.oktraffic.org/delay-stream/6961c4d25648e0d7.stream/playlist.m3u8","snapshot":null,"refreshMs":30000,"attribution":"Ora (Warner Varnado) · Oklahoma DOT"}},{"type":"Feature","geometry":{"type":"Point","coordinates":[-97.49503711,35.36284253]},"properties":{"id":"ora-ok-20","name":"I-35 & N 27th","state":"OK","provider":"Oklahoma DOT","hls":"https://stream.oktraffic.org/delay-stream/9052b672b7c2756f.stream/playlist.m3u8","snapshot":null,"refreshMs":30000,"attribution":"Ora (Warner Varnado) · Oklahoma DOT"}},{"type":"Feature","geometry":{"type":"Point","coordinates":[-97.49522554,35.37616664]},"properties":{"id":"ora-ok-21","name":"I-35 & S 89th","state":"OK","provider":"Oklahoma DOT","hls":"https://stream.oktraffic.org/delay-stream/1f4f296179aab381.stream/playlist.m3u8","snapshot":null,"refreshMs":30000,"attribution":"Ora (Warner Varnado) · Oklahoma DOT"}},{"type":"Feature","geometry":{"type":"Point","coordinates":[-97.49787,35.39367]},"properties":{"id":"ora-ok-22","name":"I-35 & I-240","state":"OK","provider":"Oklahoma DOT","hls":"https://stream.oktraffic.org/delay-stream/391684699b0ffdfd.stream/playlist.m3u8","snapshot":null,"refreshMs":30000,"attribution":"Ora (Warner Varnado) · Oklahoma DOT"}},{"type":"Feature","geometry":{"type":"Point","coordinates":[-97.49404,35.40679572]},"properties":{"id":"ora-ok-23","name":"I-35 & S 59th","state":"OK","provider":"Oklahoma DOT","hls":"https://stream.oktraffic.org/delay-stream/a378bf9d94407751.stream/playlist.m3u8","snapshot":null,"refreshMs":30000,"attribution":"Ora (Warner Varnado) · Oklahoma DOT"}},{"type":"Feature","geometry":{"type":"Point","coordinates":[-97.485684,35.427937]},"properties":{"id":"ora-ok-24","name":"I-35 & S 36th","state":"OK","provider":"Oklahoma DOT","hls":"https://stream.oktraffic.org/delay-stream/e51d645ef9c97e95.stream/playlist.m3u8","snapshot":null,"refreshMs":30000,"attribution":"Ora (Warner Varnado) · Oklahoma DOT"}},{"type":"Feature","geometry":{"type":"Point","coordinates":[-97.485824,35.435499]},"properties":{"id":"ora-ok-25","name":"I-35 & S 29th","state":"OK","provider":"Oklahoma DOT","hls":"https://stream.oktraffic.org/delay-stream/87af8bb46c0343eb.stream/playlist.m3u8","snapshot":null,"refreshMs":30000,"attribution":"Ora (Warner Varnado) · Oklahoma DOT"}},{"type":"Feature","geometry":{"type":"Point","coordinates":[-97.490531,35.462333]},"properties":{"id":"ora-ok-26","name":"I-40 & I-35","state":"OK","provider":"Oklahoma DOT","hls":"https://stream.oktraffic.org/delay-stream/742921580af2824f.stream/playlist.m3u8","snapshot":null,"refreshMs":30000,"attribution":"Ora (Warner Varnado) · Oklahoma DOT"}},{"type":"Feature","geometry":{"type":"Point","coordinates":[-97.514,35.455475]},"properties":{"id":"ora-ok-27","name":"I-40 & Shields","state":"OK","provider":"Oklahoma DOT","hls":"https://stream.oktraffic.org/delay-stream/1480ce3ccea8b133.stream/playlist.m3u8","snapshot":null,"refreshMs":30000,"attribution":"Ora (Warner Varnado) · Oklahoma DOT"}},{"type":"Feature","geometry":{"type":"Point","coordinates":[-97.461758,35.463533]},"properties":{"id":"ora-ok-28","name":"I-40 & Reno","state":"OK","provider":"Oklahoma DOT","hls":"https://stream.oktraffic.org/delay-stream/ad5c652c2cff59ad.stream/playlist.m3u8","snapshot":null,"refreshMs":30000,"attribution":"Ora (Warner Varnado) · Oklahoma DOT"}},{"type":"Feature","geometry":{"type":"Point","coordinates":[-97.40991,35.43517]},"properties":{"id":"ora-ok-29","name":"I-40 & S 29th","state":"OK","provider":"Oklahoma DOT","hls":"https://stream.oktraffic.org/delay-stream/626fd74a848670ae.stream/playlist.m3u8","snapshot":null,"refreshMs":30000,"attribution":"Ora (Warner Varnado) · Oklahoma DOT"}},{"type":"Feature","geometry":{"type":"Point","coordinates":[-97.40589,35.43441]},"properties":{"id":"ora-ok-30","name":"I-40 & Air Depot","state":"OK","provider":"Oklahoma DOT","hls":"https://stream.oktraffic.org/delay-stream/f78eff4ae419d1f7.stream/playlist.m3u8","snapshot":null,"refreshMs":30000,"attribution":"Ora (Warner Varnado) · Oklahoma DOT"}},{"type":"Feature","geometry":{"type":"Point","coordinates":[-97.39814,35.43455]},"properties":{"id":"ora-ok-31","name":"I-40 & Eaker Gate","state":"OK","provider":"Oklahoma DOT","hls":"https://stream.oktraffic.org/delay-stream/7025dd3554fd983f.stream/playlist.m3u8","snapshot":null,"refreshMs":30000,"attribution":"Ora (Warner Varnado) · Oklahoma DOT"}},{"type":"Feature","geometry":{"type":"Point","coordinates":[-97.38692,35.4352]},"properties":{"id":"ora-ok-32","name":"I-40 & A Ave","state":"OK","provider":"Oklahoma DOT","hls":"https://stream.oktraffic.org/delay-stream/0537b66fd37013c8.stream/playlist.m3u8","snapshot":null,"refreshMs":30000,"attribution":"Ora (Warner Varnado) · Oklahoma DOT"}},{"type":"Feature","geometry":{"type":"Point","coordinates":[-97.37113,35.43431]},"properties":{"id":"ora-ok-33","name":"I-40 & Douglas","state":"OK","provider":"Oklahoma DOT","hls":"https://stream.oktraffic.org/delay-stream/b503f3cd26bb163f.stream/playlist.m3u8","snapshot":null,"refreshMs":30000,"attribution":"Ora (Warner Varnado) · Oklahoma DOT"}},{"type":"Feature","geometry":{"type":"Point","coordinates":[-97.548119,35.464925]},"properties":{"id":"ora-ok-34","name":"OKC Blvd & Penn","state":"OK","provider":"Oklahoma DOT","hls":"https://stream.oktraffic.org/delay-stream/037b8df2dbfb2920.stream/playlist.m3u8","snapshot":null,"refreshMs":30000,"attribution":"Ora (Warner Varnado) · Oklahoma DOT"}},{"type":"Feature","geometry":{"type":"Point","coordinates":[-97.53125,35.46562]},"properties":{"id":"ora-ok-35","name":"OKC Blvd & Western","state":"OK","provider":"Oklahoma DOT","hls":"https://stream.oktraffic.org/delay-stream/5c95fca7cb03d9f9.stream/playlist.m3u8","snapshot":null,"refreshMs":30000,"attribution":"Ora (Warner Varnado) · Oklahoma DOT"}},{"type":"Feature","geometry":{"type":"Point","coordinates":[-97.523919,35.462514]},"properties":{"id":"ora-ok-36","name":"OKC Blvd & Lee","state":"OK","provider":"Oklahoma DOT","hls":"https://stream.oktraffic.org/delay-stream/ad0c06b5f5ef9928.stream/playlist.m3u8","snapshot":null,"refreshMs":30000,"attribution":"Ora (Warner Varnado) · Oklahoma DOT"}},{"type":"Feature","geometry":{"type":"Point","coordinates":[-97.473067,35.464069]},"properties":{"id":"ora-ok-37","name":"I-35 & Reno","state":"OK","provider":"Oklahoma DOT","hls":"https://stream.oktraffic.org/delay-stream/4a7733307aa8e4bb.stream/playlist.m3u8","snapshot":null,"refreshMs":30000,"attribution":"Ora (Warner Varnado) · Oklahoma DOT"}},{"type":"Feature","geometry":{"type":"Point","coordinates":[-96.04051,36.08797]},"properties":{"id":"ora-ok-38","name":"I-44 & I-244 West","state":"OK","provider":"Oklahoma DOT","hls":"https://stream.oktraffic.org/delay-stream/9229db1949885cef.stream/playlist.m3u8","snapshot":null,"refreshMs":30000,"attribution":"Ora (Warner Varnado) · Oklahoma DOT"}},{"type":"Feature","geometry":{"type":"Point","coordinates":[-96.00868937,36.12221084]},"properties":{"id":"ora-ok-39","name":"I-244 & SW Blvd","state":"OK","provider":"Oklahoma DOT","hls":"https://stream.oktraffic.org/delay-stream/ab08dd49e3930ee2.stream/playlist.m3u8","snapshot":null,"refreshMs":30000,"attribution":"Ora (Warner Varnado) · Oklahoma DOT"}},{"type":"Feature","geometry":{"type":"Point","coordinates":[-95.86062,36.16456]},"properties":{"id":"ora-ok-40","name":"I-244 & US-169","state":"OK","provider":"Oklahoma DOT","hls":"https://stream.oktraffic.org/delay-stream/3a85282c63f982dc.stream/playlist.m3u8","snapshot":null,"refreshMs":30000,"attribution":"Ora (Warner Varnado) · Oklahoma DOT"}},{"type":"Feature","geometry":{"type":"Point","coordinates":[-95.826574,36.161382]},"properties":{"id":"ora-ok-41","name":"I-44 & I-244 East","state":"OK","provider":"Oklahoma DOT","hls":"https://stream.oktraffic.org/delay-stream/2791e5df2df8ac18.stream/playlist.m3u8","snapshot":null,"refreshMs":30000,"attribution":"Ora (Warner Varnado) · Oklahoma DOT"}},{"type":"Feature","geometry":{"type":"Point","coordinates":[-95.97886,36.14241]},"properties":{"id":"ora-ok-42","name":"SH-51 & US-64/75","state":"OK","provider":"Oklahoma DOT","hls":"https://stream.oktraffic.org/delay-stream/d2492d5443fed1ea.stream/playlist.m3u8","snapshot":null,"refreshMs":30000,"attribution":"Ora (Warner Varnado) · Oklahoma DOT"}},{"type":"Feature","geometry":{"type":"Point","coordinates":[-95.89659,36.11403]},"properties":{"id":"ora-ok-43","name":"I-44 & SH-51","state":"OK","provider":"Oklahoma DOT","hls":"https://stream.oktraffic.org/delay-stream/fc1ceb98b5ed3d7f.stream/playlist.m3u8","snapshot":null,"refreshMs":30000,"attribution":"Ora (Warner Varnado) · Oklahoma DOT"}},{"type":"Feature","geometry":{"type":"Point","coordinates":[-95.8602,36.09827]},"properties":{"id":"ora-ok-44","name":"SH-51 & US-169","state":"OK","provider":"Oklahoma DOT","hls":"https://stream.oktraffic.org/delay-stream/30a25440d2bbfc2b.stream/playlist.m3u8","snapshot":null,"refreshMs":30000,"attribution":"Ora (Warner Varnado) · Oklahoma DOT"}},{"type":"Feature","geometry":{"type":"Point","coordinates":[-95.82837,36.08578]},"properties":{"id":"ora-ok-45","name":"SH-51 & S 129th E","state":"OK","provider":"Oklahoma DOT","hls":"https://stream.oktraffic.org/delay-stream/fa3acb078af5ec64.stream/playlist.m3u8","snapshot":null,"refreshMs":30000,"attribution":"Ora (Warner Varnado) · Oklahoma DOT"}},{"type":"Feature","geometry":{"type":"Point","coordinates":[-95.85827,36.06105]},"properties":{"id":"ora-ok-46","name":"US-169 & E 71st","state":"OK","provider":"Oklahoma DOT","hls":"https://stream.oktraffic.org/delay-stream/616d51a57ae8dd82.stream/playlist.m3u8","snapshot":null,"refreshMs":30000,"attribution":"Ora (Warner Varnado) · Oklahoma DOT"}},{"type":"Feature","geometry":{"type":"Point","coordinates":[-95.86049,36.13955]},"properties":{"id":"ora-ok-47","name":"I-44 & US-169","state":"OK","provider":"Oklahoma DOT","hls":"https://stream.oktraffic.org/delay-stream/a016c2d32fd25452.stream/playlist.m3u8","snapshot":null,"refreshMs":30000,"attribution":"Ora (Warner Varnado) · Oklahoma DOT"}},{"type":"Feature","geometry":{"type":"Point","coordinates":[-95.76191,36.162145]},"properties":{"id":"ora-ok-48","name":"I-44 & N 193rd E","state":"OK","provider":"Oklahoma DOT","hls":"https://stream.oktraffic.org/delay-stream/3a2e3a896602983b.stream/playlist.m3u8","snapshot":null,"refreshMs":30000,"attribution":"Ora (Warner Varnado) · Oklahoma DOT"}},{"type":"Feature","geometry":{"type":"Point","coordinates":[-97.51050174,35.48214091]},"properties":{"id":"ora-ok-49","name":"I-235 & N 13th","state":"OK","provider":"Oklahoma DOT","hls":"https://stream.oktraffic.org/delay-stream/9206531784dea136.stream/playlist.m3u8","snapshot":null,"refreshMs":30000,"attribution":"Ora (Warner Varnado) · Oklahoma DOT"}},{"type":"Feature","geometry":{"type":"Point","coordinates":[-97.51129835,35.49209705]},"properties":{"id":"ora-ok-50","name":"I-235 & N 23rd","state":"OK","provider":"Oklahoma DOT","hls":"https://stream.oktraffic.org/delay-stream/d3e37bff3a72b75a.stream/playlist.m3u8","snapshot":null,"refreshMs":30000,"attribution":"Ora (Warner Varnado) · Oklahoma DOT"}},{"type":"Feature","geometry":{"type":"Point","coordinates":[-97.51498773,35.50887623]},"properties":{"id":"ora-ok-51","name":"I-235 & N 36th","state":"OK","provider":"Oklahoma DOT","hls":"https://stream.oktraffic.org/delay-stream/2dc9ca1787bf26d1.stream/playlist.m3u8","snapshot":null,"refreshMs":30000,"attribution":"Ora (Warner Varnado) · Oklahoma DOT"}},{"type":"Feature","geometry":{"type":"Point","coordinates":[-97.48711422,35.44961233]},"properties":{"id":"ora-ok-52","name":"I-35 & S 15th","state":"OK","provider":"Oklahoma DOT","hls":"https://stream.oktraffic.org/delay-stream/e933b5c5a4b3571a.stream/playlist.m3u8","snapshot":null,"refreshMs":30000,"attribution":"Ora (Warner Varnado) · Oklahoma DOT"}},{"type":"Feature","geometry":{"type":"Point","coordinates":[-97.49541565,35.39924263]},"properties":{"id":"ora-ok-53","name":"I-35 & S 66th","state":"OK","provider":"Oklahoma DOT","hls":"https://stream.oktraffic.org/delay-stream/78284afd7b86d220.stream/playlist.m3u8","snapshot":null,"refreshMs":30000,"attribution":"Ora (Warner Varnado) · Oklahoma DOT"}},{"type":"Feature","geometry":{"type":"Point","coordinates":[-97.4886243,35.42054823]},"properties":{"id":"ora-ok-54","name":"I-35 & S 44th","state":"OK","provider":"Oklahoma DOT","hls":"https://stream.oktraffic.org/delay-stream/7af89d9396af02f3.stream/playlist.m3u8","snapshot":null,"refreshMs":30000,"attribution":"Ora (Warner Varnado) · Oklahoma DOT"}},{"type":"Feature","geometry":{"type":"Point","coordinates":[-97.49594271,35.46259723]},"properties":{"id":"ora-ok-55","name":"I-40 & I-235","state":"OK","provider":"Oklahoma DOT","hls":"https://stream.oktraffic.org/delay-stream/c8ddd46a99964056.stream/playlist.m3u8","snapshot":null,"refreshMs":30000,"attribution":"Ora (Warner Varnado) · Oklahoma DOT"}},{"type":"Feature","geometry":{"type":"Point","coordinates":[-97.50356,35.52921]},"properties":{"id":"ora-ok-56","name":"I-44 & Lincoln","state":"OK","provider":"Oklahoma DOT","hls":"https://stream.oktraffic.org/delay-stream/8d853a1646b29ea6.stream/playlist.m3u8","snapshot":null,"refreshMs":30000,"attribution":"Ora (Warner Varnado) · Oklahoma DOT"}},{"type":"Feature","geometry":{"type":"Point","coordinates":[-97.515992,35.52905]},"properties":{"id":"ora-ok-57","name":"I-44 & Broadway Ext","state":"OK","provider":"Oklahoma DOT","hls":"https://stream.oktraffic.org/delay-stream/96f226f31d763c8b.stream/playlist.m3u8","snapshot":null,"refreshMs":30000,"attribution":"Ora (Warner Varnado) · Oklahoma DOT"}},{"type":"Feature","geometry":{"type":"Point","coordinates":[-95.85921049,36.07579572]},"properties":{"id":"ora-ok-58","name":"US-169 & E 61st","state":"OK","provider":"Oklahoma DOT","hls":"https://stream.oktraffic.org/delay-stream/fdda4ff368a15fa0.stream/playlist.m3u8","snapshot":null,"refreshMs":30000,"attribution":"Ora (Warner Varnado) · Oklahoma DOT"}},{"type":"Feature","geometry":{"type":"Point","coordinates":[-95.85895528,36.04686337]},"properties":{"id":"ora-ok-59","name":"US-169 & E 81st","state":"OK","provider":"Oklahoma DOT","hls":"https://stream.oktraffic.org/delay-stream/a0417986c08c9190.stream/playlist.m3u8","snapshot":null,"refreshMs":30000,"attribution":"Ora (Warner Varnado) · Oklahoma DOT"}},{"type":"Feature","geometry":{"type":"Point","coordinates":[-95.85978378,36.03231888]},"properties":{"id":"ora-ok-60","name":"US-169 & E 91st","state":"OK","provider":"Oklahoma DOT","hls":"https://stream.oktraffic.org/delay-stream/161d20c39a35f447.stream/playlist.m3u8","snapshot":null,"refreshMs":30000,"attribution":"Ora (Warner Varnado) · Oklahoma DOT"}},{"type":"Feature","geometry":{"type":"Point","coordinates":[-95.85656047,36.17722817]},"properties":{"id":"ora-ok-61","name":"US-169 & Pine","state":"OK","provider":"Oklahoma DOT","hls":"https://stream.oktraffic.org/delay-stream/11b4d79d758c9bad.stream/playlist.m3u8","snapshot":null,"refreshMs":30000,"attribution":"Ora (Warner Varnado) · Oklahoma DOT"}},{"type":"Feature","geometry":{"type":"Point","coordinates":[-95.92279226,36.09528275]},"properties":{"id":"ora-ok-62","name":"I-44 & Yale","state":"OK","provider":"Oklahoma DOT","hls":"https://stream.oktraffic.org/delay-stream/f2f503945446ffed.stream/playlist.m3u8","snapshot":null,"refreshMs":30000,"attribution":"Ora (Warner Varnado) · Oklahoma DOT"}},{"type":"Feature","geometry":{"type":"Point","coordinates":[-95.91293782,36.1026692]},"properties":{"id":"ora-ok-63","name":"I-44 & E 41st","state":"OK","provider":"Oklahoma DOT","hls":"https://stream.oktraffic.org/delay-stream/b091bf49b3dca092.stream/playlist.m3u8","snapshot":null,"refreshMs":30000,"attribution":"Ora (Warner Varnado) · Oklahoma DOT"}},{"type":"Feature","geometry":{"type":"Point","coordinates":[-95.95861048,36.14292851]},"properties":{"id":"ora-ok-64","name":"SH-51 & Lewis","state":"OK","provider":"Oklahoma DOT","hls":"https://stream.oktraffic.org/delay-stream/11c4f2a27792f711.stream/playlist.m3u8","snapshot":null,"refreshMs":30000,"attribution":"Ora (Warner Varnado) · Oklahoma DOT"}},{"type":"Feature","geometry":{"type":"Point","coordinates":[-95.90493947,36.11549118]},"properties":{"id":"ora-ok-65","name":"SH-51 & Sheridan","state":"OK","provider":"Oklahoma DOT","hls":"https://stream.oktraffic.org/delay-stream/fbf96e8db7fe0322.stream/playlist.m3u8","snapshot":null,"refreshMs":30000,"attribution":"Ora (Warner Varnado) · Oklahoma DOT"}},{"type":"Feature","geometry":{"type":"Point","coordinates":[-95.847091,36.148332]},"properties":{"id":"ora-ok-66","name":"I-44 & E 11th","state":"OK","provider":"Oklahoma DOT","hls":"https://stream.oktraffic.org/delay-stream/20f8d40a21291033.stream/playlist.m3u8","snapshot":null,"refreshMs":30000,"attribution":"Ora (Warner Varnado) · Oklahoma DOT"}},{"type":"Feature","geometry":{"type":"Point","coordinates":[-95.86756,36.133815]},"properties":{"id":"ora-ok-67","name":"I-44 & E 21st","state":"OK","provider":"Oklahoma DOT","hls":"https://stream.oktraffic.org/delay-stream/4a2bb7ddcfdaa7b0.stream/playlist.m3u8","snapshot":null,"refreshMs":30000,"attribution":"Ora (Warner Varnado) · Oklahoma DOT"}},{"type":"Feature","geometry":{"type":"Point","coordinates":[-95.886352,36.120442]},"properties":{"id":"ora-ok-68","name":"I-44 & Memorial","state":"OK","provider":"Oklahoma DOT","hls":"https://stream.oktraffic.org/delay-stream/148fc8ed85aefa57.stream/playlist.m3u8","snapshot":null,"refreshMs":30000,"attribution":"Ora (Warner Varnado) · Oklahoma DOT"}},{"type":"Feature","geometry":{"type":"Point","coordinates":[-95.79671502,36.16283835]},"properties":{"id":"ora-ok-69","name":"I-44 & N 165th E","state":"OK","provider":"Oklahoma DOT","hls":"https://stream.oktraffic.org/delay-stream/024303efe6cccca0.stream/playlist.m3u8","snapshot":null,"refreshMs":30000,"attribution":"Ora (Warner Varnado) · Oklahoma DOT"}},{"type":"Feature","geometry":{"type":"Point","coordinates":[-95.832829,36.158389]},"properties":{"id":"ora-ok-70","name":"I-44 & S 129th E","state":"OK","provider":"Oklahoma DOT","hls":"https://stream.oktraffic.org/delay-stream/b8b644e354c67f22.stream/playlist.m3u8","snapshot":null,"refreshMs":30000,"attribution":"Ora (Warner Varnado) · Oklahoma DOT"}},{"type":"Feature","geometry":{"type":"Point","coordinates":[-95.85071459,36.16646877]},"properties":{"id":"ora-ok-71","name":"I-244 & Garnett","state":"OK","provider":"Oklahoma DOT","hls":"https://stream.oktraffic.org/delay-stream/c92a348b2206ae2d.stream/playlist.m3u8","snapshot":null,"refreshMs":30000,"attribution":"Ora (Warner Varnado) · Oklahoma DOT"}},{"type":"Feature","geometry":{"type":"Point","coordinates":[-95.88692307,36.16223811]},"properties":{"id":"ora-ok-72","name":"I-244 & Memorial","state":"OK","provider":"Oklahoma DOT","hls":"https://stream.oktraffic.org/delay-stream/8236a8b9cbed9528.stream/playlist.m3u8","snapshot":null,"refreshMs":30000,"attribution":"Ora (Warner Varnado) · Oklahoma DOT"}},{"type":"Feature","geometry":{"type":"Point","coordinates":[-95.83312064,36.16575985]},"properties":{"id":"ora-ok-73","name":"I-244 & N 129th E","state":"OK","provider":"Oklahoma DOT","hls":"https://stream.oktraffic.org/delay-stream/24e644aab4b69340.stream/playlist.m3u8","snapshot":null,"refreshMs":30000,"attribution":"Ora (Warner Varnado) · Oklahoma DOT"}},{"type":"Feature","geometry":{"type":"Point","coordinates":[-96.00216933,36.15944045]},"properties":{"id":"ora-ok-74","name":"I-244 & US-412","state":"OK","provider":"Oklahoma DOT","hls":"https://stream.oktraffic.org/delay-stream/1219bdec922a90d5.stream/playlist.m3u8","snapshot":null,"refreshMs":30000,"attribution":"Ora (Warner Varnado) · Oklahoma DOT"}},{"type":"Feature","geometry":{"type":"Point","coordinates":[-95.979539,36.158675]},"properties":{"id":"ora-ok-75","name":"I-244 & US-75 S","state":"OK","provider":"Oklahoma DOT","hls":"https://stream.oktraffic.org/delay-stream/fcf7026e600ae5a1.stream/playlist.m3u8","snapshot":null,"refreshMs":30000,"attribution":"Ora (Warner Varnado) · Oklahoma DOT"}},{"type":"Feature","geometry":{"type":"Point","coordinates":[-95.980449,36.160796]},"properties":{"id":"ora-ok-76","name":"I-244 & US-75 N","state":"OK","provider":"Oklahoma DOT","hls":"https://stream.oktraffic.org/delay-stream/6f4853ef8eff2c09.stream/playlist.m3u8","snapshot":null,"refreshMs":30000,"attribution":"Ora (Warner Varnado) · Oklahoma DOT"}},{"type":"Feature","geometry":{"type":"Point","coordinates":[-95.99211529,36.14456271]},"properties":{"id":"ora-ok-77","name":"US-75 & Denver","state":"OK","provider":"Oklahoma DOT","hls":"https://stream.oktraffic.org/delay-stream/ba9402206c5a6242.stream/playlist.m3u8","snapshot":null,"refreshMs":30000,"attribution":"Ora (Warner Varnado) · Oklahoma DOT"}},{"type":"Feature","geometry":{"type":"Point","coordinates":[-95.73171705,36.16255354]},"properties":{"id":"ora-ok-78","name":"US-412 & Creek","state":"OK","provider":"Oklahoma DOT","hls":"https://stream.oktraffic.org/delay-stream/b32f0682ccf22af0.stream/playlist.m3u8","snapshot":null,"refreshMs":30000,"attribution":"Ora (Warner Varnado) · Oklahoma DOT"}},{"type":"Feature","geometry":{"type":"Point","coordinates":[-97.499822,35.466328]},"properties":{"id":"ora-ok-79","name":"I-235 & Sheridan","state":"OK","provider":"Oklahoma DOT","hls":"https://stream.oktraffic.org/delay-stream/1f2daeafd0406f75.stream/playlist.m3u8","snapshot":null,"refreshMs":30000,"attribution":"Ora (Warner Varnado) · Oklahoma DOT"}},{"type":"Feature","geometry":{"type":"Point","coordinates":[-97.50718,35.47305]},"properties":{"id":"ora-ok-80","name":"I-235 & N 5th","state":"OK","provider":"Oklahoma DOT","hls":"https://stream.oktraffic.org/delay-stream/40a95e4b76183b6a.stream/playlist.m3u8","snapshot":null,"refreshMs":30000,"attribution":"Ora (Warner Varnado) · Oklahoma DOT"}},{"type":"Feature","geometry":{"type":"Point","coordinates":[-97.34512724,36.11611481]},"properties":{"id":"ora-ok-81","name":"I-35 & SH-51","state":"OK","provider":"Oklahoma DOT","hls":"https://stream.oktraffic.org/delay-stream/65be0ba1dde1dc77.stream/playlist.m3u8","snapshot":null,"refreshMs":30000,"attribution":"Ora (Warner Varnado) · Oklahoma DOT"}},{"type":"Feature","geometry":{"type":"Point","coordinates":[-97.35317387,36.90651602]},"properties":{"id":"ora-ok-82","name":"I-35 & Chikaskia River","state":"OK","provider":"Oklahoma DOT","hls":"https://stream.oktraffic.org/delay-stream/8256014bf6fb81ef.stream/playlist.m3u8","snapshot":null,"refreshMs":30000,"attribution":"Ora (Warner Varnado) · Oklahoma DOT"}},{"type":"Feature","geometry":{"type":"Point","coordinates":[-100.00046321,35.22669291]},"properties":{"id":"ora-ok-83","name":"I-40 & Texas Line","state":"OK","provider":"Oklahoma DOT","hls":"https://stream.oktraffic.org/delay-stream/5e5aed3812217d9b.stream/playlist.m3u8","snapshot":null,"refreshMs":30000,"attribution":"Ora (Warner Varnado) · Oklahoma DOT"}},{"type":"Feature","geometry":{"type":"Point","coordinates":[-98.456842,34.638166]},"properties":{"id":"ora-ok-84","name":"US-62 & 52nd","state":"OK","provider":"Oklahoma DOT","hls":"https://stream.oktraffic.org/delay-stream/7f180b041e07f3d4.stream/playlist.m3u8","snapshot":null,"refreshMs":30000,"attribution":"Ora (Warner Varnado) · Oklahoma DOT"}},{"type":"Feature","geometry":{"type":"Point","coordinates":[-98.405091,34.6386]},"properties":{"id":"ora-ok-85","name":"US-62 & Ft Sill","state":"OK","provider":"Oklahoma DOT","hls":"https://stream.oktraffic.org/delay-stream/fa340df2098e8442.stream/playlist.m3u8","snapshot":null,"refreshMs":30000,"attribution":"Ora (Warner Varnado) · Oklahoma DOT"}},{"type":"Feature","geometry":{"type":"Point","coordinates":[-98.421649,34.637933]},"properties":{"id":"ora-ok-86","name":"US-62 & Sheridan","state":"OK","provider":"Oklahoma DOT","hls":"https://stream.oktraffic.org/delay-stream/4e96a9bc175aacfb.stream/playlist.m3u8","snapshot":null,"refreshMs":30000,"attribution":"Ora (Warner Varnado) · Oklahoma DOT"}},{"type":"Feature","geometry":{"type":"Point","coordinates":[-98.38234,34.660625]},"properties":{"id":"ora-ok-87","name":"I-44 & Sheridan (Key Gate)","state":"OK","provider":"Oklahoma DOT","hls":"https://stream.oktraffic.org/delay-stream/665240c29d9fc5b9.stream/playlist.m3u8","snapshot":null,"refreshMs":30000,"attribution":"Ora (Warner Varnado) · Oklahoma DOT"}},{"type":"Feature","geometry":{"type":"Point","coordinates":[-95.85207809,36.22023407]},"properties":{"id":"ora-ok-88","name":"US-169 & E 46th N","state":"OK","provider":"Oklahoma DOT","hls":"https://stream.oktraffic.org/delay-stream/ff0542130b4b7dae.stream/playlist.m3u8","snapshot":null,"refreshMs":30000,"attribution":"Ora (Warner Varnado) · Oklahoma DOT"}},{"type":"Feature","geometry":{"type":"Point","coordinates":[-95.85200701,36.20578987]},"properties":{"id":"ora-ok-89","name":"US-169 & E 36th N","state":"OK","provider":"Oklahoma DOT","hls":"https://stream.oktraffic.org/delay-stream/7d075199a619ca43.stream/playlist.m3u8","snapshot":null,"refreshMs":30000,"attribution":"Ora (Warner Varnado) · Oklahoma DOT"}},{"type":"Feature","geometry":{"type":"Point","coordinates":[-95.79721562,36.07067354]},"properties":{"id":"ora-ok-90","name":"SH-51 & Elm","state":"OK","provider":"Oklahoma DOT","hls":"https://stream.oktraffic.org/delay-stream/a13810d490d2f985.stream/playlist.m3u8","snapshot":null,"refreshMs":30000,"attribution":"Ora (Warner Varnado) · Oklahoma DOT"}},{"type":"Feature","geometry":{"type":"Point","coordinates":[-97.501475,35.461478]},"properties":{"id":"ora-ok-91","name":"I-40 & OKC Blvd","state":"OK","provider":"Oklahoma DOT","hls":"https://stream.oktraffic.org/delay-stream/cf7db04b9ec591fe.stream/playlist.m3u8","snapshot":null,"refreshMs":30000,"attribution":"Ora (Warner Varnado) · Oklahoma DOT"}},{"type":"Feature","geometry":{"type":"Point","coordinates":[-98.389198,34.643516]},"properties":{"id":"ora-ok-92","name":"I-44 & Post Rd (Gate 2)","state":"OK","provider":"Oklahoma DOT","hls":"https://stream.oktraffic.org/delay-stream/9f25367f274a41ae.stream/playlist.m3u8","snapshot":null,"refreshMs":30000,"attribution":"Ora (Warner Varnado) · Oklahoma DOT"}},{"type":"Feature","geometry":{"type":"Point","coordinates":[-98.405195,34.710184]},"properties":{"id":"ora-ok-93","name":"Apache Gate","state":"OK","provider":"Oklahoma DOT","hls":"https://stream.oktraffic.org/delay-stream/91628ab7ac2117a5.stream/playlist.m3u8","snapshot":null,"refreshMs":30000,"attribution":"Ora (Warner Varnado) · Oklahoma DOT"}},{"type":"Feature","geometry":{"type":"Point","coordinates":[-97.46968,35.601159]},"properties":{"id":"ora-ok-94","name":"Kilpatrick Tpk & Eastern","state":"OK","provider":"Oklahoma DOT","hls":"https://stream.oktraffic.org/delay-stream/9053faf2ff4ecc83.stream/playlist.m3u8","snapshot":null,"refreshMs":30000,"attribution":"Ora (Warner Varnado) · Oklahoma DOT"}},{"type":"Feature","geometry":{"type":"Point","coordinates":[-97.42464522,35.62976773]},"properties":{"id":"ora-ok-95","name":"I-35 NB & S 25th","state":"OK","provider":"Oklahoma DOT","hls":"https://stream.oktraffic.org/delay-stream/6d8f4c2e7cf4f332.stream/playlist.m3u8","snapshot":null,"refreshMs":30000,"attribution":"Ora (Warner Varnado) · Oklahoma DOT"}},{"type":"Feature","geometry":{"type":"Point","coordinates":[-97.4246386,35.63085571]},"properties":{"id":"ora-ok-96","name":"I-35 SB & S 25th","state":"OK","provider":"Oklahoma DOT","hls":"https://stream.oktraffic.org/delay-stream/57b795f7bbb51068.stream/playlist.m3u8","snapshot":null,"refreshMs":30000,"attribution":"Ora (Warner Varnado) · Oklahoma DOT"}},{"type":"Feature","geometry":{"type":"Point","coordinates":[-97.57730381,35.37111421]},"properties":{"id":"ora-ok-97","name":"I-44 & S 96th","state":"OK","provider":"Oklahoma DOT","hls":"https://stream.oktraffic.org/delay-stream/dde0214c8ab628c5.stream/playlist.m3u8","snapshot":null,"refreshMs":30000,"attribution":"Ora (Warner Varnado) · Oklahoma DOT"}},{"type":"Feature","geometry":{"type":"Point","coordinates":[-97.40374545,35.60343357]},"properties":{"id":"ora-ok-98","name":"Turner Tpk & OKC","state":"OK","provider":"Oklahoma DOT","hls":"https://stream.oktraffic.org/delay-stream/a87ddc86b1726b65.stream/playlist.m3u8","snapshot":null,"refreshMs":30000,"attribution":"Ora (Warner Varnado) · Oklahoma DOT"}},{"type":"Feature","geometry":{"type":"Point","coordinates":[-97.34556735,36.98480598]},"properties":{"id":"ora-ok-99","name":"I-35 and Kansas","state":"OK","provider":"Oklahoma DOT","hls":"https://stream.oktraffic.org/delay-stream/2708e2c1f37d0fb5.stream/playlist.m3u8","snapshot":null,"refreshMs":30000,"attribution":"Ora (Warner Varnado) · Oklahoma DOT"}},{"type":"Feature","geometry":{"type":"Point","coordinates":[-99.96796832,35.2300195]},"properties":{"id":"ora-ok-100","name":"Beckham POE","state":"OK","provider":"Oklahoma DOT","hls":"https://stream.oktraffic.org/delay-stream/1dd44c5611f785db.stream/playlist.m3u8","snapshot":null,"refreshMs":30000,"attribution":"Ora (Warner Varnado) · Oklahoma DOT"}},{"type":"Feature","geometry":{"type":"Point","coordinates":[-97.2131,35.3845]},"properties":{"id":"ora-ok-101","name":"I-40 & Peebly","state":"OK","provider":"Oklahoma DOT","hls":"https://stream.oktraffic.org/delay-stream/377ea9808dfe4ded.stream/playlist.m3u8","snapshot":null,"refreshMs":30000,"attribution":"Ora (Warner Varnado) · Oklahoma DOT"}},{"type":"Feature","geometry":{"type":"Point","coordinates":[-94.47723945,35.43725613]},"properties":{"id":"ora-ok-102","name":"Sequoyah POE","state":"OK","provider":"Oklahoma DOT","hls":"https://stream.oktraffic.org/delay-stream/407f8358dd7a1f00.stream/playlist.m3u8","snapshot":null,"refreshMs":30000,"attribution":"Ora (Warner Varnado) · Oklahoma DOT"}},{"type":"Feature","geometry":{"type":"Point","coordinates":[-97.3466751,36.98286482]},"properties":{"id":"ora-ok-103","name":"Kay POE","state":"OK","provider":"Oklahoma DOT","hls":"https://stream.oktraffic.org/delay-stream/2453cda78dcca6b6.stream/playlist.m3u8","snapshot":null,"refreshMs":30000,"attribution":"Ora (Warner Varnado) · Oklahoma DOT"}},{"type":"Feature","geometry":{"type":"Point","coordinates":[-97.4239,35.6525]},"properties":{"id":"ora-ok-104","name":"I-35 & 2nd","state":"OK","provider":"Oklahoma DOT","hls":"https://stream.oktraffic.org/delay-stream/fbeae87480cbb330.stream/playlist.m3u8","snapshot":null,"refreshMs":30000,"attribution":"Ora (Warner Varnado) · Oklahoma DOT"}},{"type":"Feature","geometry":{"type":"Point","coordinates":[-96.0481768,36.0892]},"properties":{"id":"ora-ok-105","name":"Gilcrease & S 49th W","state":"OK","provider":"Oklahoma DOT","hls":"https://stream.oktraffic.org/delay-stream/366e8595c5e87319.stream/playlist.m3u8","snapshot":null,"refreshMs":30000,"attribution":"Ora (Warner Varnado) · Oklahoma DOT"}},{"type":"Feature","geometry":{"type":"Point","coordinates":[-96.05729,36.152465]},"properties":{"id":"ora-ok-106","name":"Gilcrease & W 2nd","state":"OK","provider":"Oklahoma DOT","hls":"https://stream.oktraffic.org/delay-stream/9031b61c82c153b1.stream/playlist.m3u8","snapshot":null,"refreshMs":30000,"attribution":"Ora (Warner Varnado) · Oklahoma DOT"}},{"type":"Feature","geometry":{"type":"Point","coordinates":[-97.577417,35.37155]},"properties":{"id":"ora-ok-107","name":"I-44 WB & S 96th Verifier","state":"OK","provider":"Oklahoma DOT","hls":"https://stream.oktraffic.org/delay-stream/96ab4baa13153418.stream/playlist.m3u8","snapshot":null,"refreshMs":30000,"attribution":"Ora (Warner Varnado) · Oklahoma DOT"}},{"type":"Feature","geometry":{"type":"Point","coordinates":[-97.57771473,35.37077794]},"properties":{"id":"ora-ok-108","name":"I-44 EB & S 96th Verifier","state":"OK","provider":"Oklahoma DOT","hls":"https://stream.oktraffic.org/delay-stream/676259b81a377e22.stream/playlist.m3u8","snapshot":null,"refreshMs":30000,"attribution":"Ora (Warner Varnado) · Oklahoma DOT"}},{"type":"Feature","geometry":{"type":"Point","coordinates":[-96.08847,36.02908]},"properties":{"id":"ora-ok-109","name":"Turner Tpk & Creek Tpk","state":"OK","provider":"Oklahoma DOT","hls":"https://stream.oktraffic.org/delay-stream/ea10809d15948870.stream/playlist.m3u8","snapshot":null,"refreshMs":30000,"attribution":"Ora (Warner Varnado) · Oklahoma DOT"}},{"type":"Feature","geometry":{"type":"Point","coordinates":[-96.01004,36.00889]},"properties":{"id":"ora-ok-110","name":"Creek Tpk & US-75","state":"OK","provider":"Oklahoma DOT","hls":"https://stream.oktraffic.org/delay-stream/a7670afd42b02394.stream/playlist.m3u8","snapshot":null,"refreshMs":30000,"attribution":"Ora (Warner Varnado) · Oklahoma DOT"}},{"type":"Feature","geometry":{"type":"Point","coordinates":[-95.88693,36.02506]},"properties":{"id":"ora-ok-111","name":"Creek & Memorial","state":"OK","provider":"Oklahoma DOT","hls":"https://stream.oktraffic.org/delay-stream/32c3321152a60ac5.stream/playlist.m3u8","snapshot":null,"refreshMs":30000,"attribution":"Ora (Warner Varnado) · Oklahoma DOT"}},{"type":"Feature","geometry":{"type":"Point","coordinates":[-95.86871,36.026125]},"properties":{"id":"ora-ok-112","name":"Creek Tpk & Mingo","state":"OK","provider":"Oklahoma DOT","hls":"https://stream.oktraffic.org/delay-stream/e08c931cb95965e3.stream/playlist.m3u8","snapshot":null,"refreshMs":30000,"attribution":"Ora (Warner Varnado) · Oklahoma DOT"}},{"type":"Feature","geometry":{"type":"Point","coordinates":[-95.73895,36.04688]},"properties":{"id":"ora-ok-113","name":"Creek Tpk & Muskogee Tpk","state":"OK","provider":"Oklahoma DOT","hls":"https://stream.oktraffic.org/delay-stream/9dd118a4a63afddf.stream/playlist.m3u8","snapshot":null,"refreshMs":30000,"attribution":"Ora (Warner Varnado) · Oklahoma DOT"}},{"type":"Feature","geometry":{"type":"Point","coordinates":[-97.42766,35.601362]},"properties":{"id":"ora-ok-114","name":"I-35 & JKT","state":"OK","provider":"Oklahoma DOT","hls":"https://stream.oktraffic.org/delay-stream/0aef0b24ccc1e511.stream/playlist.m3u8","snapshot":null,"refreshMs":30000,"attribution":"Ora (Warner Varnado) · Oklahoma DOT"}},{"type":"Feature","geometry":{"type":"Point","coordinates":[-97.711942,35.463214]},"properties":{"id":"ora-ok-115","name":"I-40 & JKT","state":"OK","provider":"Oklahoma DOT","hls":"https://stream.oktraffic.org/delay-stream/8450075ffd89557c.stream/playlist.m3u8","snapshot":null,"refreshMs":30000,"attribution":"Ora (Warner Varnado) · Oklahoma DOT"}},{"type":"Feature","geometry":{"type":"Point","coordinates":[-97.503086,35.5998]},"properties":{"id":"ora-ok-116","name":"JKT & US-77","state":"OK","provider":"Oklahoma DOT","hls":"https://stream.oktraffic.org/delay-stream/ec0ec18887f300fd.stream/playlist.m3u8","snapshot":null,"refreshMs":30000,"attribution":"Ora (Warner Varnado) · Oklahoma DOT"}},{"type":"Feature","geometry":{"type":"Point","coordinates":[-97.65653,35.41371]},"properties":{"id":"ora-ok-117","name":"JKT & SH-152","state":"OK","provider":"Oklahoma DOT","hls":"https://stream.oktraffic.org/delay-stream/f4ec62327083a023.stream/playlist.m3u8","snapshot":null,"refreshMs":30000,"attribution":"Ora (Warner Varnado) · Oklahoma DOT"}},{"type":"Feature","geometry":{"type":"Point","coordinates":[-95.83708,34.83621]},"properties":{"id":"ora-ok-118","name":"US-69 & C Tree","state":"OK","provider":"Oklahoma DOT","hls":"https://stream.oktraffic.org/delay-stream/e14db145ebfea447.stream/playlist.m3u8","snapshot":null,"refreshMs":30000,"attribution":"Ora (Warner Varnado) · Oklahoma DOT"}},{"type":"Feature","geometry":{"type":"Point","coordinates":[-97.424852,35.630175]},"properties":{"id":"ora-ok-119","name":"I-35 & S 25th","state":"OK","provider":"Oklahoma DOT","hls":"https://stream.oktraffic.org/delay-stream/87dbb402891ea871.stream/playlist.m3u8","snapshot":null,"refreshMs":30000,"attribution":"Ora (Warner Varnado) · Oklahoma DOT"}},{"type":"Feature","geometry":{"type":"Point","coordinates":[-96.51044,33.86673]},"properties":{"id":"ora-ok-120","name":"Bryan Co POE","state":"OK","provider":"Oklahoma DOT","hls":"https://stream.oktraffic.org/delay-stream/7005b443ecd84cdb.stream/playlist.m3u8","snapshot":null,"refreshMs":30000,"attribution":"Ora (Warner Varnado) · Oklahoma DOT"}},{"type":"Feature","geometry":{"type":"Point","coordinates":[-97.291437,35.40392]},"properties":{"id":"ora-ok-121","name":"I-40 & I-240","state":"OK","provider":"Oklahoma DOT","hls":"https://stream.oktraffic.org/delay-stream/024b44b08acf9f4d.stream/playlist.m3u8","snapshot":null,"refreshMs":30000,"attribution":"Ora (Warner Varnado) · Oklahoma DOT"}},{"type":"Feature","geometry":{"type":"Point","coordinates":[-97.19289,35.38382]},"properties":{"id":"ora-ok-122","name":"I-40 & Kickapoo","state":"OK","provider":"Oklahoma DOT","hls":"https://stream.oktraffic.org/delay-stream/cc28625f37a8af18.stream/playlist.m3u8","snapshot":null,"refreshMs":30000,"attribution":"Ora (Warner Varnado) · Oklahoma DOT"}},{"type":"Feature","geometry":{"type":"Point","coordinates":[-97.48076,35.19785]},"properties":{"id":"ora-ok-123","name":"I-35 & SH-9 E","state":"OK","provider":"Oklahoma DOT","hls":"https://stream.oktraffic.org/delay-stream/0dfae68f29e4c966.stream/playlist.m3u8","snapshot":null,"refreshMs":30000,"attribution":"Ora (Warner Varnado) · Oklahoma DOT"}},{"type":"Feature","geometry":{"type":"Point","coordinates":[-97.49215,35.1803]},"properties":{"id":"ora-ok-124","name":"I-35 & SH-9 W","state":"OK","provider":"Oklahoma DOT","hls":"https://stream.oktraffic.org/delay-stream/c7674131b864eab0.stream/playlist.m3u8","snapshot":null,"refreshMs":30000,"attribution":"Ora (Warner Varnado) · Oklahoma DOT"}},{"type":"Feature","geometry":{"type":"Point","coordinates":[-97.4854,35.27893]},"properties":{"id":"ora-ok-125","name":"I-35 & Franklin","state":"OK","provider":"Oklahoma DOT","hls":"https://stream.oktraffic.org/delay-stream/ecaba3e5811b8353.stream/playlist.m3u8","snapshot":null,"refreshMs":30000,"attribution":"Ora (Warner Varnado) · Oklahoma DOT"}},{"type":"Feature","geometry":{"type":"Point","coordinates":[-97.4859,35.23327]},"properties":{"id":"ora-ok-126","name":"I-35 & Robinson","state":"OK","provider":"Oklahoma DOT","hls":"https://stream.oktraffic.org/delay-stream/b7dce93c23999ce5.stream/playlist.m3u8","snapshot":null,"refreshMs":30000,"attribution":"Ora (Warner Varnado) · Oklahoma DOT"}},{"type":"Feature","geometry":{"type":"Point","coordinates":[-97.48492,35.2626]},"properties":{"id":"ora-ok-127","name":"I-35 & Tecumseh","state":"OK","provider":"Oklahoma DOT","hls":"https://stream.oktraffic.org/delay-stream/da1aa9e1cbdf3bf7.stream/playlist.m3u8","snapshot":null,"refreshMs":30000,"attribution":"Ora (Warner Varnado) · Oklahoma DOT"}},{"type":"Feature","geometry":{"type":"Point","coordinates":[-97.37154,35.38885]},"properties":{"id":"ora-ok-128","name":"I-240 & Douglas","state":"OK","provider":"Oklahoma DOT","hls":"https://stream.oktraffic.org/delay-stream/301f2a6f2652f3b2.stream/playlist.m3u8","snapshot":null,"refreshMs":30000,"attribution":"Ora (Warner Varnado) · Oklahoma DOT"}},{"type":"Feature","geometry":{"type":"Point","coordinates":[-97.59929,35.18241]},"properties":{"id":"ora-ok-129","name":"US-62 & SH-9","state":"OK","provider":"Oklahoma DOT","hls":"https://stream.oktraffic.org/delay-stream/cec507d67ff849cf.stream/playlist.m3u8","snapshot":null,"refreshMs":30000,"attribution":"Ora (Warner Varnado) · Oklahoma DOT"}},{"type":"Feature","geometry":{"type":"Point","coordinates":[-97.69677,35.51555]},"properties":{"id":"ora-ok-130","name":"JKT & SH-66","state":"OK","provider":"Oklahoma DOT","hls":"https://stream.oktraffic.org/delay-stream/111caeda7ae21782.stream/playlist.m3u8","snapshot":null,"refreshMs":30000,"attribution":"Ora (Warner Varnado) · Oklahoma DOT"}},{"type":"Feature","geometry":{"type":"Point","coordinates":[-97.68862,35.5802]},"properties":{"id":"ora-ok-131","name":"JKT & SH-3","state":"OK","provider":"Oklahoma DOT","hls":"https://stream.oktraffic.org/delay-stream/4665150d7cd7c090.stream/playlist.m3u8","snapshot":null,"refreshMs":30000,"attribution":"Ora (Warner Varnado) · Oklahoma DOT"}},{"type":"Feature","geometry":{"type":"Point","coordinates":[-95.948522,36.019133]},"properties":{"id":"ora-ok-132","name":"Creek Tpk & Riverside","state":"OK","provider":"Oklahoma DOT","hls":"https://stream.oktraffic.org/delay-stream/c1ca858dc10a528f.stream/playlist.m3u8","snapshot":null,"refreshMs":30000,"attribution":"Ora (Warner Varnado) · Oklahoma DOT"}},{"type":"Feature","geometry":{"type":"Point","coordinates":[-95.974184,36.017121]},"properties":{"id":"ora-ok-133","name":"Creek Tpk & Elm","state":"OK","provider":"Oklahoma DOT","hls":"https://stream.oktraffic.org/delay-stream/f0f0a15dc05f707b.stream/playlist.m3u8","snapshot":null,"refreshMs":30000,"attribution":"Ora (Warner Varnado) · Oklahoma DOT"}},{"type":"Feature","geometry":{"type":"Point","coordinates":[-95.921617,36.025745]},"properties":{"id":"ora-ok-134","name":"Creek Tpk & Yale","state":"OK","provider":"Oklahoma DOT","hls":"https://stream.oktraffic.org/delay-stream/6e8969a2a1934f3d.stream/playlist.m3u8","snapshot":null,"refreshMs":30000,"attribution":"Ora (Warner Varnado) · Oklahoma DOT"}},{"type":"Feature","geometry":{"type":"Point","coordinates":[-97.549847,35.609518]},"properties":{"id":"ora-ok-135","name":"JKT & Penn","state":"OK","provider":"Oklahoma DOT","hls":"https://stream.oktraffic.org/delay-stream/5310b08f5a79c094.stream/playlist.m3u8","snapshot":null,"refreshMs":30000,"attribution":"Ora (Warner Varnado) · Oklahoma DOT"}},{"type":"Feature","geometry":{"type":"Point","coordinates":[-96.068862,36.064789]},"properties":{"id":"ora-ok-136","name":"Turner Tpk & W 69th","state":"OK","provider":"Oklahoma DOT","hls":"https://stream.oktraffic.org/delay-stream/b6379c4313d746d7.stream/playlist.m3u8","snapshot":null,"refreshMs":30000,"attribution":"Ora (Warner Varnado) · Oklahoma DOT"}},{"type":"Feature","geometry":{"type":"Point","coordinates":[-96.078791,36.047711]},"properties":{"id":"ora-ok-137","name":"Turner Tpk & W 81st","state":"OK","provider":"Oklahoma DOT","hls":"https://stream.oktraffic.org/delay-stream/3485b132eb5e623a.stream/playlist.m3u8","snapshot":null,"refreshMs":30000,"attribution":"Ora (Warner Varnado) · Oklahoma DOT"}},{"type":"Feature","geometry":{"type":"Point","coordinates":[-97.618541,35.459784]},"properties":{"id":"ora-ok-138","name":"I-40 & MacArthur","state":"OK","provider":"Oklahoma DOT","hls":"https://stream.oktraffic.org/delay-stream/cb2443fdbc5ae798.stream/playlist.m3u8","snapshot":null,"refreshMs":30000,"attribution":"Ora (Warner Varnado) · Oklahoma DOT"}},{"type":"Feature","geometry":{"type":"Point","coordinates":[-97.654622,35.460058]},"properties":{"id":"ora-ok-139","name":"I-40 & Council","state":"OK","provider":"Oklahoma DOT","hls":"https://stream.oktraffic.org/delay-stream/3b8a73fbb0b2bf7a.stream/playlist.m3u8","snapshot":null,"refreshMs":30000,"attribution":"Ora (Warner Varnado) · Oklahoma DOT"}},{"type":"Feature","geometry":{"type":"Point","coordinates":[-97.601482,35.423206]},"properties":{"id":"ora-ok-140","name":"SH-152 & Meridian","state":"OK","provider":"Oklahoma DOT","hls":"https://stream.oktraffic.org/delay-stream/f021444f900d01bd.stream/playlist.m3u8","snapshot":null,"refreshMs":30000,"attribution":"Ora (Warner Varnado) · Oklahoma DOT"}},{"type":"Feature","geometry":{"type":"Point","coordinates":[-97.632074,35.420368]},"properties":{"id":"ora-ok-141","name":"SH-152 & SW 44th","state":"OK","provider":"Oklahoma DOT","hls":"https://stream.oktraffic.org/delay-stream/3803b059ac2eeb88.stream/playlist.m3u8","snapshot":null,"refreshMs":30000,"attribution":"Ora (Warner Varnado) · Oklahoma DOT"}},{"type":"Feature","geometry":{"type":"Point","coordinates":[-97.464956,35.492846]},"properties":{"id":"ora-ok-142","name":"I-35 & NE 23rd","state":"OK","provider":"Oklahoma DOT","hls":"https://stream.oktraffic.org/delay-stream/b67386c29e37fa35.stream/playlist.m3u8","snapshot":null,"refreshMs":30000,"attribution":"Ora (Warner Varnado) · Oklahoma DOT"}},{"type":"Feature","geometry":{"type":"Point","coordinates":[-96.029618,36.157778]},"properties":{"id":"ora-ok-143","name":"US-412 & N 33rd","state":"OK","provider":"Oklahoma DOT","hls":"https://stream.oktraffic.org/delay-stream/e4b8910af1264a5a.stream/playlist.m3u8","snapshot":null,"refreshMs":30000,"attribution":"Ora (Warner Varnado) · Oklahoma DOT"}},{"type":"Feature","geometry":{"type":"Point","coordinates":[-95.980935,36.15099]},"properties":{"id":"ora-ok-144","name":"US-75 & E 8th","state":"OK","provider":"Oklahoma DOT","hls":"https://stream.oktraffic.org/delay-stream/a7b8291294405b08.stream/playlist.m3u8","snapshot":null,"refreshMs":30000,"attribution":"Ora (Warner Varnado) · Oklahoma DOT"}},{"type":"Feature","geometry":{"type":"Point","coordinates":[-95.938824,36.125727]},"properties":{"id":"ora-ok-145","name":"SH-51 & Harvard","state":"OK","provider":"Oklahoma DOT","hls":"https://stream.oktraffic.org/delay-stream/dd4f5c7d1a689d9f.stream/playlist.m3u8","snapshot":null,"refreshMs":30000,"attribution":"Ora (Warner Varnado) · Oklahoma DOT"}},{"type":"Feature","geometry":{"type":"Point","coordinates":[-95.919065,36.118359]},"properties":{"id":"ora-ok-146","name":"SH-51 & E 31st","state":"OK","provider":"Oklahoma DOT","hls":"https://stream.oktraffic.org/delay-stream/9e84513ad6d60757.stream/playlist.m3u8","snapshot":null,"refreshMs":30000,"attribution":"Ora (Warner Varnado) · Oklahoma DOT"}},{"type":"Feature","geometry":{"type":"Point","coordinates":[-95.876482,36.104631]},"properties":{"id":"ora-ok-147","name":"SH-51 & E 41st","state":"OK","provider":"Oklahoma DOT","hls":"https://stream.oktraffic.org/delay-stream/7813cf9be4f5373c.stream/playlist.m3u8","snapshot":null,"refreshMs":30000,"attribution":"Ora (Warner Varnado) · Oklahoma DOT"}},{"type":"Feature","geometry":{"type":"Point","coordinates":[-95.76764,36.060735]},"properties":{"id":"ora-ok-148","name":"SH-51 & Kenosha","state":"OK","provider":"Oklahoma DOT","hls":"https://stream.oktraffic.org/delay-stream/2b973c389bd04351.stream/playlist.m3u8","snapshot":null,"refreshMs":30000,"attribution":"Ora (Warner Varnado) · Oklahoma DOT"}},{"type":"Feature","geometry":{"type":"Point","coordinates":[-97.54209,35.46077]},"properties":{"id":"ora-ok-149","name":"I-40 EB & Western Verifier","state":"OK","provider":"Oklahoma DOT","hls":"https://stream.oktraffic.org/delay-stream/f2f6d485e110beb3.stream/playlist.m3u8","snapshot":null,"refreshMs":30000,"attribution":"Ora (Warner Varnado) · Oklahoma DOT"}},{"type":"Feature","geometry":{"type":"Point","coordinates":[-97.53966,35.46021]},"properties":{"id":"ora-ok-150","name":"I-40 WB & Western Verifier","state":"OK","provider":"Oklahoma DOT","hls":"https://stream.oktraffic.org/delay-stream/885fafde61479a56.stream/playlist.m3u8","snapshot":null,"refreshMs":30000,"attribution":"Ora (Warner Varnado) · Oklahoma DOT"}},{"type":"Feature","geometry":{"type":"Point","coordinates":[-97.40337,35.60351]},"properties":{"id":"ora-ok-151","name":"Turner Tpk WB & OKC Verifier","state":"OK","provider":"Oklahoma DOT","hls":"https://stream.oktraffic.org/delay-stream/ef9e50270aab76ec.stream/playlist.m3u8","snapshot":null,"refreshMs":30000,"attribution":"Ora (Warner Varnado) · Oklahoma DOT"}},{"type":"Feature","geometry":{"type":"Point","coordinates":[-97.40419,35.60335]},"properties":{"id":"ora-ok-152","name":"Turner Tpk EB & OKC Verifier","state":"OK","provider":"Oklahoma DOT","hls":"https://stream.oktraffic.org/delay-stream/5cc3e85ef22a5339.stream/playlist.m3u8","snapshot":null,"refreshMs":30000,"attribution":"Ora (Warner Varnado) · Oklahoma DOT"}},{"type":"Feature","geometry":{"type":"Point","coordinates":[-97.49472,35.37283]},"properties":{"id":"ora-ok-153","name":"I-35 NB & S 89th Verifier","state":"OK","provider":"Oklahoma DOT","hls":"https://stream.oktraffic.org/delay-stream/6f1ca57430363d9d.stream/playlist.m3u8","snapshot":null,"refreshMs":30000,"attribution":"Ora (Warner Varnado) · Oklahoma DOT"}},{"type":"Feature","geometry":{"type":"Point","coordinates":[-97.47017,35.60137]},"properties":{"id":"ora-ok-154","name":"Kilpatrick Tpk EB & Eastern Verifier","state":"OK","provider":"Oklahoma DOT","hls":"https://stream.oktraffic.org/delay-stream/f6203baeb83bb01c.stream/playlist.m3u8","snapshot":null,"refreshMs":30000,"attribution":"Ora (Warner Varnado) · Oklahoma DOT"}},{"type":"Feature","geometry":{"type":"Point","coordinates":[-97.4692,35.60136]},"properties":{"id":"ora-ok-155","name":"Kilpatrick Tpk WB & Eastern Verifier","state":"OK","provider":"Oklahoma DOT","hls":"https://stream.oktraffic.org/delay-stream/f0b836fe74dceda6.stream/playlist.m3u8","snapshot":null,"refreshMs":30000,"attribution":"Ora (Warner Varnado) · Oklahoma DOT"}},{"type":"Feature","geometry":{"type":"Point","coordinates":[-97.60826,35.45991]},"properties":{"id":"ora-ok-156","name":"I-40 EB & Meridian Verifier","state":"OK","provider":"Oklahoma DOT","hls":"https://stream.oktraffic.org/delay-stream/b803d7cba5236373.stream/playlist.m3u8","snapshot":null,"refreshMs":30000,"attribution":"Ora (Warner Varnado) · Oklahoma DOT"}},{"type":"Feature","geometry":{"type":"Point","coordinates":[-97.054842,35.678364]},"properties":{"id":"ora-ok-157","name":"I-44 & Wellston","state":"OK","provider":"Oklahoma DOT","hls":"https://stream.oktraffic.org/delay-stream/f36bf15a8f6cbd54.stream/playlist.m3u8","snapshot":null,"refreshMs":30000,"attribution":"Ora (Warner Varnado) · Oklahoma DOT"}},{"type":"Feature","geometry":{"type":"Point","coordinates":[-97.50779,35.4884]},"properties":{"id":"ora-ok-158","name":"ODOT Test Pole","state":"OK","provider":"Oklahoma DOT","hls":"https://stream.oktraffic.org/delay-stream/3a6deb6e0c8214f8.stream/playlist.m3u8","snapshot":null,"refreshMs":30000,"attribution":"Ora (Warner Varnado) · Oklahoma DOT"}},{"type":"Feature","geometry":{"type":"Point","coordinates":[-97.49497,35.18178]},"properties":{"id":"ora-ok-159","name":"I-35 & SH-9 W 2","state":"OK","provider":"Oklahoma DOT","hls":"https://stream.oktraffic.org/delay-stream/65b596f7803ad05a.stream/playlist.m3u8","snapshot":null,"refreshMs":30000,"attribution":"Ora (Warner Varnado) · Oklahoma DOT"}},{"type":"Feature","geometry":{"type":"Point","coordinates":[-97.13412,33.84958]},"properties":{"id":"ora-ok-160","name":"I-35 & Bomar Rd","state":"OK","provider":"Oklahoma DOT","hls":"https://stream.oktraffic.org/delay-stream/0182bc459731ca1e.stream/playlist.m3u8","snapshot":null,"refreshMs":30000,"attribution":"Ora (Warner Varnado) · Oklahoma DOT"}},{"type":"Feature","geometry":{"type":"Point","coordinates":[-96.530885,33.825591]},"properties":{"id":"ora-ok-161","name":"US-75 & State Line","state":"OK","provider":"Oklahoma DOT","hls":"https://stream.oktraffic.org/delay-stream/888a20a2ec29f018.stream/playlist.m3u8","snapshot":null,"refreshMs":30000,"attribution":"Ora (Warner Varnado) · Oklahoma DOT"}},{"type":"Feature","geometry":{"type":"Point","coordinates":[-96.12582,34.392724]},"properties":{"id":"ora-ok-162","name":"US-75 & US-69","state":"OK","provider":"Oklahoma DOT","hls":"https://stream.oktraffic.org/delay-stream/19c1ced30b738abb.stream/playlist.m3u8","snapshot":null,"refreshMs":30000,"attribution":"Ora (Warner Varnado) · Oklahoma DOT"}},{"type":"Feature","geometry":{"type":"Point","coordinates":[-95.220221,36.567181]},"properties":{"id":"ora-ok-163","name":"I-44 & US-69","state":"OK","provider":"Oklahoma DOT","hls":"https://stream.oktraffic.org/delay-stream/77f972e669c0c5da.stream/playlist.m3u8","snapshot":null,"refreshMs":30000,"attribution":"Ora (Warner Varnado) · Oklahoma DOT"}},{"type":"Feature","geometry":{"type":"Point","coordinates":[-97.145146,33.73828]},"properties":{"id":"ora-ok-164","name":"I-35 & Thackerville (RWIS)","state":"OK","provider":"Oklahoma DOT","hls":null,"snapshot":"https://rwis.tulsa.ou.edu/rwis/files/camera/35ST001%202026-07-08%2010_25_03.jpg","refreshMs":30000,"attribution":"Ora (Warner Varnado) · Oklahoma DOT"}},{"type":"Feature","geometry":{"type":"Point","coordinates":[-97.13468,33.940666]},"properties":{"id":"ora-ok-165","name":"I-35 & Marietta (RWIS)","state":"OK","provider":"Oklahoma DOT","hls":null,"snapshot":"https://rwis.tulsa.ou.edu/rwis/files/camera/35ST015%202022-02-23%2005_48_02.jpg","refreshMs":30000,"attribution":"Ora (Warner Varnado) · Oklahoma DOT"}},{"type":"Feature","geometry":{"type":"Point","coordinates":[-97.167973,34.1732]},"properties":{"id":"ora-ok-166","name":"I-35 & Ardmore (RWIS)","state":"OK","provider":"Oklahoma DOT","hls":null,"snapshot":"https://rwis.tulsa.ou.edu/rwis/files/camera/35ST032%202026-07-10%2017_21_18.jpg","refreshMs":30000,"attribution":"Ora (Warner Varnado) · Oklahoma DOT"}},{"type":"Feature","geometry":{"type":"Point","coordinates":[-97.132653,34.448046]},"properties":{"id":"ora-ok-167","name":"I-35 & Davis (RWIS)","state":"OK","provider":"Oklahoma DOT","hls":null,"snapshot":"https://rwis.tulsa.ou.edu/rwis/files/camera/35ST051%202026-07-10%2017_29_37.jpg","refreshMs":30000,"attribution":"Ora (Warner Varnado) · Oklahoma DOT"}},{"type":"Feature","geometry":{"type":"Point","coordinates":[-97.187306,34.532626]},"properties":{"id":"ora-ok-168","name":"I-35 & Wynnewood (RWIS)","state":"OK","provider":"Oklahoma DOT","hls":null,"snapshot":"https://rwis.tulsa.ou.edu/rwis/files/camera/35ST058%202026-07-10%2017_29_39.jpg","refreshMs":30000,"attribution":"Ora (Warner Varnado) · Oklahoma DOT"}},{"type":"Feature","geometry":{"type":"Point","coordinates":[-97.28304,34.760406]},"properties":{"id":"ora-ok-169","name":"I-35 & Pauls Valley (RWIS)","state":"OK","provider":"Oklahoma DOT","hls":null,"snapshot":"https://rwis.tulsa.ou.edu/rwis/files/camera/35ST074%202026-07-10%2017_29_40.jpg","refreshMs":30000,"attribution":"Ora (Warner Varnado) · Oklahoma DOT"}},{"type":"Feature","geometry":{"type":"Point","coordinates":[-97.375026,34.998853]},"properties":{"id":"ora-ok-170","name":"I-35 & Purcell (RWIS)","state":"OK","provider":"Oklahoma DOT","hls":null,"snapshot":"https://rwis.tulsa.ou.edu/rwis/files/camera/35ST092%202025-02-15%2011_08_07.jpg","refreshMs":30000,"attribution":"Ora (Warner Varnado) · Oklahoma DOT"}},{"type":"Feature","geometry":{"type":"Point","coordinates":[-97.485786,35.435513]},"properties":{"id":"ora-ok-171","name":"I-35 & OKC South (RWIS)","state":"OK","provider":"Oklahoma DOT","hls":null,"snapshot":"https://rwis.tulsa.ou.edu/rwis/files/camera/35ST124%202026-07-10%2017_30_45.jpg","refreshMs":30000,"attribution":"Ora (Warner Varnado) · Oklahoma DOT"}},{"type":"Feature","geometry":{"type":"Point","coordinates":[-97.4452,35.57592]},"properties":{"id":"ora-ok-172","name":"I-35 & OKC North (RWIS)","state":"OK","provider":"Oklahoma DOT","hls":null,"snapshot":"https://rwis.tulsa.ou.edu/rwis/files/camera/35ST136%202026-07-10%2017_29_35.jpg","refreshMs":30000,"attribution":"Ora (Warner Varnado) · Oklahoma DOT"}},{"type":"Feature","geometry":{"type":"Point","coordinates":[-97.407986,35.826773]},"properties":{"id":"ora-ok-173","name":"I-35 & Guthrie (RWIS)","state":"OK","provider":"Oklahoma DOT","hls":null,"snapshot":"https://rwis.tulsa.ou.edu/rwis/files/camera/35ST154%202022-07-21%2015_56_06.jpg","refreshMs":30000,"attribution":"Ora (Warner Varnado) · Oklahoma DOT"}},{"type":"Feature","geometry":{"type":"Point","coordinates":[-97.3528,35.98698]},"properties":{"id":"ora-ok-174","name":"I-35 & Stillwater (RWIS)","state":"OK","provider":"Oklahoma DOT","hls":null,"snapshot":"https://rwis.tulsa.ou.edu/rwis/files/camera/35ST165%202026-07-10%2017_30_44.jpg","refreshMs":30000,"attribution":"Ora (Warner Varnado) · Oklahoma DOT"}},{"type":"Feature","geometry":{"type":"Point","coordinates":[-97.3277695,36.2901139]},"properties":{"id":"ora-ok-175","name":"I-35 & Perry (RWIS)","state":"OK","provider":"Oklahoma DOT","hls":null,"snapshot":"https://rwis.tulsa.ou.edu/rwis/files/camera/35ST187%202026-07-10%2017_23_19.jpg","refreshMs":30000,"attribution":"Ora (Warner Varnado) · Oklahoma DOT"}},{"type":"Feature","geometry":{"type":"Point","coordinates":[-97.327053,36.476573]},"properties":{"id":"ora-ok-176","name":"I-35 & Billings (RWIS)","state":"OK","provider":"Oklahoma DOT","hls":null,"snapshot":"https://rwis.tulsa.ou.edu/rwis/files/camera/35ST199%202026-07-10%2017_29_36.jpg","refreshMs":30000,"attribution":"Ora (Warner Varnado) · Oklahoma DOT"}},{"type":"Feature","geometry":{"type":"Point","coordinates":[-97.345813,36.676966]},"properties":{"id":"ora-ok-177","name":"I-35 & Tonkawa (RWIS)","state":"OK","provider":"Oklahoma DOT","hls":null,"snapshot":"https://rwis.tulsa.ou.edu/rwis/files/camera/35ST213%202026-02-05%2001_59_34.jpg","refreshMs":30000,"attribution":"Ora (Warner Varnado) · Oklahoma DOT"}},{"type":"Feature","geometry":{"type":"Point","coordinates":[-99.6216,35.286593]},"properties":{"id":"ora-ok-178","name":"I-40 & Sayre (RWIS)","state":"OK","provider":"Oklahoma DOT","hls":null,"snapshot":"https://rwis.tulsa.ou.edu/rwis/files/camera/I40ST023%202026-07-10%2017_29_33.jpg","refreshMs":30000,"attribution":"Ora (Warner Varnado) · Oklahoma DOT"}},{"type":"Feature","geometry":{"type":"Point","coordinates":[-99.38869,35.402231]},"properties":{"id":"ora-ok-179","name":"I-40 & Elk City (RWIS)","state":"OK","provider":"Oklahoma DOT","hls":null,"snapshot":"https://rwis.tulsa.ou.edu/rwis/files/camera/I40ST038%202026-07-10%2017_29_41.jpg","refreshMs":30000,"attribution":"Ora (Warner Varnado) · Oklahoma DOT"}},{"type":"Feature","geometry":{"type":"Point","coordinates":[-98.918468,35.514012]},"properties":{"id":"ora-ok-180","name":"I-40 & Clinton (RWIS)","state":"OK","provider":"Oklahoma DOT","hls":null,"snapshot":"https://rwis.tulsa.ou.edu/rwis/files/camera/I40ST066%202026-06-25%2020_28_58.jpg","refreshMs":30000,"attribution":"Ora (Warner Varnado) · Oklahoma DOT"}},{"type":"Feature","geometry":{"type":"Point","coordinates":[-98.288274,35.527577]},"properties":{"id":"ora-ok-181","name":"I-40 & Canadian R (RWIS)","state":"OK","provider":"Oklahoma DOT","hls":null,"snapshot":"https://rwis.tulsa.ou.edu/rwis/files/camera/I40ST104%202026-07-10%2017_29_30.jpg","refreshMs":30000,"attribution":"Ora (Warner Varnado) · Oklahoma DOT"}},{"type":"Feature","geometry":{"type":"Point","coordinates":[-97.936662,35.501199]},"properties":{"id":"ora-ok-182","name":"I-40 & El Reno (RWIS)","state":"OK","provider":"Oklahoma DOT","hls":null,"snapshot":"https://rwis.tulsa.ou.edu/rwis/files/camera/I40ST125%202026-03-24%2016_03_43.jpg","refreshMs":30000,"attribution":"Ora (Warner Varnado) · Oklahoma DOT"}},{"type":"Feature","geometry":{"type":"Point","coordinates":[-97.759815,35.486639]},"properties":{"id":"ora-ok-183","name":"I-40 & Yukon (RWIS)","state":"OK","provider":"Oklahoma DOT","hls":null,"snapshot":"https://rwis.tulsa.ou.edu/rwis/files/camera/I40ST138%202026-05-09%2011_28_34.jpg","refreshMs":30000,"attribution":"Ora (Warner Varnado) · Oklahoma DOT"}},{"type":"Feature","geometry":{"type":"Point","coordinates":[-97.030831,35.378642]},"properties":{"id":"ora-ok-184","name":"I-40 & Shawnee (RWIS)","state":"OK","provider":"Oklahoma DOT","hls":null,"snapshot":"https://rwis.tulsa.ou.edu/rwis/files/camera/I40ST179%202026-07-10%2017_30_42.jpg","refreshMs":30000,"attribution":"Ora (Warner Varnado) · Oklahoma DOT"}},{"type":"Feature","geometry":{"type":"Point","coordinates":[-96.638729,35.38556]},"properties":{"id":"ora-ok-185","name":"I-40 & Seminole (RWIS)","state":"OK","provider":"Oklahoma DOT","hls":null,"snapshot":"https://rwis.tulsa.ou.edu/rwis/files/camera/I40ST202%202026-04-02%2002_47_52.jpg","refreshMs":30000,"attribution":"Ora (Warner Varnado) · Oklahoma DOT"}},{"type":"Feature","geometry":{"type":"Point","coordinates":[-96.402492,35.393737]},"properties":{"id":"ora-ok-186","name":"I-40 & Okemah (RWIS)","state":"OK","provider":"Oklahoma DOT","hls":null,"snapshot":"https://rwis.tulsa.ou.edu/rwis/files/camera/I40ST216%202026-07-10%2017_29_34.jpg","refreshMs":30000,"attribution":"Ora (Warner Varnado) · Oklahoma DOT"}},{"type":"Feature","geometry":{"type":"Point","coordinates":[-95.971061,35.432109]},"properties":{"id":"ora-ok-187","name":"I-40 & Henryetta (RWIS)","state":"OK","provider":"Oklahoma DOT","hls":null,"snapshot":"https://rwis.tulsa.ou.edu/rwis/files/camera/I40ST240%202026-07-10%2017_28_27.jpg","refreshMs":30000,"attribution":"Ora (Warner Varnado) · Oklahoma DOT"}},{"type":"Feature","geometry":{"type":"Point","coordinates":[-95.645479,35.455067]},"properties":{"id":"ora-ok-188","name":"I-40 & Checotah (RWIS)","state":"OK","provider":"Oklahoma DOT","hls":null,"snapshot":"https://rwis.tulsa.ou.edu/rwis/files/camera/I40ST259%202026-06-06%2020_14_58.jpg","refreshMs":30000,"attribution":"Ora (Warner Varnado) · Oklahoma DOT"}},{"type":"Feature","geometry":{"type":"Point","coordinates":[-95.305732,35.476961]},"properties":{"id":"ora-ok-189","name":"I-40 & Warner (RWIS)","state":"OK","provider":"Oklahoma DOT","hls":null,"snapshot":"https://rwis.tulsa.ou.edu/rwis/files/camera/I40ST278%202026-07-10%2017_24_21.jpg","refreshMs":30000,"attribution":"Ora (Warner Varnado) · Oklahoma DOT"}},{"type":"Feature","geometry":{"type":"Point","coordinates":[-95.189572,35.486563]},"properties":{"id":"ora-ok-190","name":"I-40 & Webber Falls (RWIS)","state":"OK","provider":"Oklahoma DOT","hls":null,"snapshot":"https://rwis.tulsa.ou.edu/rwis/files/camera/I40ST285%202026-07-10%2017_24_20.jpg","refreshMs":30000,"attribution":"Ora (Warner Varnado) · Oklahoma DOT"}},{"type":"Feature","geometry":{"type":"Point","coordinates":[-94.805779,35.44809]},"properties":{"id":"ora-ok-191","name":"I-40 & Sallisaw (RWIS)","state":"OK","provider":"Oklahoma DOT","hls":null,"snapshot":"https://rwis.tulsa.ou.edu/rwis/files/camera/I40ST308%202026-07-10%2017_29_31.jpg","refreshMs":30000,"attribution":"Ora (Warner Varnado) · Oklahoma DOT"}},{"type":"Feature","geometry":{"type":"Point","coordinates":[-94.491763,35.428315]},"properties":{"id":"ora-ok-192","name":"I-40 & Arkansas St Line (RWIS)","state":"OK","provider":"Oklahoma DOT","hls":null,"snapshot":"https://rwis.tulsa.ou.edu/rwis/files/camera/I40ST328%202026-07-10%2017_29_28.jpg","refreshMs":30000,"attribution":"Ora (Warner Varnado) · Oklahoma DOT"}}]}