{"type":"FeatureCollection","features":[{"type":"Feature","geometry":{"type":"Point","coordinates":[-71.378518,41.885]},"properties":{"id":"ora-ri-0","name":"I-95 N @ Broadway","state":"RI","provider":"Rhode Island DOT","hls":null,"snapshot":"https://www.dot.ri.gov/img/travel/camimages/95_42.4_N_CAM%20-%20Broadway%20%28Pawt%29.jpg","refreshMs":30000,"attribution":"Ora (Warner Varnado) · Rhode Island DOT"}},{"type":"Feature","geometry":{"type":"Point","coordinates":[-71.418648,41.776286]},"properties":{"id":"ora-ri-1","name":"Rt 10 N @ Elmwood","state":"RI","provider":"Rhode Island DOT","hls":null,"snapshot":"https://www.dot.ri.gov/img/travel/camimages/10_00.4_N_CAM%20Exit%201A%20-%20Elmwood%20Ave.jpg","refreshMs":30000,"attribution":"Ora (Warner Varnado) · Rhode Island DOT"}},{"type":"Feature","geometry":{"type":"Point","coordinates":[-71.406252,41.81158]},"properties":{"id":"ora-ri-2","name":"I-95 N @ Public St","state":"RI","provider":"Rhode Island DOT","hls":null,"snapshot":"https://www.dot.ri.gov/img/travel/camimages/95_35.8_N_CAM%20-%20Public%20St.jpg","refreshMs":30000,"attribution":"Ora (Warner Varnado) · Rhode Island DOT"}},{"type":"Feature","geometry":{"type":"Point","coordinates":[-71.447062,41.816175]},"properties":{"id":"ora-ri-3","name":"Flyover","state":"RI","provider":"Rhode Island DOT","hls":null,"snapshot":"https://www.dot.ri.gov/img/travel/camimages/6_19.6_W_CAM%20-%20Flyover.jpg","refreshMs":30000,"attribution":"Ora (Warner Varnado) · Rhode Island DOT"}},{"type":"Feature","geometry":{"type":"Point","coordinates":[-71.437129,41.820631]},"properties":{"id":"ora-ri-4","name":"Tobey Street","state":"RI","provider":"Rhode Island DOT","hls":null,"snapshot":"https://www.dot.ri.gov/img/travel/camimages/6_20.4_E_CAM%20-%20Tobey%20St.jpg","refreshMs":30000,"attribution":"Ora (Warner Varnado) · Rhode Island DOT"}},{"type":"Feature","geometry":{"type":"Point","coordinates":[-71.417947,41.790031]},"properties":{"id":"ora-ri-5","name":"I-95 S @ Elmwood Ave","state":"RI","provider":"Rhode Island DOT","hls":null,"snapshot":"https://www.dot.ri.gov/img/travel/camimages/95_34.0_S_CAM%20-%20Elmwood%20Ave.jpg","refreshMs":30000,"attribution":"Ora (Warner Varnado) · Rhode Island DOT"}},{"type":"Feature","geometry":{"type":"Point","coordinates":[-71.452312,41.912763]},"properties":{"id":"ora-ri-6","name":"Rt 146 North at Sherman Ave","state":"RI","provider":"Rhode Island DOT","hls":null,"snapshot":"https://www.dot.ri.gov/img/travel/camimages/146_05.6_N_CAM%20Exit%206%20-%20Sherman%20Ave.jpg","refreshMs":30000,"attribution":"Ora (Warner Varnado) · Rhode Island DOT"}},{"type":"Feature","geometry":{"type":"Point","coordinates":[-71.389751,41.819043]},"properties":{"id":"ora-ri-7","name":"I-195 W @ Gano St","state":"RI","provider":"Rhode Island DOT","hls":null,"snapshot":"https://www.dot.ri.gov/img/travel/camimages/195-3%20I-195%20W%20%40%20Gano%20DMS%20and%20Camera.jpg","refreshMs":30000,"attribution":"Ora (Warner Varnado) · Rhode Island DOT"}},{"type":"Feature","geometry":{"type":"Point","coordinates":[-71.426635,41.829282]},"properties":{"id":"ora-ri-8","name":"Promenade St @ Dean St","state":"RI","provider":"Rhode Island DOT","hls":null,"snapshot":"https://www.dot.ri.gov/img/travel/camimages/Promenade%20St%20%40%20Dean%20St.jpg","refreshMs":30000,"attribution":"Ora (Warner Varnado) · Rhode Island DOT"}},{"type":"Feature","geometry":{"type":"Point","coordinates":[-71.442113,41.893266]},"properties":{"id":"ora-ri-9","name":"Rt 146 North State Police","state":"RI","provider":"Rhode Island DOT","hls":null,"snapshot":"https://www.dot.ri.gov/img/travel/camimages/146_04.0_N_CAM%20Exit%204%20-%20State%20Police.jpg","refreshMs":30000,"attribution":"Ora (Warner Varnado) · Rhode Island DOT"}},{"type":"Feature","geometry":{"type":"Point","coordinates":[-71.3775,41.882049]},"properties":{"id":"ora-ri-10","name":"I-95 S @ Central Ave","state":"RI","provider":"Rhode Island DOT","hls":null,"snapshot":"https://www.dot.ri.gov/img/travel/camimages/95_42.0_S_CAM%20-%20Central%20Ave.jpg","refreshMs":30000,"attribution":"Ora (Warner Varnado) · Rhode Island DOT"}},{"type":"Feature","geometry":{"type":"Point","coordinates":[-71.412496,41.815392]},"properties":{"id":"ora-ri-11","name":"I-95 N @ Eddy St","state":"RI","provider":"Rhode Island DOT","hls":null,"snapshot":"https://www.dot.ri.gov/img/travel/camimages/95_36.2_S_CAM%20-%20Eddy%20St.jpg","refreshMs":30000,"attribution":"Ora (Warner Varnado) · Rhode Island DOT"}},{"type":"Feature","geometry":{"type":"Point","coordinates":[-71.385965,41.818985]},"properties":{"id":"ora-ri-12","name":"I-195 W @ Washington Bridge","state":"RI","provider":"Rhode Island DOT","hls":null,"snapshot":"https://www.dot.ri.gov/img/travel/camimages/195-5%20I-195%20W%20%40%20Washington%20Bridge.jpg","refreshMs":30000,"attribution":"Ora (Warner Varnado) · Rhode Island DOT"}},{"type":"Feature","geometry":{"type":"Point","coordinates":[-71.441233,41.796877]},"properties":{"id":"ora-ri-13","name":"Rt 10 N @ Kenwood Ave","state":"RI","provider":"Rhode Island DOT","hls":null,"snapshot":"https://www.dot.ri.gov/img/travel/camimages/10_02.2_N_CAM%202B%20-%20Kenwood%20St.jpg","refreshMs":30000,"attribution":"Ora (Warner Varnado) · Rhode Island DOT"}},{"type":"Feature","geometry":{"type":"Point","coordinates":[-71.426565,41.853279]},"properties":{"id":"ora-ri-14","name":"Rt 146 S @ Branch Ave","state":"RI","provider":"Rhode Island DOT","hls":null,"snapshot":"https://www.dot.ri.gov/img/travel/camimages/146_01.2_S_CAM%20Exit%201%20-%20Branch%20Ave.jpg","refreshMs":30000,"attribution":"Ora (Warner Varnado) · Rhode Island DOT"}},{"type":"Feature","geometry":{"type":"Point","coordinates":[-71.453693,41.821469]},"properties":{"id":"ora-ri-15","name":"Rt 6 W DMS and Camera","state":"RI","provider":"Rhode Island DOT","hls":null,"snapshot":"https://www.dot.ri.gov/img/travel/camimages/6_18.9_W_CAM%20-%20DMS.jpg","refreshMs":30000,"attribution":"Ora (Warner Varnado) · Rhode Island DOT"}},{"type":"Feature","geometry":{"type":"Point","coordinates":[-71.378343,41.87936]},"properties":{"id":"ora-ri-16","name":"I-95 N @ Vernon St","state":"RI","provider":"Rhode Island DOT","hls":null,"snapshot":"https://www.dot.ri.gov/img/travel/camimages/95_41.8_N_CAM%20-%20Vernon%20St.jpg","refreshMs":30000,"attribution":"Ora (Warner Varnado) · Rhode Island DOT"}},{"type":"Feature","geometry":{"type":"Point","coordinates":[-71.388427,41.873028]},"properties":{"id":"ora-ri-17","name":"95-27 I-95 S @ Garden","state":"RI","provider":"Rhode Island DOT","hls":null,"snapshot":"https://www.dot.ri.gov/img/travel/camimages/95_41.0_S_CAM%20-%20Garden%20St.jpg","refreshMs":30000,"attribution":"Ora (Warner Varnado) · Rhode Island DOT"}},{"type":"Feature","geometry":{"type":"Point","coordinates":[-71.419063,41.826023]},"properties":{"id":"ora-ri-18","name":"I-95 @ Broadway (Prov)","state":"RI","provider":"Rhode Island DOT","hls":null,"snapshot":"https://www.dot.ri.gov/img/travel/camimages/95_37.0_S_CAM%20-%20Broadway%20%28Prov%29.jpg","refreshMs":30000,"attribution":"Ora (Warner Varnado) · Rhode Island DOT"}},{"type":"Feature","geometry":{"type":"Point","coordinates":[-71.405343,41.857028]},"properties":{"id":"ora-ri-19","name":"I-95 N @ Smithfield Ave","state":"RI","provider":"Rhode Island DOT","hls":null,"snapshot":"https://www.dot.ri.gov/img/travel/camimages/95_39.4_N_CAM%20-%20Exit%2039B%20%26%2039C.jpg","refreshMs":30000,"attribution":"Ora (Warner Varnado) · Rhode Island DOT"}},{"type":"Feature","geometry":{"type":"Point","coordinates":[-71.358341,41.812318]},"properties":{"id":"ora-ri-20","name":"I-195 E @ Rt 114","state":"RI","provider":"Rhode Island DOT","hls":null,"snapshot":"https://www.dot.ri.gov/img/travel/camimages/195-7%20I-195%20E%20%40%20Rt%20114.jpg","refreshMs":30000,"attribution":"Ora (Warner Varnado) · Rhode Island DOT"}},{"type":"Feature","geometry":{"type":"Point","coordinates":[-71.417079,41.832409]},"properties":{"id":"ora-ri-21","name":"I-95 S @ Orms St","state":"RI","provider":"Rhode Island DOT","hls":null,"snapshot":"https://www.dot.ri.gov/img/travel/camimages/95_38.0_S_CAM%20-%20Orms%20St.jpg","refreshMs":30000,"attribution":"Ora (Warner Varnado) · Rhode Island DOT"}},{"type":"Feature","geometry":{"type":"Point","coordinates":[-71.403826,41.802682]},"properties":{"id":"ora-ri-22","name":"I-95 N @ Thurbers Ave","state":"RI","provider":"Rhode Island DOT","hls":null,"snapshot":"https://www.dot.ri.gov/img/travel/camimages/95_35.2_N_CAM%20-%20Thurbers%20Ave.jpg","refreshMs":30000,"attribution":"Ora (Warner Varnado) · Rhode Island DOT"}},{"type":"Feature","geometry":{"type":"Point","coordinates":[-71.339401,41.806802]},"properties":{"id":"ora-ri-23","name":"I-195 W @ Mass State Line","state":"RI","provider":"Rhode Island DOT","hls":null,"snapshot":"https://www.dot.ri.gov/img/travel/camimages/195-8%20I-195%20W%20%40%20Mass%20State%20Line.jpg","refreshMs":30000,"attribution":"Ora (Warner Varnado) · Rhode Island DOT"}},{"type":"Feature","geometry":{"type":"Point","coordinates":[-71.450531,41.81948]},"properties":{"id":"ora-ri-24","name":"Hartford Ave","state":"RI","provider":"Rhode Island DOT","hls":null,"snapshot":"https://www.dot.ri.gov/img/travel/camimages/6_19.2_W_CAM%20-%20Hartford%20Ave.jpg","refreshMs":30000,"attribution":"Ora (Warner Varnado) · Rhode Island DOT"}},{"type":"Feature","geometry":{"type":"Point","coordinates":[-71.496497,41.816947]},"properties":{"id":"ora-ri-25","name":"Rt 6 W @ Atwood","state":"RI","provider":"Rhode Island DOT","hls":null,"snapshot":"https://www.dot.ri.gov/img/travel/camimages/6_16.6_W_CAM%20-%20Atwood%20Ave.jpg","refreshMs":30000,"attribution":"Ora (Warner Varnado) · Rhode Island DOT"}},{"type":"Feature","geometry":{"type":"Point","coordinates":[-71.4216,41.822231]},"properties":{"id":"ora-ri-26","name":"Dean Street","state":"RI","provider":"Rhode Island DOT","hls":null,"snapshot":"https://www.dot.ri.gov/img/travel/camimages/6_21.1_E_CAM%20-%20Dean%20St.jpg","refreshMs":30000,"attribution":"Ora (Warner Varnado) · Rhode Island DOT"}},{"type":"Feature","geometry":{"type":"Point","coordinates":[-71.378873,41.889565]},"properties":{"id":"ora-ri-27","name":"I-95 S @ East St","state":"RI","provider":"Rhode Island DOT","hls":null,"snapshot":"https://www.dot.ri.gov/img/travel/camimages/95_43.0_S_CAM%20-%20East%20St.jpg","refreshMs":30000,"attribution":"Ora (Warner Varnado) · Rhode Island DOT"}},{"type":"Feature","geometry":{"type":"Point","coordinates":[-71.44056,41.808858]},"properties":{"id":"ora-ri-28","name":"Rt 10 S @ Union Ave","state":"RI","provider":"Rhode Island DOT","hls":null,"snapshot":"https://www.dot.ri.gov/img/travel/camimages/10_03.0_S_CAM%203A%20-%20Union%20Ave.jpg","refreshMs":30000,"attribution":"Ora (Warner Varnado) · Rhode Island DOT"}},{"type":"Feature","geometry":{"type":"Point","coordinates":[-71.420831,41.787027]},"properties":{"id":"ora-ri-29","name":"I-95 S @ Rt 10","state":"RI","provider":"Rhode Island DOT","hls":null,"snapshot":"https://www.dot.ri.gov/img/travel/camimages/95_33.6_S_CAM%20-%20Rt%2010.jpg","refreshMs":30000,"attribution":"Ora (Warner Varnado) · Rhode Island DOT"}},{"type":"Feature","geometry":{"type":"Point","coordinates":[-71.40324,41.814414]},"properties":{"id":"ora-ri-30","name":"I-195 E @ Point St.","state":"RI","provider":"Rhode Island DOT","hls":null,"snapshot":"https://www.dot.ri.gov/img/travel/camimages/195-0%20I-195%20E%20%40%20Point%20St.jpg","refreshMs":30000,"attribution":"Ora (Warner Varnado) · Rhode Island DOT"}},{"type":"Feature","geometry":{"type":"Point","coordinates":[-71.417973,41.840685]},"properties":{"id":"ora-ri-31","name":"Rt 146 North at Admiral Street","state":"RI","provider":"Rhode Island DOT","hls":null,"snapshot":"https://www.dot.ri.gov/img/travel/camimages/146_00.4_N_CAM%20Exit%201%20-%20Admiral%20St.jpg","refreshMs":30000,"attribution":"Ora (Warner Varnado) · Rhode Island DOT"}},{"type":"Feature","geometry":{"type":"Point","coordinates":[-71.418156,41.828504]},"properties":{"id":"ora-ri-32","name":"I-95 S @ 6/10 Interchange","state":"RI","provider":"Rhode Island DOT","hls":null,"snapshot":"https://www.dot.ri.gov/img/travel/camimages/95_37.4_S_CAM%20-%206_10%20Interchange.jpg","refreshMs":30000,"attribution":"Ora (Warner Varnado) · Rhode Island DOT"}},{"type":"Feature","geometry":{"type":"Point","coordinates":[-71.438703,41.816934]},"properties":{"id":"ora-ri-33","name":"Westminster Street","state":"RI","provider":"Rhode Island DOT","hls":null,"snapshot":"https://www.dot.ri.gov/img/travel/camimages/6_20.0_E_CAM%20-%20Westminster%20St.jpg","refreshMs":30000,"attribution":"Ora (Warner Varnado) · Rhode Island DOT"}},{"type":"Feature","geometry":{"type":"Point","coordinates":[-71.394578,41.872354]},"properties":{"id":"ora-ri-34","name":"I-95 N @ Lonsdale","state":"RI","provider":"Rhode Island DOT","hls":null,"snapshot":"https://www.dot.ri.gov/img/travel/camimages/95_40.6_N_CAM%20-%20Lonsdale%20Ave.jpg","refreshMs":30000,"attribution":"Ora (Warner Varnado) · Rhode Island DOT"}},{"type":"Feature","geometry":{"type":"Point","coordinates":[-71.409564,41.814395]},"properties":{"id":"ora-ri-35","name":"I-195 WB Split @ I-95","state":"RI","provider":"Rhode Island DOT","hls":null,"snapshot":"https://www.dot.ri.gov/img/travel/camimages/195-1%20I-195%20W%20Split%20%40%20I-95.jpg","refreshMs":30000,"attribution":"Ora (Warner Varnado) · Rhode Island DOT"}},{"type":"Feature","geometry":{"type":"Point","coordinates":[-71.402893,41.865711]},"properties":{"id":"ora-ri-36","name":"I-95 N @ Smithfield Ave","state":"RI","provider":"Rhode Island DOT","hls":null,"snapshot":"https://www.dot.ri.gov/img/travel/camimages/95_40.0_N_CAM%20-%20Smithfield%20Ave.jpg","refreshMs":30000,"attribution":"Ora (Warner Varnado) · Rhode Island DOT"}},{"type":"Feature","geometry":{"type":"Point","coordinates":[-71.411018,41.847753]},"properties":{"id":"ora-ri-37","name":"I-95 N @ Branch Ave","state":"RI","provider":"Rhode Island DOT","hls":null,"snapshot":"https://www.dot.ri.gov/img/travel/camimages/95_38.8_N_CAM%20-%20Branch%20Ave.jpg","refreshMs":30000,"attribution":"Ora (Warner Varnado) · Rhode Island DOT"}},{"type":"Feature","geometry":{"type":"Point","coordinates":[-71.430705,41.824471]},"properties":{"id":"ora-ri-38","name":"Atwells Ave","state":"RI","provider":"Rhode Island DOT","hls":null,"snapshot":"https://www.dot.ri.gov/img/travel/camimages/6_20.6_E_CAM%20-%20Atwells%20Ave.jpg","refreshMs":30000,"attribution":"Ora (Warner Varnado) · Rhode Island DOT"}},{"type":"Feature","geometry":{"type":"Point","coordinates":[-71.410206,41.826959]},"properties":{"id":"ora-ri-39","name":"Memorial @ Steeple","state":"RI","provider":"Rhode Island DOT","hls":null,"snapshot":"https://www.dot.ri.gov/img/travel/camimages/Memorial%20Blvd%20%40%20Steeple%20St.jpg","refreshMs":30000,"attribution":"Ora (Warner Varnado) · Rhode Island DOT"}},{"type":"Feature","geometry":{"type":"Point","coordinates":[-71.43265,41.785479]},"properties":{"id":"ora-ri-40","name":"Rt 10 S @ Reservoir","state":"RI","provider":"Rhode Island DOT","hls":null,"snapshot":"https://www.dot.ri.gov/img/travel/camimages/10_01.4_S_CAM%20Exit%202A%20-%20Reservoir%20Ave.jpg","refreshMs":30000,"attribution":"Ora (Warner Varnado) · Rhode Island DOT"}},{"type":"Feature","geometry":{"type":"Point","coordinates":[-71.393604,41.818662]},"properties":{"id":"ora-ri-41","name":"I-195 E @ India St.","state":"RI","provider":"Rhode Island DOT","hls":null,"snapshot":"https://www.dot.ri.gov/img/travel/camimages/195-2%20I-195%20E%20%40%20India%20St.jpg","refreshMs":30000,"attribution":"Ora (Warner Varnado) · Rhode Island DOT"}},{"type":"Feature","geometry":{"type":"Point","coordinates":[-71.434265,41.878239]},"properties":{"id":"ora-ri-42","name":"Rt 146 North at Charles Street","state":"RI","provider":"Rhode Island DOT","hls":null,"snapshot":"https://www.dot.ri.gov/img/travel/camimages/146_02.8_N_CAM%20Exit%202%20-%20Charles%20St.jpg","refreshMs":30000,"attribution":"Ora (Warner Varnado) · Rhode Island DOT"}},{"type":"Feature","geometry":{"type":"Point","coordinates":[-71.412075,41.793094]},"properties":{"id":"ora-ri-43","name":"I-95 S @ Detroit Ave","state":"RI","provider":"Rhode Island DOT","hls":null,"snapshot":"https://www.dot.ri.gov/img/travel/camimages/95_34.4_S_CAM%20-%20Detriot%20Ave.jpg","refreshMs":30000,"attribution":"Ora (Warner Varnado) · Rhode Island DOT"}},{"type":"Feature","geometry":{"type":"Point","coordinates":[-71.419687,41.824015]},"properties":{"id":"ora-ri-44","name":"I-95 S @ Broad St","state":"RI","provider":"Rhode Island DOT","hls":null,"snapshot":"https://www.dot.ri.gov/img/travel/camimages/95_36.8_S_CAM%20-%20Broad%20St.jpg","refreshMs":30000,"attribution":"Ora (Warner Varnado) · Rhode Island DOT"}},{"type":"Feature","geometry":{"type":"Point","coordinates":[-71.42968,41.860661]},"properties":{"id":"ora-ri-45","name":"DMS and Camera Rt 146 SB","state":"RI","provider":"Rhode Island DOT","hls":null,"snapshot":"https://www.dot.ri.gov/img/travel/camimages/146_01.6_S_CAM%20Exit%201%20-%20DMS.jpg","refreshMs":30000,"attribution":"Ora (Warner Varnado) · Rhode Island DOT"}},{"type":"Feature","geometry":{"type":"Point","coordinates":[-71.41529,41.825765]},"properties":{"id":"ora-ri-46","name":"Memorial @ Francis St","state":"RI","provider":"Rhode Island DOT","hls":null,"snapshot":"https://www.dot.ri.gov/img/travel/camimages/Memorial%20Blvd%20%40%20Francis%20St.jpg","refreshMs":30000,"attribution":"Ora (Warner Varnado) · Rhode Island DOT"}},{"type":"Feature","geometry":{"type":"Point","coordinates":[-71.4178,41.829695]},"properties":{"id":"ora-ri-47","name":"I-95 N @ Kinsley Ave","state":"RI","provider":"Rhode Island DOT","hls":null,"snapshot":"https://www.dot.ri.gov/img/travel/camimages/95_37.6_N_CAM%20-%20Kinsley%20Ave.jpg","refreshMs":30000,"attribution":"Ora (Warner Varnado) · Rhode Island DOT"}},{"type":"Feature","geometry":{"type":"Point","coordinates":[-71.460915,41.822868]},"properties":{"id":"ora-ri-48","name":"Rt 6 W @ Glenbridge","state":"RI","provider":"Rhode Island DOT","hls":null,"snapshot":"https://www.dot.ri.gov/img/travel/camimages/6_18.4_W_CAM%20-%20Glenbridge%20Ave.jpg","refreshMs":30000,"attribution":"Ora (Warner Varnado) · Rhode Island DOT"}},{"type":"Feature","geometry":{"type":"Point","coordinates":[-71.428156,41.772074]},"properties":{"id":"ora-ri-49","name":"I-95 N @ Wellington Ave","state":"RI","provider":"Rhode Island DOT","hls":null,"snapshot":"https://www.dot.ri.gov/img/travel/camimages/95_32.4_N_CAM%20-%20Wellington%20Ave.jpg","refreshMs":30000,"attribution":"Ora (Warner Varnado) · Rhode Island DOT"}},{"type":"Feature","geometry":{"type":"Point","coordinates":[-71.480634,41.723693]},"properties":{"id":"ora-ri-50","name":"Rt 2 @ I-295","state":"RI","provider":"Rhode Island DOT","hls":null,"snapshot":"https://www.dot.ri.gov/img/travel/camimages/Rt%202%20%40%20I-295.jpg","refreshMs":30000,"attribution":"Ora (Warner Varnado) · Rhode Island DOT"}},{"type":"Feature","geometry":{"type":"Point","coordinates":[-71.511938,41.818594]},"properties":{"id":"ora-ri-51","name":"Exit 9 Northbound (Route 6)","state":"RI","provider":"Rhode Island DOT","hls":null,"snapshot":"https://www.dot.ri.gov/img/travel/camimages/295_08.2_N_CAM%20Exit%209%20-%20Rt%206.jpg","refreshMs":30000,"attribution":"Ora (Warner Varnado) · Rhode Island DOT"}},{"type":"Feature","geometry":{"type":"Point","coordinates":[-71.472336,41.780956]},"properties":{"id":"ora-ri-52","name":"Rt 5 @ Phenix Ave","state":"RI","provider":"Rhode Island DOT","hls":null,"snapshot":"https://www.dot.ri.gov/img/travel/camimages/Rt%205%20%40%20Phenix%20Ave.jpg","refreshMs":30000,"attribution":"Ora (Warner Varnado) · Rhode Island DOT"}},{"type":"Feature","geometry":{"type":"Point","coordinates":[-71.454843,41.60474]},"properties":{"id":"ora-ri-53","name":"Rt 1 @ Rt 403 Devils Foot Road","state":"RI","provider":"Rhode Island DOT","hls":null,"snapshot":"https://www.dot.ri.gov/img/travel/camimages/1-03%20Rt%201%20N%20%40%20Rt%20403%20Devils%20Foot%20Road.jpg","refreshMs":30000,"attribution":"Ora (Warner Varnado) · Rhode Island DOT"}},{"type":"Feature","geometry":{"type":"Point","coordinates":[-71.436516,41.755295]},"properties":{"id":"ora-ri-54","name":"I-95 N @ Jefferson Blvd.","state":"RI","provider":"Rhode Island DOT","hls":null,"snapshot":"https://www.dot.ri.gov/img/travel/camimages/95_31.4_N_CAM%20-%20Jefferson%20Blvd.jpg","refreshMs":30000,"attribution":"Ora (Warner Varnado) · Rhode Island DOT"}},{"type":"Feature","geometry":{"type":"Point","coordinates":[-71.445796,41.741292]},"properties":{"id":"ora-ri-55","name":"I-95 N @ Service Ave","state":"RI","provider":"Rhode Island DOT","hls":null,"snapshot":"https://www.dot.ri.gov/img/travel/camimages/95_30.2_N_CAM%20-%20Service%20Ave.jpg","refreshMs":30000,"attribution":"Ora (Warner Varnado) · Rhode Island DOT"}},{"type":"Feature","geometry":{"type":"Point","coordinates":[-71.601598,41.650517]},"properties":{"id":"ora-ri-56","name":"I-95 N @ Nooseneck Hill Rd","state":"RI","provider":"Rhode Island DOT","hls":null,"snapshot":"https://www.dot.ri.gov/img/travel/camimages/95_18.2_N_CAM%20-%20Nooseneck%20Hill%20Rd.jpg","refreshMs":30000,"attribution":"Ora (Warner Varnado) · Rhode Island DOT"}},{"type":"Feature","geometry":{"type":"Point","coordinates":[-71.477549,41.687302]},"properties":{"id":"ora-ri-57","name":"I-95 SB @ Cowesett","state":"RI","provider":"Rhode Island DOT","hls":null,"snapshot":"https://www.dot.ri.gov/img/travel/camimages/95_26.0_S_CAM%20-%20Cowesett%20Rd.jpg","refreshMs":30000,"attribution":"Ora (Warner Varnado) · Rhode Island DOT"}},{"type":"Feature","geometry":{"type":"Point","coordinates":[-71.480242,41.72377]},"properties":{"id":"ora-ri-58","name":"Exit 1B (Route 2)","state":"RI","provider":"Rhode Island DOT","hls":null,"snapshot":"https://www.dot.ri.gov/img/travel/camimages/295_01.2_M_CAM%20Exit%201B%20-%20Rt%202.jpg","refreshMs":30000,"attribution":"Ora (Warner Varnado) · Rhode Island DOT"}},{"type":"Feature","geometry":{"type":"Point","coordinates":[-71.455307,41.653443]},"properties":{"id":"ora-ri-59","name":"Rt 1 @ Fourth Ave East Greenwich","state":"RI","provider":"Rhode Island DOT","hls":null,"snapshot":"https://www.dot.ri.gov/img/travel/camimages/1-01%20Rt%201%20S%20%40%20Fourth%20Ave%20East%20Greenwich.jpg","refreshMs":30000,"attribution":"Ora (Warner Varnado) · Rhode Island DOT"}},{"type":"Feature","geometry":{"type":"Point","coordinates":[-71.500739,41.666492]},"properties":{"id":"ora-ri-60","name":"I-95 N @ Quaker Ln","state":"RI","provider":"Rhode Island DOT","hls":null,"snapshot":"https://www.dot.ri.gov/img/travel/camimages/95_24.0_N_CAM%20-%20Quaker%20Ln.jpg","refreshMs":30000,"attribution":"Ora (Warner Varnado) · Rhode Island DOT"}},{"type":"Feature","geometry":{"type":"Point","coordinates":[-71.463517,41.7168]},"properties":{"id":"ora-ri-61","name":"Rt 5 @ Rt 113","state":"RI","provider":"Rhode Island DOT","hls":null,"snapshot":"https://www.dot.ri.gov/img/travel/camimages/Rt%205%20%40%20Rt%20113.jpg","refreshMs":30000,"attribution":"Ora (Warner Varnado) · Rhode Island DOT"}},{"type":"Feature","geometry":{"type":"Point","coordinates":[-71.50857,41.794798]},"properties":{"id":"ora-ri-62","name":"Exit 6 (Route 14)","state":"RI","provider":"Rhode Island DOT","hls":null,"snapshot":"https://www.dot.ri.gov/img/travel/camimages/295_06.4_M_CAM%20Exit%206%20-%20Rt%2014.jpg","refreshMs":30000,"attribution":"Ora (Warner Varnado) · Rhode Island DOT"}},{"type":"Feature","geometry":{"type":"Point","coordinates":[-71.516246,41.83179]},"properties":{"id":"ora-ri-63","name":"Exit 9 Southbound (Route 6)","state":"RI","provider":"Rhode Island DOT","hls":null,"snapshot":"https://www.dot.ri.gov/img/travel/camimages/295_09.2_S_CAM%20Exit%209C%20-%20Rt%206.jpg","refreshMs":30000,"attribution":"Ora (Warner Varnado) · Rhode Island DOT"}},{"type":"Feature","geometry":{"type":"Point","coordinates":[-71.479811,41.755801]},"properties":{"id":"ora-ri-64","name":"Rt 37 W @ I-295","state":"RI","provider":"Rhode Island DOT","hls":null,"snapshot":"https://www.dot.ri.gov/img/travel/camimages/37_00.3_W_CAM%20Exit%201A%20-%20I-295.jpg","refreshMs":30000,"attribution":"Ora (Warner Varnado) · Rhode Island DOT"}},{"type":"Feature","geometry":{"type":"Point","coordinates":[-71.513237,41.857187]},"properties":{"id":"ora-ri-65","name":"I-295 at Exit 10 Greenville Ave","state":"RI","provider":"Rhode Island DOT","hls":null,"snapshot":"https://www.dot.ri.gov/img/travel/camimages/295_10.8_M_CAM%20Exit%2010.jpg","refreshMs":30000,"attribution":"Ora (Warner Varnado) · Rhode Island DOT"}},{"type":"Feature","geometry":{"type":"Point","coordinates":[-71.442391,41.748061]},"properties":{"id":"ora-ri-66","name":"Rt 37 E @ Pontiac Ave","state":"RI","provider":"Rhode Island DOT","hls":null,"snapshot":"https://www.dot.ri.gov/img/travel/camimages/37_02.0_E_CAM%20Exit%201E%20-%20Pontiac%20Ave.jpg","refreshMs":30000,"attribution":"Ora (Warner Varnado) · Rhode Island DOT"}},{"type":"Feature","geometry":{"type":"Point","coordinates":[-71.426879,41.775571]},"properties":{"id":"ora-ri-67","name":"I-95 S @ Laurens St","state":"RI","provider":"Rhode Island DOT","hls":null,"snapshot":"https://www.dot.ri.gov/img/travel/camimages/95_32.6_S_CAM%20-%20Laurens%20St.jpg","refreshMs":30000,"attribution":"Ora (Warner Varnado) · Rhode Island DOT"}},{"type":"Feature","geometry":{"type":"Point","coordinates":[-71.562642,41.657392]},"properties":{"id":"ora-ri-68","name":"I-95 N @ Hopkins Hill Rd","state":"RI","provider":"Rhode Island DOT","hls":null,"snapshot":"https://www.dot.ri.gov/img/travel/camimages/95_20.0_N_CAM%20-%20Hopkins%20Hill%20Rd.jpg","refreshMs":30000,"attribution":"Ora (Warner Varnado) · Rhode Island DOT"}},{"type":"Feature","geometry":{"type":"Point","coordinates":[-71.525377,41.661788]},"properties":{"id":"ora-ri-69","name":"I-95 N @ Shippeetown Road","state":"RI","provider":"Rhode Island DOT","hls":null,"snapshot":"https://www.dot.ri.gov/img/travel/camimages/95_22.4_N_CAM%20-%20Shippeetown%20Rd.jpg","refreshMs":30000,"attribution":"Ora (Warner Varnado) · Rhode Island DOT"}},{"type":"Feature","geometry":{"type":"Point","coordinates":[-71.459976,41.727348]},"properties":{"id":"ora-ri-70","name":"I-95 S @ Greenwich Ave","state":"RI","provider":"Rhode Island DOT","hls":null,"snapshot":"https://www.dot.ri.gov/img/travel/camimages/95_28.8_S_CAM%20-%20Greenwich%20Ave.jpg","refreshMs":30000,"attribution":"Ora (Warner Varnado) · Rhode Island DOT"}},{"type":"Feature","geometry":{"type":"Point","coordinates":[-71.467733,41.632912]},"properties":{"id":"ora-ri-71","name":"Rt 1 @ Rt 402 Frenchtown Rd","state":"RI","provider":"Rhode Island DOT","hls":null,"snapshot":"https://www.dot.ri.gov/img/travel/camimages/1-02%20Rt%201%20%40%20Rt%20402%20Frenchtown%20Rd.jpg","refreshMs":30000,"attribution":"Ora (Warner Varnado) · Rhode Island DOT"}},{"type":"Feature","geometry":{"type":"Point","coordinates":[-71.473648,41.704923]},"properties":{"id":"ora-ri-72","name":"I-95 N @ Toll Gate Rd","state":"RI","provider":"Rhode Island DOT","hls":null,"snapshot":"https://www.dot.ri.gov/img/travel/camimages/95_27.4_N_CAM%20-%20Toll%20Gate%20Rd.jpg","refreshMs":30000,"attribution":"Ora (Warner Varnado) · Rhode Island DOT"}},{"type":"Feature","geometry":{"type":"Point","coordinates":[-71.477509,41.681114]},"properties":{"id":"ora-ri-73","name":"I-95 NB Rt 4 Cell Tower","state":"RI","provider":"Rhode Island DOT","hls":null,"snapshot":"https://www.dot.ri.gov/img/travel/camimages/95_25.4_N_CAM%20-%20Rt%204%20Cell%20Tower.jpg","refreshMs":30000,"attribution":"Ora (Warner Varnado) · Rhode Island DOT"}},{"type":"Feature","geometry":{"type":"Point","coordinates":[-71.624649,41.640203]},"properties":{"id":"ora-ri-74","name":"I-95 @ Weaver Hill Rd","state":"RI","provider":"Rhode Island DOT","hls":null,"snapshot":"https://www.dot.ri.gov/img/travel/camimages/95_17.0_M_CAM%20-%20Weaver%20Hill%20Rd.jpg","refreshMs":30000,"attribution":"Ora (Warner Varnado) · Rhode Island DOT"}},{"type":"Feature","geometry":{"type":"Point","coordinates":[-71.455705,41.750922]},"properties":{"id":"ora-ri-75","name":"Rt 37 E @ Rt 2","state":"RI","provider":"Rhode Island DOT","hls":null,"snapshot":"https://www.dot.ri.gov/img/travel/camimages/37_01.4_E_CAM%20Exit%201C%20-%20Rt%202.jpg","refreshMs":30000,"attribution":"Ora (Warner Varnado) · Rhode Island DOT"}},{"type":"Feature","geometry":{"type":"Point","coordinates":[-71.430819,41.739659]},"properties":{"id":"ora-ri-76","name":"Rt 37 W @ Post Rd","state":"RI","provider":"Rhode Island DOT","hls":null,"snapshot":"https://www.dot.ri.gov/img/travel/camimages/37_03.2_W_CAM%20Exit%203B%20-%20Post%20Rd.jpg","refreshMs":30000,"attribution":"Ora (Warner Varnado) · Rhode Island DOT"}},{"type":"Feature","geometry":{"type":"Point","coordinates":[-71.488569,41.649564]},"properties":{"id":"ora-ri-77","name":"Rt 4 @ Middle Road","state":"RI","provider":"Rhode Island DOT","hls":null,"snapshot":"https://www.dot.ri.gov/img/travel/camimages/4_08.2_N_CAM%20Exit%207%20-%20Middle%20Rd.jpg","refreshMs":30000,"attribution":"Ora (Warner Varnado) · Rhode Island DOT"}},{"type":"Feature","geometry":{"type":"Point","coordinates":[-71.466503,41.72193]},"properties":{"id":"ora-ri-78","name":"Rt 5 @ I-95 Metro Center Blvd","state":"RI","provider":"Rhode Island DOT","hls":null,"snapshot":"https://www.dot.ri.gov/img/travel/camimages/Rt%205%20%40%20I-95%20Metro%20Center%20Blvd.jpg","refreshMs":30000,"attribution":"Ora (Warner Varnado) · Rhode Island DOT"}},{"type":"Feature","geometry":{"type":"Point","coordinates":[-71.470625,41.756034]},"properties":{"id":"ora-ri-79","name":"Rt 37 between I-295 and Rt 2","state":"RI","provider":"Rhode Island DOT","hls":null,"snapshot":"https://www.dot.ri.gov/img/travel/camimages/37_00.7_W_CAM%20Exit%201C%20-%20between%20I-295%20and%20Rt%202.jpg","refreshMs":30000,"attribution":"Ora (Warner Varnado) · Rhode Island DOT"}},{"type":"Feature","geometry":{"type":"Point","coordinates":[-71.541561,41.659423]},"properties":{"id":"ora-ri-80","name":"I-95 S @ New London Tpke","state":"RI","provider":"Rhode Island DOT","hls":null,"snapshot":"https://www.dot.ri.gov/img/travel/camimages/95_21.4_S_CAM%20-%20New%20London%20Tpke.jpg","refreshMs":30000,"attribution":"Ora (Warner Varnado) · Rhode Island DOT"}},{"type":"Feature","geometry":{"type":"Point","coordinates":[-71.438575,41.727284]},"properties":{"id":"ora-ri-81","name":"Airport Connector","state":"RI","provider":"Rhode Island DOT","hls":null,"snapshot":"https://www.dot.ri.gov/img/travel/camimages/Airport%20Connector.jpg","refreshMs":30000,"attribution":"Ora (Warner Varnado) · Rhode Island DOT"}},{"type":"Feature","geometry":{"type":"Point","coordinates":[-71.416,41.5303]},"properties":{"id":"ora-ri-82","name":"Rt 138 @ Jamestown Br (NK)","state":"RI","provider":"Rhode Island DOT","hls":null,"snapshot":"https://www.dot.ri.gov/img/travel/camimages/138_26.0_W_CAM%20Rt%20138%20%40%20Jamestown%20Br%20%28NK%29.jpg","refreshMs":30000,"attribution":"Ora (Warner Varnado) · Rhode Island DOT"}},{"type":"Feature","geometry":{"type":"Point","coordinates":[-71.509439,41.427171]},"properties":{"id":"ora-ri-83","name":"Rt 1 @ Wakefield","state":"RI","provider":"Rhode Island DOT","hls":null,"snapshot":"https://www.dot.ri.gov/img/travel/camimages/1-08%20Rt%201%20S%20%40%20Wakefield.jpg","refreshMs":30000,"attribution":"Ora (Warner Varnado) · Rhode Island DOT"}},{"type":"Feature","geometry":{"type":"Point","coordinates":[-71.481068,41.430821]},"properties":{"id":"ora-ri-84","name":"Rt 108 @ S. Pier Rd (Dillon's Corner)","state":"RI","provider":"Rhode Island DOT","hls":null,"snapshot":"https://www.dot.ri.gov/img/travel/camimages/Rt%20108%20%40%20S.%20Pier%20Rd%20%28Dillon%27s%20Corner%29.jpg","refreshMs":30000,"attribution":"Ora (Warner Varnado) · Rhode Island DOT"}},{"type":"Feature","geometry":{"type":"Point","coordinates":[-71.3897,41.5261]},"properties":{"id":"ora-ri-85","name":"Rt 138 @ Jamestown Br (Island)","state":"RI","provider":"Rhode Island DOT","hls":null,"snapshot":"https://www.dot.ri.gov/img/travel/camimages/138_27.8_E_CAM%20Rt%20138%20%40%20Jamestown%20Br%20%28Island%29.jpg","refreshMs":30000,"attribution":"Ora (Warner Varnado) · Rhode Island DOT"}},{"type":"Feature","geometry":{"type":"Point","coordinates":[-71.515459,41.53345]},"properties":{"id":"ora-ri-86","name":"Rt 4 @ Rt 1","state":"RI","provider":"Rhode Island DOT","hls":null,"snapshot":"https://www.dot.ri.gov/img/travel/camimages/4_00.0_M_CAM%20-%20Rt%201.jpg","refreshMs":30000,"attribution":"Ora (Warner Varnado) · Rhode Island DOT"}},{"type":"Feature","geometry":{"type":"Point","coordinates":[-71.462966,41.521858]},"properties":{"id":"ora-ri-87","name":"Rt 1 @ Rt 138 N. Kingstown","state":"RI","provider":"Rhode Island DOT","hls":null,"snapshot":"https://www.dot.ri.gov/img/travel/camimages/1-04%20Rt%201%20N%20%40%20Rt%20138%20North%20Kingstown.jpg","refreshMs":30000,"attribution":"Ora (Warner Varnado) · Rhode Island DOT"}},{"type":"Feature","geometry":{"type":"Point","coordinates":[-71.463516,41.466431]},"properties":{"id":"ora-ri-88","name":"Rt 1 @ Saugatucket","state":"RI","provider":"Rhode Island DOT","hls":null,"snapshot":"https://www.dot.ri.gov/img/travel/camimages/1-06%20Rt%201%20N%20%40%20Saugatucket%20Rd.jpg","refreshMs":30000,"attribution":"Ora (Warner Varnado) · Rhode Island DOT"}},{"type":"Feature","geometry":{"type":"Point","coordinates":[-71.807524,41.357299]},"properties":{"id":"ora-ri-89","name":"Rt 1 @ Rt 78 Westerly","state":"RI","provider":"Rhode Island DOT","hls":null,"snapshot":"https://www.dot.ri.gov/img/travel/camimages/1-10%20Rt%201%20N%20%40%20Rt%2078%20Westerly.jpg","refreshMs":30000,"attribution":"Ora (Warner Varnado) · Rhode Island DOT"}},{"type":"Feature","geometry":{"type":"Point","coordinates":[-71.512755,41.542994]},"properties":{"id":"ora-ri-90","name":"Rt 4 @ West Allenton Road","state":"RI","provider":"Rhode Island DOT","hls":null,"snapshot":"https://www.dot.ri.gov/img/travel/camimages/4_00.6_S_CAM%20-%20West%20Allenton%20Rd.jpg","refreshMs":30000,"attribution":"Ora (Warner Varnado) · Rhode Island DOT"}},{"type":"Feature","geometry":{"type":"Point","coordinates":[-71.427876,41.527813]},"properties":{"id":"ora-ri-91","name":"Rt 138 @ Rt 1A","state":"RI","provider":"Rhode Island DOT","hls":null,"snapshot":"https://www.dot.ri.gov/img/travel/camimages/138_25.6_W_CAM%20Rt%20138%20%40%20Rt%201A.jpg","refreshMs":30000,"attribution":"Ora (Warner Varnado) · Rhode Island DOT"}},{"type":"Feature","geometry":{"type":"Point","coordinates":[-71.491486,41.568302]},"properties":{"id":"ora-ri-92","name":"Rt 4 S @ Oak Hill Road","state":"RI","provider":"Rhode Island DOT","hls":null,"snapshot":"https://www.dot.ri.gov/img/travel/camimages/4_02.0_S_CAM%20Exit%203A%20-%20Oak%20Hill%20Rd.jpg","refreshMs":30000,"attribution":"Ora (Warner Varnado) · Rhode Island DOT"}},{"type":"Feature","geometry":{"type":"Point","coordinates":[-71.678624,41.538376]},"properties":{"id":"ora-ri-93","name":"I-95 N Exit 9","state":"RI","provider":"Rhode Island DOT","hls":null,"snapshot":"https://www.dot.ri.gov/img/travel/camimages/95_09.2_N_CAM%20-%20Exit%209.jpg","refreshMs":30000,"attribution":"Ora (Warner Varnado) · Rhode Island DOT"}},{"type":"Feature","geometry":{"type":"Point","coordinates":[-71.727158,41.488623]},"properties":{"id":"ora-ri-94","name":"I-95 S Exit 4","state":"RI","provider":"Rhode Island DOT","hls":null,"snapshot":"https://www.dot.ri.gov/img/travel/camimages/95_04.4_S_CAM%20-%20Exit%204.jpg","refreshMs":30000,"attribution":"Ora (Warner Varnado) · Rhode Island DOT"}},{"type":"Feature","geometry":{"type":"Point","coordinates":[-71.478203,41.44376]},"properties":{"id":"ora-ri-95","name":"Rt 1 @ Government Center","state":"RI","provider":"Rhode Island DOT","hls":null,"snapshot":"https://www.dot.ri.gov/img/travel/camimages/1-07%20Rt%201%20S%20%40%20Government%20Center.jpg","refreshMs":30000,"attribution":"Ora (Warner Varnado) · Rhode Island DOT"}},{"type":"Feature","geometry":{"type":"Point","coordinates":[-71.489773,41.667274]},"properties":{"id":"ora-ri-96","name":"Division Street","state":"RI","provider":"Rhode Island DOT","hls":null,"snapshot":"https://www.dot.ri.gov/img/travel/camimages/4_09.4_M_CAM%20Exit%209%20-%20Division%20St.jpg","refreshMs":30000,"attribution":"Ora (Warner Varnado) · Rhode Island DOT"}},{"type":"Feature","geometry":{"type":"Point","coordinates":[-71.657148,41.6031]},"properties":{"id":"ora-ri-97","name":"I-95 S Exit 14B","state":"RI","provider":"Rhode Island DOT","hls":null,"snapshot":"https://www.dot.ri.gov/img/travel/camimages/95_14.0_S_CAM%20-%20Exit%2014.jpg","refreshMs":30000,"attribution":"Ora (Warner Varnado) · Rhode Island DOT"}},{"type":"Feature","geometry":{"type":"Point","coordinates":[-71.642761,41.621609]},"properties":{"id":"ora-ri-98","name":"I-95 SB @ Exit 14B DMS","state":"RI","provider":"Rhode Island DOT","hls":null,"snapshot":"https://www.dot.ri.gov/img/travel/camimages/95_15.4_S_CAM%20-%20Exit%2014B%20DMS.jpg","refreshMs":30000,"attribution":"Ora (Warner Varnado) · Rhode Island DOT"}},{"type":"Feature","geometry":{"type":"Point","coordinates":[-71.790519,41.446387]},"properties":{"id":"ora-ri-99","name":"I-95 S Exit 1","state":"RI","provider":"Rhode Island DOT","hls":null,"snapshot":"https://www.dot.ri.gov/img/travel/camimages/95_00.6_S_CAM%20-%20Exit%201.jpg","refreshMs":30000,"attribution":"Ora (Warner Varnado) · Rhode Island DOT"}},{"type":"Feature","geometry":{"type":"Point","coordinates":[-71.668205,41.558543]},"properties":{"id":"ora-ri-100","name":"I-95 S Tefft Hill Trail","state":"RI","provider":"Rhode Island DOT","hls":null,"snapshot":"https://www.dot.ri.gov/img/travel/camimages/95_10.8_S_CAM%20-%20Tefft%20Hill.jpg","refreshMs":30000,"attribution":"Ora (Warner Varnado) · Rhode Island DOT"}},{"type":"Feature","geometry":{"type":"Point","coordinates":[-71.529091,41.414278]},"properties":{"id":"ora-ri-101","name":"Rt 1 @ Camp Fuller","state":"RI","provider":"Rhode Island DOT","hls":null,"snapshot":"https://www.dot.ri.gov/img/travel/camimages/1-09%20Rt%201%20S%20%40%20Camp%20Fuller%20Rd.jpg","refreshMs":30000,"attribution":"Ora (Warner Varnado) · Rhode Island DOT"}},{"type":"Feature","geometry":{"type":"Point","coordinates":[-71.496454,41.607258]},"properties":{"id":"ora-ri-102","name":"Rt 4 SB @ Rt 102 DMS","state":"RI","provider":"Rhode Island DOT","hls":null,"snapshot":"https://www.dot.ri.gov/img/travel/camimages/4_04.6_S_CAM%20Exit%205%20-%20Rt%20102%20DMS.jpg","refreshMs":30000,"attribution":"Ora (Warner Varnado) · Rhode Island DOT"}},{"type":"Feature","geometry":{"type":"Point","coordinates":[-71.690838,41.514849]},"properties":{"id":"ora-ri-103","name":"I-95 N Exit 7","state":"RI","provider":"Rhode Island DOT","hls":null,"snapshot":"https://www.dot.ri.gov/img/travel/camimages/95_07.2_N_CAM%20-%20Exit%207.jpg","refreshMs":30000,"attribution":"Ora (Warner Varnado) · Rhode Island DOT"}},{"type":"Feature","geometry":{"type":"Point","coordinates":[-71.794534,41.443638]},"properties":{"id":"ora-ri-104","name":"NB CT RI State Line","state":"RI","provider":"Rhode Island DOT","hls":null,"snapshot":"https://www.dot.ri.gov/img/travel/camimages/95_00.2_N_CAM%20-%20CT_RI%20State%20Line.jpg","refreshMs":30000,"attribution":"Ora (Warner Varnado) · Rhode Island DOT"}},{"type":"Feature","geometry":{"type":"Point","coordinates":[-71.487205,41.630958]},"properties":{"id":"ora-ri-105","name":"Rt 4 @ 402 Frenchtown","state":"RI","provider":"Rhode Island DOT","hls":null,"snapshot":"https://www.dot.ri.gov/img/travel/camimages/4_07.0_S_CAM%20Exit%207A%20-%20Frenchtown%20Rd.jpg","refreshMs":30000,"attribution":"Ora (Warner Varnado) · Rhode Island DOT"}},{"type":"Feature","geometry":{"type":"Point","coordinates":[-71.212187,41.63817]},"properties":{"id":"ora-ri-106","name":"Sakonnet River Bridge (Tiverton)","state":"RI","provider":"Rhode Island DOT","hls":null,"snapshot":"https://www.dot.ri.gov/img/travel/camimages/24_03.6_N_CAM%20-%20Sakonnet%20River%20Bridge%20%28Tiverton%29.jpg","refreshMs":30000,"attribution":"Ora (Warner Varnado) · Rhode Island DOT"}},{"type":"Feature","geometry":{"type":"Point","coordinates":[-71.174596,41.649661]},"properties":{"id":"ora-ri-107","name":"Eagleville Road","state":"RI","provider":"Rhode Island DOT","hls":null,"snapshot":"https://www.dot.ri.gov/img/travel/camimages/24_06.8_N_CAM%20Exit%201A%20-%20Eagleville%20Rd.jpg","refreshMs":30000,"attribution":"Ora (Warner Varnado) · Rhode Island DOT"}},{"type":"Feature","geometry":{"type":"Point","coordinates":[-71.291988,41.519209]},"properties":{"id":"ora-ri-108","name":"Rt 138 @ Rt 214","state":"RI","provider":"Rhode Island DOT","hls":null,"snapshot":"https://www.dot.ri.gov/img/travel/camimages/138_34.8_E_CAM%20Rt%20138%20%40%20Rt%20214.jpg","refreshMs":30000,"attribution":"Ora (Warner Varnado) · Rhode Island DOT"}},{"type":"Feature","geometry":{"type":"Point","coordinates":[-71.300595,41.516985]},"properties":{"id":"ora-ri-109","name":"Rt 114 Middletown","state":"RI","provider":"Rhode Island DOT","hls":null,"snapshot":"https://www.dot.ri.gov/img/travel/camimages/138_34.4_W_CAM%20Rt%20114%20%40%20Rt%20138.jpg","refreshMs":30000,"attribution":"Ora (Warner Varnado) · Rhode Island DOT"}},{"type":"Feature","geometry":{"type":"Point","coordinates":[-71.197138,41.642527]},"properties":{"id":"ora-ri-110","name":"Rt 24 S @ Main Road","state":"RI","provider":"Rhode Island DOT","hls":null,"snapshot":"https://www.dot.ri.gov/img/travel/camimages/24_04.4_S_CAM%20Exit%204%20-%20Main%20Rd.jpg","refreshMs":30000,"attribution":"Ora (Warner Varnado) · Rhode Island DOT"}},{"type":"Feature","geometry":{"type":"Point","coordinates":[-71.202496,41.641635]},"properties":{"id":"ora-ri-111","name":"Sakonnet River Bridge (Portsmouth)","state":"RI","provider":"Rhode Island DOT","hls":null,"snapshot":"https://www.dot.ri.gov/img/travel/camimages/24_04.1_N_CAM%20-%20Sakonnet%20River%20Bridge%20%28Portsmouth%29.jpg","refreshMs":30000,"attribution":"Ora (Warner Varnado) · Rhode Island DOT"}},{"type":"Feature","geometry":{"type":"Point","coordinates":[-71.283169,41.521821]},"properties":{"id":"ora-ri-112","name":"Rt 138 @ Rt 138A","state":"RI","provider":"Rhode Island DOT","hls":null,"snapshot":"https://www.dot.ri.gov/img/travel/camimages/138_35.3_E_CAM%20Rt%20138%20%40%20Rt%20138A.jpg","refreshMs":30000,"attribution":"Ora (Warner Varnado) · Rhode Island DOT"}},{"type":"Feature","geometry":{"type":"Point","coordinates":[-71.302071,41.510924]},"properties":{"id":"ora-ri-113","name":"Rt 114 @ Evergreen","state":"RI","provider":"Rhode Island DOT","hls":null,"snapshot":"https://www.dot.ri.gov/img/travel/camimages/138_34.0_W_CAM%20Rt%20114%20%40%20Evergreen-Middletown.jpg","refreshMs":30000,"attribution":"Ora (Warner Varnado) · Rhode Island DOT"}},{"type":"Feature","geometry":{"type":"Point","coordinates":[-71.316765,41.494926]},"properties":{"id":"ora-ri-114","name":"Farewell Street at America's Cup Ave","state":"RI","provider":"Rhode Island DOT","hls":null,"snapshot":"https://www.dot.ri.gov/img/travel/camimages/Farewell%20Street%20%40%20America%27s%20Cup%20Ave.jpg","refreshMs":30000,"attribution":"Ora (Warner Varnado) · Rhode Island DOT"}},{"type":"Feature","geometry":{"type":"Point","coordinates":[-71.317484,41.507332]},"properties":{"id":"ora-ri-115","name":"JT Connell Hwy at Rt 138 Overpass","state":"RI","provider":"Rhode Island DOT","hls":null,"snapshot":"https://www.dot.ri.gov/img/travel/camimages/138_32.4_E_CAM%20JT%20Connell%20Hwy%20at%20Rt%20138%20Overpass.jpg","refreshMs":30000,"attribution":"Ora (Warner Varnado) · Rhode Island DOT"}},{"type":"Feature","geometry":{"type":"Point","coordinates":[-71.314815,41.507388]},"properties":{"id":"ora-ri-116","name":"Admiral Kalbfus at Halsey Blvd","state":"RI","provider":"Rhode Island DOT","hls":null,"snapshot":"https://www.dot.ri.gov/img/travel/camimages/138_32.9_W_CAM%20Admiral%20Kalbfus%20at%20Halsey%20St.jpg","refreshMs":30000,"attribution":"Ora (Warner Varnado) · Rhode Island DOT"}},{"type":"Feature","geometry":{"type":"Point","coordinates":[-71.317777,41.506875]},"properties":{"id":"ora-ri-117","name":"Admiral Kalbfus at JT Connell Roundabout","state":"RI","provider":"Rhode Island DOT","hls":null,"snapshot":"https://www.dot.ri.gov/img/travel/camimages/Admiral%20Kalbfus%20%40%20JT%20Connell%20Roundabout.jpg","refreshMs":30000,"attribution":"Ora (Warner Varnado) · Rhode Island DOT"}},{"type":"Feature","geometry":{"type":"Point","coordinates":[-71.3164,41.507251]},"properties":{"id":"ora-ri-118","name":"Rt 138 At Connector Rd/Waste Management","state":"RI","provider":"Rhode Island DOT","hls":null,"snapshot":"https://www.dot.ri.gov/img/travel/camimages/138_32.6_E_CAM%20Rt%20138%20At%20Connector%20Rd%20-%20Waste%20Mgmt.jpg","refreshMs":30000,"attribution":"Ora (Warner Varnado) · Rhode Island DOT"}},{"type":"Feature","geometry":{"type":"Point","coordinates":[-71.3795,41.8293]},"properties":{"id":"ora-ri-119","name":"Henderson Bridge, Providence","state":"RI","provider":"Rhode Island DOT","hls":null,"snapshot":"https://www.dot.ri.gov/img/travel/camimages/Henderson%20Bridge%20Prov%201.jpg","refreshMs":30000,"attribution":"Ora (Warner Varnado) · Rhode Island DOT"}},{"type":"Feature","geometry":{"type":"Point","coordinates":[-71.3785,41.8294]},"properties":{"id":"ora-ri-120","name":"Henderson Bridge, Providence","state":"RI","provider":"Rhode Island DOT","hls":null,"snapshot":"https://www.dot.ri.gov/img/travel/camimages/Henderson%20Bridge%20Prov%202.jpg","refreshMs":30000,"attribution":"Ora (Warner Varnado) · Rhode Island DOT"}},{"type":"Feature","geometry":{"type":"Point","coordinates":[-71.332554,41.789521]},"properties":{"id":"ora-ri-121","name":"Rt 114 @ Mink St","state":"RI","provider":"Rhode Island DOT","hls":null,"snapshot":"https://www.dot.ri.gov/img/travel/camimages/Rt%20114%20%40%20Mink%20St%20DMS%20and%20Camera.jpg","refreshMs":30000,"attribution":"Ora (Warner Varnado) · Rhode Island DOT"}},{"type":"Feature","geometry":{"type":"Point","coordinates":[-71.273811,41.732971]},"properties":{"id":"ora-ri-122","name":"Rte 136 Market St @ Kickemuit Rd","state":"RI","provider":"Rhode Island DOT","hls":null,"snapshot":"https://www.dot.ri.gov/img/travel/camimages/Rt%20136%20Market%20St%20%40%20Kickemuit%20Rd.jpg","refreshMs":30000,"attribution":"Ora (Warner Varnado) · Rhode Island DOT"}},{"type":"Feature","geometry":{"type":"Point","coordinates":[-71.367,41.8263]},"properties":{"id":"ora-ri-123","name":"Henderson Bridge, East Providence","state":"RI","provider":"Rhode Island DOT","hls":null,"snapshot":"https://www.dot.ri.gov/img/travel/camimages/Henderson%20Bridge%20EP%201.jpg","refreshMs":30000,"attribution":"Ora (Warner Varnado) · Rhode Island DOT"}},{"type":"Feature","geometry":{"type":"Point","coordinates":[-71.366,41.8261]},"properties":{"id":"ora-ri-124","name":"Henderson Bridge, Providence","state":"RI","provider":"Rhode Island DOT","hls":null,"snapshot":"https://www.dot.ri.gov/img/travel/camimages/Henderson%20Bridge%20EP%202.jpg","refreshMs":30000,"attribution":"Ora (Warner Varnado) · Rhode Island DOT"}},{"type":"Feature","geometry":{"type":"Point","coordinates":[-71.467254,41.9355]},"properties":{"id":"ora-ri-125","name":"Rt 146 NB @ Rt 116","state":"RI","provider":"Rhode Island DOT","hls":null,"snapshot":"https://www.dot.ri.gov/img/travel/camimages/146_07.0_N_CAM%20Exit%207%20-%20Rt%20116.jpg","refreshMs":30000,"attribution":"Ora (Warner Varnado) · Rhode Island DOT"}},{"type":"Feature","geometry":{"type":"Point","coordinates":[-71.51685,41.972066]},"properties":{"id":"ora-ri-126","name":"146-7 Rt 146 NB @ Rt 146A Split","state":"RI","provider":"Rhode Island DOT","hls":null,"snapshot":"https://www.dot.ri.gov/img/travel/camimages/146_10.4_N_CAM%20Exit%2010%20-%20Rt%20146A%20Split.jpg","refreshMs":30000,"attribution":"Ora (Warner Varnado) · Rhode Island DOT"}},{"type":"Feature","geometry":{"type":"Point","coordinates":[-71.505345,41.923677]},"properties":{"id":"ora-ri-127","name":"Route 116","state":"RI","provider":"Rhode Island DOT","hls":null,"snapshot":"https://www.dot.ri.gov/img/travel/camimages/295_16.2_S_CAM%20Rt%20116.jpg","refreshMs":30000,"attribution":"Ora (Warner Varnado) · Rhode Island DOT"}},{"type":"Feature","geometry":{"type":"Point","coordinates":[-71.467671,41.942582]},"properties":{"id":"ora-ri-128","name":"Exit 18A (Route 146)","state":"RI","provider":"Rhode Island DOT","hls":null,"snapshot":"https://www.dot.ri.gov/img/travel/camimages/295_18.4_SM_CAM%20Exit%2018A%20-%20Rt%20146.jpg","refreshMs":30000,"attribution":"Ora (Warner Varnado) · Rhode Island DOT"}},{"type":"Feature","geometry":{"type":"Point","coordinates":[-71.562042,42.003238]},"properties":{"id":"ora-ri-129","name":"Rt 146 N @ Great Rd","state":"RI","provider":"Rhode Island DOT","hls":null,"snapshot":"https://www.dot.ri.gov/img/travel/camimages/146_14.2_N_CAM%20Exit%2014%20-%20Great%20Rd.jpg","refreshMs":30000,"attribution":"Ora (Warner Varnado) · Rhode Island DOT"}},{"type":"Feature","geometry":{"type":"Point","coordinates":[-71.51685,41.972066]},"properties":{"id":"ora-ri-130","name":"Rt 146 SB @ Rt 146A Split","state":"RI","provider":"Rhode Island DOT","hls":null,"snapshot":"https://www.dot.ri.gov/img/travel/camimages/146_10.4_S_CAM%20Exit%2010%20-%20Rt%20146A%20Split.jpg","refreshMs":30000,"attribution":"Ora (Warner Varnado) · Rhode Island DOT"}},{"type":"Feature","geometry":{"type":"Point","coordinates":[-71.530727,41.870208]},"properties":{"id":"ora-ri-131","name":"Rt 44 @ Rt 5","state":"RI","provider":"Rhode Island DOT","hls":null,"snapshot":"https://www.dot.ri.gov/img/travel/camimages/Rt%2044%20%40%20Rt%205.jpg","refreshMs":30000,"attribution":"Ora (Warner Varnado) · Rhode Island DOT"}},{"type":"Feature","geometry":{"type":"Point","coordinates":[-71.546113,41.984337]},"properties":{"id":"ora-ri-132","name":"Rt 146 N @ Woonsocket Hill Rd","state":"RI","provider":"Rhode Island DOT","hls":null,"snapshot":"https://www.dot.ri.gov/img/travel/camimages/146_12.4_N_CAM%20Exit%2013%20-%20Woonsocket%20Hill%20Rd.jpg","refreshMs":30000,"attribution":"Ora (Warner Varnado) · Rhode Island DOT"}},{"type":"Feature","geometry":{"type":"Point","coordinates":[-71.434193,41.946026]},"properties":{"id":"ora-ri-133","name":"Exit 20 (Route 112)","state":"RI","provider":"Rhode Island DOT","hls":null,"snapshot":"https://www.dot.ri.gov/img/travel/camimages/295_20.0_N_CAM%20Exit%2020%20-%20Rt%20122.jpg","refreshMs":30000,"attribution":"Ora (Warner Varnado) · Rhode Island DOT"}},{"type":"Feature","geometry":{"type":"Point","coordinates":[-71.515221,41.869231]},"properties":{"id":"ora-ri-134","name":"Exit 12A Northbound (Route 44)","state":"RI","provider":"Rhode Island DOT","hls":null,"snapshot":"https://www.dot.ri.gov/img/travel/camimages/295_12.0_S_CAM%20Exit%2012A%20-%20Rt%2044.jpg","refreshMs":30000,"attribution":"Ora (Warner Varnado) · Rhode Island DOT"}}]}