{"type":"FeatureCollection","features":[{"type":"Feature","geometry":{"type":"Point","coordinates":[-97.06,44.95]},"properties":{"id":"ora-sd-0","name":"Watertown North","state":"SD","provider":"South Dakota DOT","hls":null,"snapshot":"https://sd.cdn.iteris-atis.com/camera_images/CSDATY/1/latest.jpg","refreshMs":30000,"attribution":"Ora (Warner Varnado) · South Dakota DOT"}},{"type":"Feature","geometry":{"type":"Point","coordinates":[-96.75721,44.25416]},"properties":{"id":"ora-sd-1","name":"Brookings South","state":"SD","provider":"South Dakota DOT","hls":null,"snapshot":"https://sd.cdn.iteris-atis.com/camera_images/CSDBK0/0/latest.jpg","refreshMs":30000,"attribution":"Ora (Warner Varnado) · South Dakota DOT"}},{"type":"Feature","geometry":{"type":"Point","coordinates":[-96.75770145,44.28175399]},"properties":{"id":"ora-sd-2","name":"Brookings South","state":"SD","provider":"South Dakota DOT","hls":null,"snapshot":"https://sd.cdn.iteris-atis.com/camera_images/CSDBK1/0/latest.jpg","refreshMs":30000,"attribution":"Ora (Warner Varnado) · South Dakota DOT"}},{"type":"Feature","geometry":{"type":"Point","coordinates":[-96.75796638,44.3114342]},"properties":{"id":"ora-sd-3","name":"Brookings South","state":"SD","provider":"South Dakota DOT","hls":null,"snapshot":"https://sd.cdn.iteris-atis.com/camera_images/CSDBK2/0/latest.jpg","refreshMs":30000,"attribution":"Ora (Warner Varnado) · South Dakota DOT"}},{"type":"Feature","geometry":{"type":"Point","coordinates":[-96.75777152,44.32575195]},"properties":{"id":"ora-sd-4","name":"Brookings South","state":"SD","provider":"South Dakota DOT","hls":null,"snapshot":"https://sd.cdn.iteris-atis.com/camera_images/CSDBK3/0/latest.jpg","refreshMs":30000,"attribution":"Ora (Warner Varnado) · South Dakota DOT"}},{"type":"Feature","geometry":{"type":"Point","coordinates":[-96.75925648,44.09463783]},"properties":{"id":"ora-sd-5","name":"Brookings South","state":"SD","provider":"South Dakota DOT","hls":null,"snapshot":"https://sd.cdn.iteris-atis.com/camera_images/CSDBK4/0/latest.jpg","refreshMs":30000,"attribution":"Ora (Warner Varnado) · South Dakota DOT"}},{"type":"Feature","geometry":{"type":"Point","coordinates":[-96.75817444,44.35553389]},"properties":{"id":"ora-sd-6","name":"Brookings North","state":"SD","provider":"South Dakota DOT","hls":null,"snapshot":"https://sd.cdn.iteris-atis.com/camera_images/CSDBKX/0/latest.jpg","refreshMs":30000,"attribution":"Ora (Warner Varnado) · South Dakota DOT"}},{"type":"Feature","geometry":{"type":"Point","coordinates":[-96.57224717,43.60800078]},"properties":{"id":"ora-sd-7","name":"Brandon","state":"SD","provider":"South Dakota DOT","hls":null,"snapshot":"https://sd.cdn.iteris-atis.com/camera_images/CSDBRD/0/latest.jpg","refreshMs":30000,"attribution":"Ora (Warner Varnado) · South Dakota DOT"}},{"type":"Feature","geometry":{"type":"Point","coordinates":[-96.75978153,44.1818804]},"properties":{"id":"ora-sd-8","name":"Big Sioux River","state":"SD","provider":"South Dakota DOT","hls":null,"snapshot":"https://sd.cdn.iteris-atis.com/camera_images/CSDBSX/0/latest.jpg","refreshMs":30000,"attribution":"Ora (Warner Varnado) · South Dakota DOT"}},{"type":"Feature","geometry":{"type":"Point","coordinates":[-99.2724,43.7568]},"properties":{"id":"ora-sd-9","name":"Chamberlain East","state":"SD","provider":"South Dakota DOT","hls":null,"snapshot":"https://sd.cdn.iteris-atis.com/camera_images/CSDCHE/1/latest.jpg","refreshMs":30000,"attribution":"Ora (Warner Varnado) · South Dakota DOT"}},{"type":"Feature","geometry":{"type":"Point","coordinates":[-99.4228,43.812]},"properties":{"id":"ora-sd-10","name":"Chamberlain West","state":"SD","provider":"South Dakota DOT","hls":null,"snapshot":"https://sd.cdn.iteris-atis.com/camera_images/CSDCHW/1/latest.jpg","refreshMs":30000,"attribution":"Ora (Warner Varnado) · South Dakota DOT"}},{"type":"Feature","geometry":{"type":"Point","coordinates":[-96.7566078,44.23900164]},"properties":{"id":"ora-sd-11","name":"Elkton","state":"SD","provider":"South Dakota DOT","hls":null,"snapshot":"https://sd.cdn.iteris-atis.com/camera_images/CSDEKT/0/latest.jpg","refreshMs":30000,"attribution":"Ora (Warner Varnado) · South Dakota DOT"}},{"type":"Feature","geometry":{"type":"Point","coordinates":[-96.75836428,44.05131306]},"properties":{"id":"ora-sd-12","name":"Flandreau Exit 114","state":"SD","provider":"South Dakota DOT","hls":null,"snapshot":"https://sd.cdn.iteris-atis.com/camera_images/CSDFLD/0/latest.jpg","refreshMs":30000,"attribution":"Ora (Warner Varnado) · South Dakota DOT"}},{"type":"Feature","geometry":{"type":"Point","coordinates":[-103.1993467,43.8394268]},"properties":{"id":"ora-sd-13","name":"Hermosa","state":"SD","provider":"South Dakota DOT","hls":null,"snapshot":"https://sd.cdn.iteris-atis.com/camera_images/CSDHRM/0/latest.jpg","refreshMs":30000,"attribution":"Ora (Warner Varnado) · South Dakota DOT"}},{"type":"Feature","geometry":{"type":"Point","coordinates":[-96.63393322,42.64890212]},"properties":{"id":"ora-sd-14","name":"Jefferson","state":"SD","provider":"South Dakota DOT","hls":null,"snapshot":"https://sd.cdn.iteris-atis.com/camera_images/CSDJEF/0/latest.jpg","refreshMs":30000,"attribution":"Ora (Warner Varnado) · South Dakota DOT"}},{"type":"Feature","geometry":{"type":"Point","coordinates":[-96.790046,42.784352]},"properties":{"id":"ora-sd-15","name":"Junction City","state":"SD","provider":"South Dakota DOT","hls":null,"snapshot":"https://sd.cdn.iteris-atis.com/camera_images/CSDJNC/1/latest.jpg","refreshMs":30000,"attribution":"Ora (Warner Varnado) · South Dakota DOT"}},{"type":"Feature","geometry":{"type":"Point","coordinates":[-103.433,43.927]},"properties":{"id":"ora-sd-16","name":"Keystone Wye","state":"SD","provider":"South Dakota DOT","hls":null,"snapshot":"https://sd.cdn.iteris-atis.com/camera_images/CSDKEY/1/latest.jpg","refreshMs":30000,"attribution":"Ora (Warner Varnado) · South Dakota DOT"}},{"type":"Feature","geometry":{"type":"Point","coordinates":[-103.42556371,43.89351545]},"properties":{"id":"ora-sd-17","name":"Keystone","state":"SD","provider":"South Dakota DOT","hls":null,"snapshot":"https://sd.cdn.iteris-atis.com/camera_images/CSDKY2/1/latest.jpg","refreshMs":30000,"attribution":"Ora (Warner Varnado) · South Dakota DOT"}},{"type":"Feature","geometry":{"type":"Point","coordinates":[-103.39658634,43.39993722]},"properties":{"id":"ora-sd-18","name":"Maverick Junction","state":"SD","provider":"South Dakota DOT","hls":null,"snapshot":"https://sd.cdn.iteris-atis.com/camera_images/CSDMAV/1/latest.jpg","refreshMs":30000,"attribution":"Ora (Warner Varnado) · South Dakota DOT"}},{"type":"Feature","geometry":{"type":"Point","coordinates":[-98.02,43.71]},"properties":{"id":"ora-sd-19","name":"Mitchell East","state":"SD","provider":"South Dakota DOT","hls":null,"snapshot":"https://sd.cdn.iteris-atis.com/camera_images/CSDMHE/4/latest.jpg","refreshMs":30000,"attribution":"Ora (Warner Varnado) · South Dakota DOT"}},{"type":"Feature","geometry":{"type":"Point","coordinates":[-100.71,43.88]},"properties":{"id":"ora-sd-20","name":"Murdo West","state":"SD","provider":"South Dakota DOT","hls":null,"snapshot":"https://sd.cdn.iteris-atis.com/camera_images/CSDMUR/1/latest.jpg","refreshMs":30000,"attribution":"Ora (Warner Varnado) · South Dakota DOT"}},{"type":"Feature","geometry":{"type":"Point","coordinates":[-103.58859815,43.89180086]},"properties":{"id":"ora-sd-21","name":"Oreville","state":"SD","provider":"South Dakota DOT","hls":null,"snapshot":"https://sd.cdn.iteris-atis.com/camera_images/CSDORE/1/latest.jpg","refreshMs":30000,"attribution":"Ora (Warner Varnado) · South Dakota DOT"}},{"type":"Feature","geometry":{"type":"Point","coordinates":[-103.151,44.093]},"properties":{"id":"ora-sd-22","name":"Elk Vale Rd","state":"SD","provider":"South Dakota DOT","hls":null,"snapshot":"https://sd.cdn.iteris-atis.com/camera_images/CSDRCE/1/latest.jpg","refreshMs":30000,"attribution":"Ora (Warner Varnado) · South Dakota DOT"}},{"type":"Feature","geometry":{"type":"Point","coordinates":[-103.285,44.135]},"properties":{"id":"ora-sd-23","name":"Rapid City West","state":"SD","provider":"South Dakota DOT","hls":null,"snapshot":"https://sd.cdn.iteris-atis.com/camera_images/CSDRCW/1/latest.jpg","refreshMs":30000,"attribution":"Ora (Warner Varnado) · South Dakota DOT"}},{"type":"Feature","geometry":{"type":"Point","coordinates":[-96.663,43.608]},"properties":{"id":"ora-sd-24","name":"Sioux Falls East","state":"SD","provider":"South Dakota DOT","hls":null,"snapshot":"https://sd.cdn.iteris-atis.com/camera_images/CSDSFE/1/latest.jpg","refreshMs":30000,"attribution":"Ora (Warner Varnado) · South Dakota DOT"}},{"type":"Feature","geometry":{"type":"Point","coordinates":[-96.771,43.629]},"properties":{"id":"ora-sd-25","name":"Sioux Falls North","state":"SD","provider":"South Dakota DOT","hls":null,"snapshot":"https://sd.cdn.iteris-atis.com/camera_images/CSDSFN/1/latest.jpg","refreshMs":30000,"attribution":"Ora (Warner Varnado) · South Dakota DOT"}},{"type":"Feature","geometry":{"type":"Point","coordinates":[-96.811,43.608]},"properties":{"id":"ora-sd-26","name":"Sioux Falls West","state":"SD","provider":"South Dakota DOT","hls":null,"snapshot":"https://sd.cdn.iteris-atis.com/camera_images/CSDSFW/1/latest.jpg","refreshMs":30000,"attribution":"Ora (Warner Varnado) · South Dakota DOT"}},{"type":"Feature","geometry":{"type":"Point","coordinates":[-103.462,44.361]},"properties":{"id":"ora-sd-27","name":"Sturgis East","state":"SD","provider":"South Dakota DOT","hls":null,"snapshot":"https://sd.cdn.iteris-atis.com/camera_images/CSDSGE/1/latest.jpg","refreshMs":30000,"attribution":"Ora (Warner Varnado) · South Dakota DOT"}},{"type":"Feature","geometry":{"type":"Point","coordinates":[-103.564,44.426]},"properties":{"id":"ora-sd-28","name":"Sturgis West","state":"SD","provider":"South Dakota DOT","hls":null,"snapshot":"https://sd.cdn.iteris-atis.com/camera_images/CSDSGW/1/latest.jpg","refreshMs":30000,"attribution":"Ora (Warner Varnado) · South Dakota DOT"}},{"type":"Feature","geometry":{"type":"Point","coordinates":[-96.97,45.69]},"properties":{"id":"ora-sd-29","name":"Sisseton North","state":"SD","provider":"South Dakota DOT","hls":null,"snapshot":"https://sd.cdn.iteris-atis.com/camera_images/CSDSIS/1/latest.jpg","refreshMs":30000,"attribution":"Ora (Warner Varnado) · South Dakota DOT"}},{"type":"Feature","geometry":{"type":"Point","coordinates":[-103.8588,44.5081]},"properties":{"id":"ora-sd-30","name":"Spearfish West","state":"SD","provider":"South Dakota DOT","hls":null,"snapshot":"https://sd.cdn.iteris-atis.com/camera_images/CSDSPH/1/latest.jpg","refreshMs":30000,"attribution":"Ora (Warner Varnado) · South Dakota DOT"}},{"type":"Feature","geometry":{"type":"Point","coordinates":[-103.1862782,43.95588645]},"properties":{"id":"ora-sd-31","name":"Spring Creek","state":"SD","provider":"South Dakota DOT","hls":null,"snapshot":"https://sd.cdn.iteris-atis.com/camera_images/CSDSPI/0/latest.jpg","refreshMs":30000,"attribution":"Ora (Warner Varnado) · South Dakota DOT"}},{"type":"Feature","geometry":{"type":"Point","coordinates":[-103.44771,44.51187]},"properties":{"id":"ora-sd-32","name":"Sturgis North","state":"SD","provider":"South Dakota DOT","hls":null,"snapshot":"https://sd.cdn.iteris-atis.com/camera_images/CSDSTN/0/latest.jpg","refreshMs":30000,"attribution":"Ora (Warner Varnado) · South Dakota DOT"}},{"type":"Feature","geometry":{"type":"Point","coordinates":[-103.43675,44.316365]},"properties":{"id":"ora-sd-33","name":"Tilford","state":"SD","provider":"South Dakota DOT","hls":null,"snapshot":"https://sd.cdn.iteris-atis.com/camera_images/CSDTIL/0/latest.jpg","refreshMs":30000,"attribution":"Ora (Warner Varnado) · South Dakota DOT"}},{"type":"Feature","geometry":{"type":"Point","coordinates":[-96.462308,43.609357]},"properties":{"id":"ora-sd-34","name":"Valley Springs","state":"SD","provider":"South Dakota DOT","hls":null,"snapshot":"https://sd.cdn.iteris-atis.com/camera_images/CSDVLS/0/latest.jpg","refreshMs":30000,"attribution":"Ora (Warner Varnado) · South Dakota DOT"}},{"type":"Feature","geometry":{"type":"Point","coordinates":[-100.198,43.912]},"properties":{"id":"ora-sd-35","name":"Vivian Rest Area","state":"SD","provider":"South Dakota DOT","hls":null,"snapshot":"https://sd.cdn.iteris-atis.com/camera_images/CSDVVN/1/latest.jpg","refreshMs":30000,"attribution":"Ora (Warner Varnado) · South Dakota DOT"}},{"type":"Feature","geometry":{"type":"Point","coordinates":[-97.02019295,45.40358104]},"properties":{"id":"ora-sd-36","name":"Wilmot","state":"SD","provider":"South Dakota DOT","hls":null,"snapshot":"https://sd.cdn.iteris-atis.com/camera_images/CSDWIL/0/latest.jpg","refreshMs":30000,"attribution":"Ora (Warner Varnado) · South Dakota DOT"}},{"type":"Feature","geometry":{"type":"Point","coordinates":[-102.222,43.987]},"properties":{"id":"ora-sd-37","name":"Wall East","state":"SD","provider":"South Dakota DOT","hls":null,"snapshot":"https://sd.cdn.iteris-atis.com/camera_images/CSDWLE/1/latest.jpg","refreshMs":30000,"attribution":"Ora (Warner Varnado) · South Dakota DOT"}},{"type":"Feature","geometry":{"type":"Point","coordinates":[-102.279,44.009]},"properties":{"id":"ora-sd-38","name":"Wall West","state":"SD","provider":"South Dakota DOT","hls":null,"snapshot":"https://sd.cdn.iteris-atis.com/camera_images/CSDWLW/1/latest.jpg","refreshMs":30000,"attribution":"Ora (Warner Varnado) · South Dakota DOT"}},{"type":"Feature","geometry":{"type":"Point","coordinates":[-103.6168895,44.45979356]},"properties":{"id":"ora-sd-39","name":"Whitewood","state":"SD","provider":"South Dakota DOT","hls":null,"snapshot":"https://sd.cdn.iteris-atis.com/camera_images/CSDWWD/0/latest.jpg","refreshMs":30000,"attribution":"Ora (Warner Varnado) · South Dakota DOT"}},{"type":"Feature","geometry":{"type":"Point","coordinates":[-96.781,43.515]},"properties":{"id":"ora-sd-40","name":"Sioux Falls 41st St","state":"SD","provider":"South Dakota DOT","hls":null,"snapshot":"https://sd.cdn.iteris-atis.com/camera_images/SD41S/1/latest.jpg","refreshMs":30000,"attribution":"Ora (Warner Varnado) · South Dakota DOT"}},{"type":"Feature","geometry":{"type":"Point","coordinates":[-103.51337105,43.95073157]},"properties":{"id":"ora-sd-41","name":"Three Forks (RWIS)","state":"SD","provider":"South Dakota DOT","hls":null,"snapshot":"https://sd.cdn.iteris-atis.com/camera_images/CSD3FK/1/latest.jpg","refreshMs":30000,"attribution":"Ora (Warner Varnado) · South Dakota DOT"}},{"type":"Feature","geometry":{"type":"Point","coordinates":[-100.08205264,44.88351059]},"properties":{"id":"ora-sd-42","name":"Agar (RWIS)","state":"SD","provider":"South Dakota DOT","hls":null,"snapshot":"https://sd.cdn.iteris-atis.com/camera_images/CSDAGR/1/latest.jpg","refreshMs":30000,"attribution":"Ora (Warner Varnado) · South Dakota DOT"}},{"type":"Feature","geometry":{"type":"Point","coordinates":[-98.21290938,44.18490475]},"properties":{"id":"ora-sd-43","name":"Alpena (RWIS)","state":"SD","provider":"South Dakota DOT","hls":null,"snapshot":"https://sd.cdn.iteris-atis.com/camera_images/CSDALP/0/latest.jpg","refreshMs":30000,"attribution":"Ora (Warner Varnado) · South Dakota DOT"}},{"type":"Feature","geometry":{"type":"Point","coordinates":[-97.12775701,44.58672465]},"properties":{"id":"ora-sd-44","name":"Alsville (RWIS)","state":"SD","provider":"South Dakota DOT","hls":null,"snapshot":"https://sd.cdn.iteris-atis.com/camera_images/CSDALS/0/latest.jpg","refreshMs":30000,"attribution":"Ora (Warner Varnado) · South Dakota DOT"}},{"type":"Feature","geometry":{"type":"Point","coordinates":[-97.70554042,43.66539988]},"properties":{"id":"ora-sd-45","name":"Alexandria (RWIS)","state":"SD","provider":"South Dakota DOT","hls":null,"snapshot":"https://sd.cdn.iteris-atis.com/camera_images/CSDALX/1/latest.jpg","refreshMs":30000,"attribution":"Ora (Warner Varnado) · South Dakota DOT"}},{"type":"Feature","geometry":{"type":"Point","coordinates":[-101.45259,44.360903]},"properties":{"id":"ora-sd-46","name":"Billsburg (RWIS)","state":"SD","provider":"South Dakota DOT","hls":null,"snapshot":"https://sd.cdn.iteris-atis.com/camera_images/CSDBIL/0/latest.jpg","refreshMs":30000,"attribution":"Ora (Warner Varnado) · South Dakota DOT"}},{"type":"Feature","geometry":{"type":"Point","coordinates":[-100.0679,44.5026]},"properties":{"id":"ora-sd-47","name":"Blunt (RWIS)","state":"SD","provider":"South Dakota DOT","hls":null,"snapshot":"https://sd.cdn.iteris-atis.com/camera_images/CSDBLN/1/latest.jpg","refreshMs":30000,"attribution":"Ora (Warner Varnado) · South Dakota DOT"}},{"type":"Feature","geometry":{"type":"Point","coordinates":[-97.72067966,45.34165869]},"properties":{"id":"ora-sd-48","name":"Bristol (RWIS)","state":"SD","provider":"South Dakota DOT","hls":null,"snapshot":"https://sd.cdn.iteris-atis.com/camera_images/CSDBRI/0/latest.jpg","refreshMs":30000,"attribution":"Ora (Warner Varnado) · South Dakota DOT"}},{"type":"Feature","geometry":{"type":"Point","coordinates":[-97.553068,44.58736]},"properties":{"id":"ora-sd-49","name":"Bryant (RWIS)","state":"SD","provider":"South Dakota DOT","hls":null,"snapshot":"https://sd.cdn.iteris-atis.com/camera_images/CSDBRY/0/latest.jpg","refreshMs":30000,"attribution":"Ora (Warner Varnado) · South Dakota DOT"}},{"type":"Feature","geometry":{"type":"Point","coordinates":[-99.63855128,45.44490345]},"properties":{"id":"ora-sd-50","name":"Bowdle (RWIS)","state":"SD","provider":"South Dakota DOT","hls":null,"snapshot":"https://sd.cdn.iteris-atis.com/camera_images/CSDBWD/1/latest.jpg","refreshMs":30000,"attribution":"Ora (Warner Varnado) · South Dakota DOT"}},{"type":"Feature","geometry":{"type":"Point","coordinates":[-103.812617,45.58120167]},"properties":{"id":"ora-sd-51","name":"Camp Crook (RWIS)","state":"SD","provider":"South Dakota DOT","hls":null,"snapshot":"https://sd.cdn.iteris-atis.com/camera_images/CSDCAM/0/latest.jpg","refreshMs":30000,"attribution":"Ora (Warner Varnado) · South Dakota DOT"}},{"type":"Feature","geometry":{"type":"Point","coordinates":[-97.97585246,44.36892023]},"properties":{"id":"ora-sd-52","name":"Cavour (RWIS)","state":"SD","provider":"South Dakota DOT","hls":null,"snapshot":"https://sd.cdn.iteris-atis.com/camera_images/CSDCAV/1/latest.jpg","refreshMs":30000,"attribution":"Ora (Warner Varnado) · South Dakota DOT"}},{"type":"Feature","geometry":{"type":"Point","coordinates":[-97.57636047,44.87655927]},"properties":{"id":"ora-sd-53","name":"Clark (RWIS)","state":"SD","provider":"South Dakota DOT","hls":null,"snapshot":"https://sd.cdn.iteris-atis.com/camera_images/CSDCLK/1/latest.jpg","refreshMs":30000,"attribution":"Ora (Warner Varnado) · South Dakota DOT"}},{"type":"Feature","geometry":{"type":"Point","coordinates":[-98.104291,45.110421]},"properties":{"id":"ora-sd-54","name":"Conde (RWIS)","state":"SD","provider":"South Dakota DOT","hls":null,"snapshot":"https://sd.cdn.iteris-atis.com/camera_images/CSDCON/0/latest.jpg","refreshMs":30000,"attribution":"Ora (Warner Varnado) · South Dakota DOT"}},{"type":"Feature","geometry":{"type":"Point","coordinates":[-98.407109,43.384959]},"properties":{"id":"ora-sd-55","name":"Corsica (RWIS)","state":"SD","provider":"South Dakota DOT","hls":null,"snapshot":"https://sd.cdn.iteris-atis.com/camera_images/CSDCOR/0/latest.jpg","refreshMs":30000,"attribution":"Ora (Warner Varnado) · South Dakota DOT"}},{"type":"Feature","geometry":{"type":"Point","coordinates":[-102.012588,43.972726]},"properties":{"id":"ora-sd-56","name":"Cottonwood (RWIS)","state":"SD","provider":"South Dakota DOT","hls":null,"snapshot":"https://sd.cdn.iteris-atis.com/camera_images/CSDCOT/0/latest.jpg","refreshMs":30000,"attribution":"Ora (Warner Varnado) · South Dakota DOT"}},{"type":"Feature","geometry":{"type":"Point","coordinates":[-99.021232,45.187178]},"properties":{"id":"ora-sd-57","name":"Cresbard (RWIS)","state":"SD","provider":"South Dakota DOT","hls":null,"snapshot":"https://sd.cdn.iteris-atis.com/camera_images/CSDCRE/0/latest.jpg","refreshMs":30000,"attribution":"Ora (Warner Varnado) · South Dakota DOT"}},{"type":"Feature","geometry":{"type":"Point","coordinates":[-98.92581635,45.44790212]},"properties":{"id":"ora-sd-58","name":"Craven (RWIS)","state":"SD","provider":"South Dakota DOT","hls":null,"snapshot":"https://sd.cdn.iteris-atis.com/camera_images/CSDCRV/1/latest.jpg","refreshMs":30000,"attribution":"Ora (Warner Varnado) · South Dakota DOT"}},{"type":"Feature","geometry":{"type":"Point","coordinates":[-99.494847,43.227118]},"properties":{"id":"ora-sd-59","name":"Dallas (RWIS)","state":"SD","provider":"South Dakota DOT","hls":null,"snapshot":"https://sd.cdn.iteris-atis.com/camera_images/CSDDAL/0/latest.jpg","refreshMs":30000,"attribution":"Ora (Warner Varnado) · South Dakota DOT"}},{"type":"Feature","geometry":{"type":"Point","coordinates":[-99.90612723,44.28066229]},"properties":{"id":"ora-sd-60","name":"De Grey Hill (RWIS)","state":"SD","provider":"South Dakota DOT","hls":null,"snapshot":"https://sd.cdn.iteris-atis.com/camera_images/CSDDEG/0/latest.jpg","refreshMs":30000,"attribution":"Ora (Warner Varnado) · South Dakota DOT"}},{"type":"Feature","geometry":{"type":"Point","coordinates":[-98.215745,44.893849]},"properties":{"id":"ora-sd-61","name":"Doland (RWIS)","state":"SD","provider":"South Dakota DOT","hls":null,"snapshot":"https://sd.cdn.iteris-atis.com/camera_images/CSDDOL/0/latest.jpg","refreshMs":30000,"attribution":"Ora (Warner Varnado) · South Dakota DOT"}},{"type":"Feature","geometry":{"type":"Point","coordinates":[-96.796,43.263]},"properties":{"id":"ora-sd-62","name":"Davis (RWIS)","state":"SD","provider":"South Dakota DOT","hls":null,"snapshot":"https://sd.cdn.iteris-atis.com/camera_images/CSDDVS/1/latest.jpg","refreshMs":30000,"attribution":"Ora (Warner Varnado) · South Dakota DOT"}},{"type":"Feature","geometry":{"type":"Point","coordinates":[-103.994,43.725]},"properties":{"id":"ora-sd-63","name":"Elk Mountain (RWIS)","state":"SD","provider":"South Dakota DOT","hls":null,"snapshot":"https://sd.cdn.iteris-atis.com/camera_images/CSDELK/1/latest.jpg","refreshMs":30000,"attribution":"Ora (Warner Varnado) · South Dakota DOT"}},{"type":"Feature","geometry":{"type":"Point","coordinates":[-103.8147068,44.29580575]},"properties":{"id":"ora-sd-64","name":"Englewood (RWIS)","state":"SD","provider":"South Dakota DOT","hls":null,"snapshot":"https://sd.cdn.iteris-atis.com/camera_images/CSDENG/0/latest.jpg","refreshMs":30000,"attribution":"Ora (Warner Varnado) · South Dakota DOT"}},{"type":"Feature","geometry":{"type":"Point","coordinates":[-99.365,45.7668]},"properties":{"id":"ora-sd-65","name":"Eureka (RWIS)","state":"SD","provider":"South Dakota DOT","hls":null,"snapshot":"https://sd.cdn.iteris-atis.com/camera_images/CSDEUR/1/latest.jpg","refreshMs":30000,"attribution":"Ora (Warner Varnado) · South Dakota DOT"}},{"type":"Feature","geometry":{"type":"Point","coordinates":[-101.145,44.672]},"properties":{"id":"ora-sd-66","name":"Foster Bay (RWIS)","state":"SD","provider":"South Dakota DOT","hls":null,"snapshot":"https://sd.cdn.iteris-atis.com/camera_images/CSDFOS/1/latest.jpg","refreshMs":30000,"attribution":"Ora (Warner Varnado) · South Dakota DOT"}},{"type":"Feature","geometry":{"type":"Point","coordinates":[-103.26,43.68]},"properties":{"id":"ora-sd-67","name":"Fairburn (RWIS)","state":"SD","provider":"South Dakota DOT","hls":null,"snapshot":"https://sd.cdn.iteris-atis.com/camera_images/CSDFRB/1/latest.jpg","refreshMs":30000,"attribution":"Ora (Warner Varnado) · South Dakota DOT"}},{"type":"Feature","geometry":{"type":"Point","coordinates":[-98.986092,44.079006]},"properties":{"id":"ora-sd-68","name":"Gann Valley (RWIS)","state":"SD","provider":"South Dakota DOT","hls":null,"snapshot":"https://sd.cdn.iteris-atis.com/camera_images/CSDGNV/1/latest.jpg","refreshMs":30000,"attribution":"Ora (Warner Varnado) · South Dakota DOT"}},{"type":"Feature","geometry":{"type":"Point","coordinates":[-97.215,42.882]},"properties":{"id":"ora-sd-69","name":"Gayville (RWIS)","state":"SD","provider":"South Dakota DOT","hls":null,"snapshot":"https://sd.cdn.iteris-atis.com/camera_images/CSDGYV/1/latest.jpg","refreshMs":30000,"attribution":"Ora (Warner Varnado) · South Dakota DOT"}},{"type":"Feature","geometry":{"type":"Point","coordinates":[-100.772175,44.386424]},"properties":{"id":"ora-sd-70","name":"Hayes (RWIS)","state":"SD","provider":"South Dakota DOT","hls":null,"snapshot":"https://sd.cdn.iteris-atis.com/camera_images/CSDHAY/1/latest.jpg","refreshMs":30000,"attribution":"Ora (Warner Varnado) · South Dakota DOT"}},{"type":"Feature","geometry":{"type":"Point","coordinates":[-102.0521671,44.61868122]},"properties":{"id":"ora-sd-71","name":"Howes Corner (RWIS)","state":"SD","provider":"South Dakota DOT","hls":null,"snapshot":"https://sd.cdn.iteris-atis.com/camera_images/CSDHWE/0/latest.jpg","refreshMs":30000,"attribution":"Ora (Warner Varnado) · South Dakota DOT"}},{"type":"Feature","geometry":{"type":"Point","coordinates":[-97.08154,43.083182]},"properties":{"id":"ora-sd-72","name":"Irene (RWIS)","state":"SD","provider":"South Dakota DOT","hls":null,"snapshot":"https://sd.cdn.iteris-atis.com/camera_images/CSDIRE/0/latest.jpg","refreshMs":30000,"attribution":"Ora (Warner Varnado) · South Dakota DOT"}},{"type":"Feature","geometry":{"type":"Point","coordinates":[-101.405278,45.597181]},"properties":{"id":"ora-sd-73","name":"Isabel (RWIS)","state":"SD","provider":"South Dakota DOT","hls":null,"snapshot":"https://sd.cdn.iteris-atis.com/camera_images/CSDISA/2/latest.jpg","refreshMs":30000,"attribution":"Ora (Warner Varnado) · South Dakota DOT"}},{"type":"Feature","geometry":{"type":"Point","coordinates":[-98.452674,44.06764]},"properties":{"id":"ora-sd-74","name":"Lane (RWIS)","state":"SD","provider":"South Dakota DOT","hls":null,"snapshot":"https://sd.cdn.iteris-atis.com/camera_images/CSDLAN/0/latest.jpg","refreshMs":30000,"attribution":"Ora (Warner Varnado) · South Dakota DOT"}},{"type":"Feature","geometry":{"type":"Point","coordinates":[-97.42250697,45.724728337]},"properties":{"id":"ora-sd-75","name":"Lake City (RWIS)","state":"SD","provider":"South Dakota DOT","hls":null,"snapshot":"https://sd.cdn.iteris-atis.com/camera_images/CSDLKC/1/latest.jpg","refreshMs":30000,"attribution":"Ora (Warner Varnado) · South Dakota DOT"}},{"type":"Feature","geometry":{"type":"Point","coordinates":[-100.05838802,45.30594471]},"properties":{"id":"ora-sd-76","name":"Lowry (RWIS)","state":"SD","provider":"South Dakota DOT","hls":null,"snapshot":"https://sd.cdn.iteris-atis.com/camera_images/CSDLRY/1/latest.jpg","refreshMs":30000,"attribution":"Ora (Warner Varnado) · South Dakota DOT"}},{"type":"Feature","geometry":{"type":"Point","coordinates":[-99.44219102,44.25534262]},"properties":{"id":"ora-sd-77","name":"Mac's Corner (RWIS)","state":"SD","provider":"South Dakota DOT","hls":null,"snapshot":"https://sd.cdn.iteris-atis.com/camera_images/CSDMAC/1/latest.jpg","refreshMs":30000,"attribution":"Ora (Warner Varnado) · South Dakota DOT"}},{"type":"Feature","geometry":{"type":"Point","coordinates":[-97.07831674,43.98519799]},"properties":{"id":"ora-sd-78","name":"Madison (RWIS)","state":"SD","provider":"South Dakota DOT","hls":null,"snapshot":"https://sd.cdn.iteris-atis.com/camera_images/CSDMAD/0/latest.jpg","refreshMs":30000,"attribution":"Ora (Warner Varnado) · South Dakota DOT"}},{"type":"Feature","geometry":{"type":"Point","coordinates":[-99.60618831,43.9486166]},"properties":{"id":"ora-sd-79","name":"Medicine Butte (RWIS)","state":"SD","provider":"South Dakota DOT","hls":null,"snapshot":"https://sd.cdn.iteris-atis.com/camera_images/CSDMED/0/latest.jpg","refreshMs":30000,"attribution":"Ora (Warner Varnado) · South Dakota DOT"}},{"type":"Feature","geometry":{"type":"Point","coordinates":[-101.13762,44.08065]},"properties":{"id":"ora-sd-80","name":"Midland (RWIS)","state":"SD","provider":"South Dakota DOT","hls":null,"snapshot":"https://sd.cdn.iteris-atis.com/camera_images/CSDMID/1/latest.jpg","refreshMs":30000,"attribution":"Ora (Warner Varnado) · South Dakota DOT"}},{"type":"Feature","geometry":{"type":"Point","coordinates":[-100.911049,45.848074]},"properties":{"id":"ora-sd-81","name":"McLaughlin (RWIS)","state":"SD","provider":"South Dakota DOT","hls":null,"snapshot":"https://sd.cdn.iteris-atis.com/camera_images/CSDMLN/1/latest.jpg","refreshMs":30000,"attribution":"Ora (Warner Varnado) · South Dakota DOT"}},{"type":"Feature","geometry":{"type":"Point","coordinates":[-98.51349032,45.15848562]},"properties":{"id":"ora-sd-82","name":"Mellette (RWIS)","state":"SD","provider":"South Dakota DOT","hls":null,"snapshot":"https://sd.cdn.iteris-atis.com/camera_images/CSDMLT/1/latest.jpg","refreshMs":30000,"attribution":"Ora (Warner Varnado) · South Dakota DOT"}},{"type":"Feature","geometry":{"type":"Point","coordinates":[-103.686093,43.432817]},"properties":{"id":"ora-sd-83","name":"Minnekahta Junction (RWIS)","state":"SD","provider":"South Dakota DOT","hls":null,"snapshot":"https://sd.cdn.iteris-atis.com/camera_images/CSDMNK/0/latest.jpg","refreshMs":30000,"attribution":"Ora (Warner Varnado) · South Dakota DOT"}},{"type":"Feature","geometry":{"type":"Point","coordinates":[-103.56849777,44.1410047]},"properties":{"id":"ora-sd-84","name":"Sugar Shack (RWIS)","state":"SD","provider":"South Dakota DOT","hls":null,"snapshot":"https://sd.cdn.iteris-atis.com/camera_images/CSDMRT/1/latest.jpg","refreshMs":30000,"attribution":"Ora (Warner Varnado) · South Dakota DOT"}},{"type":"Feature","geometry":{"type":"Point","coordinates":[-103.208206,44.824819]},"properties":{"id":"ora-sd-85","name":"Newell (RWIS)","state":"SD","provider":"South Dakota DOT","hls":null,"snapshot":"https://sd.cdn.iteris-atis.com/camera_images/CSDNEW/0/latest.jpg","refreshMs":30000,"attribution":"Ora (Warner Varnado) · South Dakota DOT"}},{"type":"Feature","geometry":{"type":"Point","coordinates":[-102.929695,44.116495]},"properties":{"id":"ora-sd-86","name":"New Underwood (RWIS)","state":"SD","provider":"South Dakota DOT","hls":null,"snapshot":"https://sd.cdn.iteris-atis.com/camera_images/CSDNUW/1/latest.jpg","refreshMs":30000,"attribution":"Ora (Warner Varnado) · South Dakota DOT"}},{"type":"Feature","geometry":{"type":"Point","coordinates":[-103.001889,43.188151]},"properties":{"id":"ora-sd-87","name":"Oglala (RWIS)","state":"SD","provider":"South Dakota DOT","hls":null,"snapshot":"https://sd.cdn.iteris-atis.com/camera_images/CSDOGL/1/latest.jpg","refreshMs":30000,"attribution":"Ora (Warner Varnado) · South Dakota DOT"}},{"type":"Feature","geometry":{"type":"Point","coordinates":[-100.4465849,44.70701048]},"properties":{"id":"ora-sd-88","name":"Okobojo (RWIS)","state":"SD","provider":"South Dakota DOT","hls":null,"snapshot":"https://sd.cdn.iteris-atis.com/camera_images/CSDOKO/0/latest.jpg","refreshMs":30000,"attribution":"Ora (Warner Varnado) · South Dakota DOT"}},{"type":"Feature","geometry":{"type":"Point","coordinates":[-97.082059,43.372723]},"properties":{"id":"ora-sd-89","name":"Parker (RWIS)","state":"SD","provider":"South Dakota DOT","hls":null,"snapshot":"https://sd.cdn.iteris-atis.com/camera_images/CSDPAR/0/latest.jpg","refreshMs":30000,"attribution":"Ora (Warner Varnado) · South Dakota DOT"}},{"type":"Feature","geometry":{"type":"Point","coordinates":[-98.57610081,43.70894273]},"properties":{"id":"ora-sd-90","name":"Plankinton (RWIS)","state":"SD","provider":"South Dakota DOT","hls":null,"snapshot":"https://sd.cdn.iteris-atis.com/camera_images/CSDPLK/1/latest.jpg","refreshMs":30000,"attribution":"Ora (Warner Varnado) · South Dakota DOT"}},{"type":"Feature","geometry":{"type":"Point","coordinates":[-102.642439,45.530841]},"properties":{"id":"ora-sd-91","name":"Prairie City (RWIS)","state":"SD","provider":"South Dakota DOT","hls":null,"snapshot":"https://sd.cdn.iteris-atis.com/camera_images/CSDPRA/0/latest.jpg","refreshMs":30000,"attribution":"Ora (Warner Varnado) · South Dakota DOT"}},{"type":"Feature","geometry":{"type":"Point","coordinates":[-103.59047774,43.60881467]},"properties":{"id":"ora-sd-92","name":"Pringle (RWIS)","state":"SD","provider":"South Dakota DOT","hls":null,"snapshot":"https://sd.cdn.iteris-atis.com/camera_images/CSDPRG/1/latest.jpg","refreshMs":30000,"attribution":"Ora (Warner Varnado) · South Dakota DOT"}},{"type":"Feature","geometry":{"type":"Point","coordinates":[-102.9814223,45.86406165]},"properties":{"id":"ora-sd-93","name":"Ralph (RWIS)","state":"SD","provider":"South Dakota DOT","hls":null,"snapshot":"https://sd.cdn.iteris-atis.com/camera_images/CSDRAL/1/latest.jpg","refreshMs":30000,"attribution":"Ora (Warner Varnado) · South Dakota DOT"}},{"type":"Feature","geometry":{"type":"Point","coordinates":[-103.325,43.970833]},"properties":{"id":"ora-sd-94","name":"Rapid City (RWIS)","state":"SD","provider":"South Dakota DOT","hls":null,"snapshot":"https://sd.cdn.iteris-atis.com/camera_images/CSDRAP/0/latest.jpg","refreshMs":30000,"attribution":"Ora (Warner Varnado) · South Dakota DOT"}},{"type":"Feature","geometry":{"type":"Point","coordinates":[-103.55413275,45.38212389]},"properties":{"id":"ora-sd-95","name":"Redig (RWIS)","state":"SD","provider":"South Dakota DOT","hls":null,"snapshot":"https://sd.cdn.iteris-atis.com/camera_images/CSDRDG/1/latest.jpg","refreshMs":30000,"attribution":"Ora (Warner Varnado) · South Dakota DOT"}},{"type":"Feature","geometry":{"type":"Point","coordinates":[-99.19996,44.529606]},"properties":{"id":"ora-sd-96","name":"Ree Heights (RWIS)","state":"SD","provider":"South Dakota DOT","hls":null,"snapshot":"https://sd.cdn.iteris-atis.com/camera_images/CSDREE/0/latest.jpg","refreshMs":30000,"attribution":"Ora (Warner Varnado) · South Dakota DOT"}},{"type":"Feature","geometry":{"type":"Point","coordinates":[-103.166889,45.53351499]},"properties":{"id":"ora-sd-97","name":"Reva Gap (RWIS)","state":"SD","provider":"South Dakota DOT","hls":null,"snapshot":"https://sd.cdn.iteris-atis.com/camera_images/CSDREV/0/latest.jpg","refreshMs":30000,"attribution":"Ora (Warner Varnado) · South Dakota DOT"}},{"type":"Feature","geometry":{"type":"Point","coordinates":[-99.32807058,45.44931489]},"properties":{"id":"ora-sd-98","name":"Roscoe (RWIS)","state":"SD","provider":"South Dakota DOT","hls":null,"snapshot":"https://sd.cdn.iteris-atis.com/camera_images/CSDROS/0/latest.jpg","refreshMs":30000,"attribution":"Ora (Warner Varnado) · South Dakota DOT"}},{"type":"Feature","geometry":{"type":"Point","coordinates":[-100.79116635,45.092847]},"properties":{"id":"ora-sd-99","name":"Ridgeview (RWIS)","state":"SD","provider":"South Dakota DOT","hls":null,"snapshot":"https://sd.cdn.iteris-atis.com/camera_images/CSDRVW/1/latest.jpg","refreshMs":30000,"attribution":"Ora (Warner Varnado) · South Dakota DOT"}},{"type":"Feature","geometry":{"type":"Point","coordinates":[-99.4499995,44.78014108]},"properties":{"id":"ora-sd-100","name":"Highmore (RWIS)","state":"SD","provider":"South Dakota DOT","hls":null,"snapshot":"https://sd.cdn.iteris-atis.com/camera_images/CSDS26/1/latest.jpg","refreshMs":30000,"attribution":"Ora (Warner Varnado) · South Dakota DOT"}},{"type":"Feature","geometry":{"type":"Point","coordinates":[-103.92393984,44.34631583]},"properties":{"id":"ora-sd-101","name":"Savoy (RWIS)","state":"SD","provider":"South Dakota DOT","hls":null,"snapshot":"https://sd.cdn.iteris-atis.com/camera_images/CSDSAV/1/latest.jpg","refreshMs":30000,"attribution":"Ora (Warner Varnado) · South Dakota DOT"}},{"type":"Feature","geometry":{"type":"Point","coordinates":[-102.575877,43.821352]},"properties":{"id":"ora-sd-102","name":"Scenic (RWIS)","state":"SD","provider":"South Dakota DOT","hls":null,"snapshot":"https://sd.cdn.iteris-atis.com/camera_images/CSDSCN/1/latest.jpg","refreshMs":30000,"attribution":"Ora (Warner Varnado) · South Dakota DOT"}},{"type":"Feature","geometry":{"type":"Point","coordinates":[-99.95518,45.449473]},"properties":{"id":"ora-sd-103","name":"Selby (RWIS)","state":"SD","provider":"South Dakota DOT","hls":null,"snapshot":"https://sd.cdn.iteris-atis.com/camera_images/CSDSEL/0/latest.jpg","refreshMs":30000,"attribution":"Ora (Warner Varnado) · South Dakota DOT"}},{"type":"Feature","geometry":{"type":"Point","coordinates":[-99.603901,45.057]},"properties":{"id":"ora-sd-104","name":"Seneca (RWIS)","state":"SD","provider":"South Dakota DOT","hls":null,"snapshot":"https://sd.cdn.iteris-atis.com/camera_images/CSDSEN/0/latest.jpg","refreshMs":30000,"attribution":"Ora (Warner Varnado) · South Dakota DOT"}},{"type":"Feature","geometry":{"type":"Point","coordinates":[-103.165,45.36]},"properties":{"id":"ora-sd-105","name":"Slim Buttes (RWIS)","state":"SD","provider":"South Dakota DOT","hls":null,"snapshot":"https://sd.cdn.iteris-atis.com/camera_images/CSDSMB/1/latest.jpg","refreshMs":30000,"attribution":"Ora (Warner Varnado) · South Dakota DOT"}},{"type":"Feature","geometry":{"type":"Point","coordinates":[-97.38755842,43.54340786]},"properties":{"id":"ora-sd-106","name":"Stanley Corner (RWIS)","state":"SD","provider":"South Dakota DOT","hls":null,"snapshot":"https://sd.cdn.iteris-atis.com/camera_images/CSDSTA/0/latest.jpg","refreshMs":30000,"attribution":"Ora (Warner Varnado) · South Dakota DOT"}},{"type":"Feature","geometry":{"type":"Point","coordinates":[-100.81317662,45.47300334]},"properties":{"id":"ora-sd-107","name":"Trail City (RWIS)","state":"SD","provider":"South Dakota DOT","hls":null,"snapshot":"https://sd.cdn.iteris-atis.com/camera_images/CSDTRL/1/latest.jpg","refreshMs":30000,"attribution":"Ora (Warner Varnado) · South Dakota DOT"}},{"type":"Feature","geometry":{"type":"Point","coordinates":[-97.774485,42.974784]},"properties":{"id":"ora-sd-108","name":"Tyndall (RWIS)","state":"SD","provider":"South Dakota DOT","hls":null,"snapshot":"https://sd.cdn.iteris-atis.com/camera_images/CSDTYN/1/latest.jpg","refreshMs":30000,"attribution":"Ora (Warner Varnado) · South Dakota DOT"}},{"type":"Feature","geometry":{"type":"Point","coordinates":[-102.160507,45.21187201]},"properties":{"id":"ora-sd-109","name":"Usta (RWIS)","state":"SD","provider":"South Dakota DOT","hls":null,"snapshot":"https://sd.cdn.iteris-atis.com/camera_images/CSDUST/0/latest.jpg","refreshMs":30000,"attribution":"Ora (Warner Varnado) · South Dakota DOT"}},{"type":"Feature","geometry":{"type":"Point","coordinates":[-97.39921533,43.08231099]},"properties":{"id":"ora-sd-110","name":"Veldin Corner (RWIS)","state":"SD","provider":"South Dakota DOT","hls":null,"snapshot":"https://sd.cdn.iteris-atis.com/camera_images/CSDVEL/0/latest.jpg","refreshMs":30000,"attribution":"Ora (Warner Varnado) · South Dakota DOT"}},{"type":"Feature","geometry":{"type":"Point","coordinates":[-101.199638,43.23151]},"properties":{"id":"ora-sd-111","name":"Vetal (RWIS)","state":"SD","provider":"South Dakota DOT","hls":null,"snapshot":"https://sd.cdn.iteris-atis.com/camera_images/CSDVET/1/latest.jpg","refreshMs":30000,"attribution":"Ora (Warner Varnado) · South Dakota DOT"}},{"type":"Feature","geometry":{"type":"Point","coordinates":[-98.127472,43.082089]},"properties":{"id":"ora-sd-112","name":"Wagner (RWIS)","state":"SD","provider":"South Dakota DOT","hls":null,"snapshot":"https://sd.cdn.iteris-atis.com/camera_images/CSDWAG/0/latest.jpg","refreshMs":30000,"attribution":"Ora (Warner Varnado) · South Dakota DOT"}},{"type":"Feature","geometry":{"type":"Point","coordinates":[-97.3895,45.3408]},"properties":{"id":"ora-sd-113","name":"Waubay (RWIS)","state":"SD","provider":"South Dakota DOT","hls":null,"snapshot":"https://sd.cdn.iteris-atis.com/camera_images/CSDWAU/1/latest.jpg","refreshMs":30000,"attribution":"Ora (Warner Varnado) · South Dakota DOT"}},{"type":"Feature","geometry":{"type":"Point","coordinates":[-101.520247,43.578108]},"properties":{"id":"ora-sd-114","name":"Wanblee (RWIS)","state":"SD","provider":"South Dakota DOT","hls":null,"snapshot":"https://sd.cdn.iteris-atis.com/camera_images/CSDWBL/1/latest.jpg","refreshMs":30000,"attribution":"Ora (Warner Varnado) · South Dakota DOT"}},{"type":"Feature","geometry":{"type":"Point","coordinates":[-99.7806,43.0146]},"properties":{"id":"ora-sd-115","name":"Wewela (RWIS)","state":"SD","provider":"South Dakota DOT","hls":null,"snapshot":"https://sd.cdn.iteris-atis.com/camera_images/CSDWEW/1/latest.jpg","refreshMs":30000,"attribution":"Ora (Warner Varnado) · South Dakota DOT"}},{"type":"Feature","geometry":{"type":"Point","coordinates":[-97.53452048,45.09417614]},"properties":{"id":"ora-sd-116","name":"Wallace (RWIS)","state":"SD","provider":"South Dakota DOT","hls":null,"snapshot":"https://sd.cdn.iteris-atis.com/camera_images/CSDWLC/1/latest.jpg","refreshMs":30000,"attribution":"Ora (Warner Varnado) · South Dakota DOT"}},{"type":"Feature","geometry":{"type":"Point","coordinates":[-96.759955,44.152898]},"properties":{"id":"ora-sd-117","name":"Ward (RWIS)","state":"SD","provider":"South Dakota DOT","hls":null,"snapshot":"https://sd.cdn.iteris-atis.com/camera_images/CSDWRD/1/latest.jpg","refreshMs":30000,"attribution":"Ora (Warner Varnado) · South Dakota DOT"}},{"type":"Feature","geometry":{"type":"Point","coordinates":[-96.684654,44.891889]},"properties":{"id":"ora-sd-118","name":"Altamont (RWIS)","state":"SD","provider":"South Dakota DOT","hls":null,"snapshot":"https://sd.cdn.iteris-atis.com/camera_images/SDALT/0/latest.jpg","refreshMs":30000,"attribution":"Ora (Warner Varnado) · South Dakota DOT"}},{"type":"Feature","geometry":{"type":"Point","coordinates":[-97.899,45.414]},"properties":{"id":"ora-sd-119","name":"Andover (RWIS)","state":"SD","provider":"South Dakota DOT","hls":null,"snapshot":"https://sd.cdn.iteris-atis.com/camera_images/SDAND/1/latest.jpg","refreshMs":30000,"attribution":"Ora (Warner Varnado) · South Dakota DOT"}},{"type":"Feature","geometry":{"type":"Point","coordinates":[-97.12913,44.29989]},"properties":{"id":"ora-sd-120","name":"Arlington (RWIS)","state":"SD","provider":"South Dakota DOT","hls":null,"snapshot":"https://sd.cdn.iteris-atis.com/camera_images/SDARL/1/latest.jpg","refreshMs":30000,"attribution":"Ora (Warner Varnado) · South Dakota DOT"}},{"type":"Feature","geometry":{"type":"Point","coordinates":[-101.92987,44.5323]},"properties":{"id":"ora-sd-121","name":"Bridger (RWIS)","state":"SD","provider":"South Dakota DOT","hls":null,"snapshot":"https://sd.cdn.iteris-atis.com/camera_images/SDBDG/1/latest.jpg","refreshMs":30000,"attribution":"Ora (Warner Varnado) · South Dakota DOT"}},{"type":"Feature","geometry":{"type":"Point","coordinates":[-96.796,43.039]},"properties":{"id":"ora-sd-122","name":"Beresford (RWIS)","state":"SD","provider":"South Dakota DOT","hls":null,"snapshot":"https://sd.cdn.iteris-atis.com/camera_images/SDBER/1/latest.jpg","refreshMs":30000,"attribution":"Ora (Warner Varnado) · South Dakota DOT"}},{"type":"Feature","geometry":{"type":"Point","coordinates":[-96.816,44.66]},"properties":{"id":"ora-sd-123","name":"Brandt (RWIS)","state":"SD","provider":"South Dakota DOT","hls":null,"snapshot":"https://sd.cdn.iteris-atis.com/camera_images/SDBNT/1/latest.jpg","refreshMs":30000,"attribution":"Ora (Warner Varnado) · South Dakota DOT"}},{"type":"Feature","geometry":{"type":"Point","coordinates":[-102.22,43.046]},"properties":{"id":"ora-sd-124","name":"Batesland (RWIS)","state":"SD","provider":"South Dakota DOT","hls":null,"snapshot":"https://sd.cdn.iteris-atis.com/camera_images/SDBTS/1/latest.jpg","refreshMs":30000,"attribution":"Ora (Warner Varnado) · South Dakota DOT"}},{"type":"Feature","geometry":{"type":"Point","coordinates":[-101.104,43.899]},"properties":{"id":"ora-sd-125","name":"Belvidere (RWIS)","state":"SD","provider":"South Dakota DOT","hls":null,"snapshot":"https://sd.cdn.iteris-atis.com/camera_images/SDBVD/1/latest.jpg","refreshMs":30000,"attribution":"Ora (Warner Varnado) · South Dakota DOT"}},{"type":"Feature","geometry":{"type":"Point","coordinates":[-102.169,45.444]},"properties":{"id":"ora-sd-126","name":"Coal Springs (RWIS)","state":"SD","provider":"South Dakota DOT","hls":null,"snapshot":"https://sd.cdn.iteris-atis.com/camera_images/SDCLS/1/latest.jpg","refreshMs":30000,"attribution":"Ora (Warner Varnado) · South Dakota DOT"}},{"type":"Feature","geometry":{"type":"Point","coordinates":[-103.66413,44.92175]},"properties":{"id":"ora-sd-127","name":"Castle Rock (RWIS)","state":"SD","provider":"South Dakota DOT","hls":null,"snapshot":"https://sd.cdn.iteris-atis.com/camera_images/SDCSR/1/latest.jpg","refreshMs":30000,"attribution":"Ora (Warner Varnado) · South Dakota DOT"}},{"type":"Feature","geometry":{"type":"Point","coordinates":[-101.821,43.836]},"properties":{"id":"ora-sd-128","name":"Cactus Flat (RWIS)","state":"SD","provider":"South Dakota DOT","hls":null,"snapshot":"https://sd.cdn.iteris-atis.com/camera_images/SDCTF/1/latest.jpg","refreshMs":30000,"attribution":"Ora (Warner Varnado) · South Dakota DOT"}},{"type":"Feature","geometry":{"type":"Point","coordinates":[-96.781,43.819]},"properties":{"id":"ora-sd-129","name":"Dell Rapids (RWIS)","state":"SD","provider":"South Dakota DOT","hls":null,"snapshot":"https://sd.cdn.iteris-atis.com/camera_images/SDDEL/1/latest.jpg","refreshMs":30000,"attribution":"Ora (Warner Varnado) · South Dakota DOT"}},{"type":"Feature","geometry":{"type":"Point","coordinates":[-99.434975,43.38568]},"properties":{"id":"ora-sd-130","name":"Dixon (RWIS)","state":"SD","provider":"South Dakota DOT","hls":null,"snapshot":"https://sd.cdn.iteris-atis.com/camera_images/SDDIX/0/latest.jpg","refreshMs":30000,"attribution":"Ora (Warner Varnado) · South Dakota DOT"}},{"type":"Feature","geometry":{"type":"Point","coordinates":[-104.02,43.304]},"properties":{"id":"ora-sd-131","name":"Edgemont (RWIS)","state":"SD","provider":"South Dakota DOT","hls":null,"snapshot":"https://sd.cdn.iteris-atis.com/camera_images/SDEDG/1/latest.jpg","refreshMs":30000,"attribution":"Ora (Warner Varnado) · South Dakota DOT"}},{"type":"Feature","geometry":{"type":"Point","coordinates":[-104.035,44.779]},"properties":{"id":"ora-sd-132","name":"Belle Fourche (RWIS)","state":"SD","provider":"South Dakota DOT","hls":null,"snapshot":"https://sd.cdn.iteris-atis.com/camera_images/SDEFC/1/latest.jpg","refreshMs":30000,"attribution":"Ora (Warner Varnado) · South Dakota DOT"}},{"type":"Feature","geometry":{"type":"Point","coordinates":[-103.091,44.118]},"properties":{"id":"ora-sd-133","name":"Ellsworth (RWIS)","state":"SD","provider":"South Dakota DOT","hls":null,"snapshot":"https://sd.cdn.iteris-atis.com/camera_images/SDELS/1/latest.jpg","refreshMs":30000,"attribution":"Ora (Warner Varnado) · South Dakota DOT"}},{"type":"Feature","geometry":{"type":"Point","coordinates":[-98.528,45.935]},"properties":{"id":"ora-sd-134","name":"Frederick (RWIS)","state":"SD","provider":"South Dakota DOT","hls":null,"snapshot":"https://sd.cdn.iteris-atis.com/camera_images/SDFDK/1/latest.jpg","refreshMs":30000,"attribution":"Ora (Warner Varnado) · South Dakota DOT"}},{"type":"Feature","geometry":{"type":"Point","coordinates":[-100.2933,45.00676]},"properties":{"id":"ora-sd-135","name":"Forest City (RWIS)","state":"SD","provider":"South Dakota DOT","hls":null,"snapshot":"https://sd.cdn.iteris-atis.com/camera_images/SDFRC/1/latest.jpg","refreshMs":30000,"attribution":"Ora (Warner Varnado) · South Dakota DOT"}},{"type":"Feature","geometry":{"type":"Point","coordinates":[-97.41963,43.28224]},"properties":{"id":"ora-sd-136","name":"Freeman (RWIS)","state":"SD","provider":"South Dakota DOT","hls":null,"snapshot":"https://sd.cdn.iteris-atis.com/camera_images/SDFRE/1/latest.jpg","refreshMs":30000,"attribution":"Ora (Warner Varnado) · South Dakota DOT"}},{"type":"Feature","geometry":{"type":"Point","coordinates":[-98.031,44.009]},"properties":{"id":"ora-sd-137","name":"Forestburg (RWIS)","state":"SD","provider":"South Dakota DOT","hls":null,"snapshot":"https://sd.cdn.iteris-atis.com/camera_images/SDFST/1/latest.jpg","refreshMs":30000,"attribution":"Ora (Warner Varnado) · South Dakota DOT"}},{"type":"Feature","geometry":{"type":"Point","coordinates":[-98.566655,43.052565]},"properties":{"id":"ora-sd-138","name":"Ft. Randall (RWIS)","state":"SD","provider":"South Dakota DOT","hls":null,"snapshot":"https://sd.cdn.iteris-atis.com/camera_images/SDFTR/0/latest.jpg","refreshMs":30000,"attribution":"Ora (Warner Varnado) · South Dakota DOT"}},{"type":"Feature","geometry":{"type":"Point","coordinates":[-99.729,44.527]},"properties":{"id":"ora-sd-139","name":"Harrold (RWIS)","state":"SD","provider":"South Dakota DOT","hls":null,"snapshot":"https://sd.cdn.iteris-atis.com/camera_images/SDHAR/1/latest.jpg","refreshMs":30000,"attribution":"Ora (Warner Varnado) · South Dakota DOT"}},{"type":"Feature","geometry":{"type":"Point","coordinates":[-104.037,44.198]},"properties":{"id":"ora-sd-140","name":"Hardy Station (RWIS)","state":"SD","provider":"South Dakota DOT","hls":null,"snapshot":"https://sd.cdn.iteris-atis.com/camera_images/SDHDY/1/latest.jpg","refreshMs":30000,"attribution":"Ora (Warner Varnado) · South Dakota DOT"}},{"type":"Feature","geometry":{"type":"Point","coordinates":[-100.069,45.868]},"properties":{"id":"ora-sd-141","name":"Herreid (RWIS)","state":"SD","provider":"South Dakota DOT","hls":null,"snapshot":"https://sd.cdn.iteris-atis.com/camera_images/SDHER/1/latest.jpg","refreshMs":30000,"attribution":"Ora (Warner Varnado) · South Dakota DOT"}},{"type":"Feature","geometry":{"type":"Point","coordinates":[-103.39857,45.0684]},"properties":{"id":"ora-sd-142","name":"Hoover (RWIS)","state":"SD","provider":"South Dakota DOT","hls":null,"snapshot":"https://sd.cdn.iteris-atis.com/camera_images/SDHOO/0/latest.jpg","refreshMs":30000,"attribution":"Ora (Warner Varnado) · South Dakota DOT"}},{"type":"Feature","geometry":{"type":"Point","coordinates":[-97.550285,44.00856]},"properties":{"id":"ora-sd-143","name":"Howard (RWIS)","state":"SD","provider":"South Dakota DOT","hls":null,"snapshot":"https://sd.cdn.iteris-atis.com/camera_images/SDHOW/0/latest.jpg","refreshMs":30000,"attribution":"Ora (Warner Varnado) · South Dakota DOT"}},{"type":"Feature","geometry":{"type":"Point","coordinates":[-98.958,43.738]},"properties":{"id":"ora-sd-144","name":"Kimball (RWIS)","state":"SD","provider":"South Dakota DOT","hls":null,"snapshot":"https://sd.cdn.iteris-atis.com/camera_images/SDKIM/1/latest.jpg","refreshMs":30000,"attribution":"Ora (Warner Varnado) · South Dakota DOT"}},{"type":"Feature","geometry":{"type":"Point","coordinates":[-99.866057,44.07895]},"properties":{"id":"ora-sd-145","name":"Lower Brule (RWIS)","state":"SD","provider":"South Dakota DOT","hls":null,"snapshot":"https://sd.cdn.iteris-atis.com/camera_images/SDLBR/0/latest.jpg","refreshMs":30000,"attribution":"Ora (Warner Varnado) · South Dakota DOT"}},{"type":"Feature","geometry":{"type":"Point","coordinates":[-99.325367,44.07778]},"properties":{"id":"ora-sd-146","name":"Lee's Corner (RWIS)","state":"SD","provider":"South Dakota DOT","hls":null,"snapshot":"https://sd.cdn.iteris-atis.com/camera_images/SDLCR/0/latest.jpg","refreshMs":30000,"attribution":"Ora (Warner Varnado) · South Dakota DOT"}},{"type":"Feature","geometry":{"type":"Point","coordinates":[-102.217,45.935]},"properties":{"id":"ora-sd-147","name":"Lemmon (RWIS)","state":"SD","provider":"South Dakota DOT","hls":null,"snapshot":"https://sd.cdn.iteris-atis.com/camera_images/SDLEM/1/latest.jpg","refreshMs":30000,"attribution":"Ora (Warner Varnado) · South Dakota DOT"}},{"type":"Feature","geometry":{"type":"Point","coordinates":[-103.377,45.885]},"properties":{"id":"ora-sd-148","name":"Ludlow (RWIS)","state":"SD","provider":"South Dakota DOT","hls":null,"snapshot":"https://sd.cdn.iteris-atis.com/camera_images/SDLUD/1/latest.jpg","refreshMs":30000,"attribution":"Ora (Warner Varnado) · South Dakota DOT"}},{"type":"Feature","geometry":{"type":"Point","coordinates":[-96.508473,45.27194]},"properties":{"id":"ora-sd-149","name":"Milbank (RWIS)","state":"SD","provider":"South Dakota DOT","hls":null,"snapshot":"https://sd.cdn.iteris-atis.com/camera_images/SDMIL/0/latest.jpg","refreshMs":30000,"attribution":"Ora (Warner Varnado) · South Dakota DOT"}},{"type":"Feature","geometry":{"type":"Point","coordinates":[-98.98202,44.89682]},"properties":{"id":"ora-sd-150","name":"Miranda (RWIS)","state":"SD","provider":"South Dakota DOT","hls":null,"snapshot":"https://sd.cdn.iteris-atis.com/camera_images/SDMIR/1/latest.jpg","refreshMs":30000,"attribution":"Ora (Warner Varnado) · South Dakota DOT"}},{"type":"Feature","geometry":{"type":"Point","coordinates":[-97.148,43.667]},"properties":{"id":"ora-sd-151","name":"Montrose (RWIS)","state":"SD","provider":"South Dakota DOT","hls":null,"snapshot":"https://sd.cdn.iteris-atis.com/camera_images/SDMRS/1/latest.jpg","refreshMs":30000,"attribution":"Ora (Warner Varnado) · South Dakota DOT"}},{"type":"Feature","geometry":{"type":"Point","coordinates":[-100.601,43.096]},"properties":{"id":"ora-sd-152","name":"Mission (RWIS)","state":"SD","provider":"South Dakota DOT","hls":null,"snapshot":"https://sd.cdn.iteris-atis.com/camera_images/SDMSN/1/latest.jpg","refreshMs":30000,"attribution":"Ora (Warner Varnado) · South Dakota DOT"}},{"type":"Feature","geometry":{"type":"Point","coordinates":[-96.495,42.512]},"properties":{"id":"ora-sd-153","name":"North Sioux City (RWIS)","state":"SD","provider":"South Dakota DOT","hls":null,"snapshot":"https://sd.cdn.iteris-atis.com/camera_images/SDNSC/1/latest.jpg","refreshMs":30000,"attribution":"Ora (Warner Varnado) · South Dakota DOT"}},{"type":"Feature","geometry":{"type":"Point","coordinates":[-98.220285,44.63289]},"properties":{"id":"ora-sd-154","name":"Pheasant City (RWIS)","state":"SD","provider":"South Dakota DOT","hls":null,"snapshot":"https://sd.cdn.iteris-atis.com/camera_images/SDPCC/0/latest.jpg","refreshMs":30000,"attribution":"Ora (Warner Varnado) · South Dakota DOT"}},{"type":"Feature","geometry":{"type":"Point","coordinates":[-96.98996329,45.45676943]},"properties":{"id":"ora-sd-155","name":"Peever (RWIS)","state":"SD","provider":"South Dakota DOT","hls":null,"snapshot":"https://sd.cdn.iteris-atis.com/camera_images/SDPEV/1/latest.jpg","refreshMs":30000,"attribution":"Ora (Warner Varnado) · South Dakota DOT"}},{"type":"Feature","geometry":{"type":"Point","coordinates":[-99.1227,43.3902]},"properties":{"id":"ora-sd-156","name":"Platte (RWIS)","state":"SD","provider":"South Dakota DOT","hls":null,"snapshot":"https://sd.cdn.iteris-atis.com/camera_images/SDPLT/1/latest.jpg","refreshMs":30000,"attribution":"Ora (Warner Varnado) · South Dakota DOT"}},{"type":"Feature","geometry":{"type":"Point","coordinates":[-99.565,43.85]},"properties":{"id":"ora-sd-157","name":"Reliance (RWIS)","state":"SD","provider":"South Dakota DOT","hls":null,"snapshot":"https://sd.cdn.iteris-atis.com/camera_images/SDREL/1/latest.jpg","refreshMs":30000,"attribution":"Ora (Warner Varnado) · South Dakota DOT"}},{"type":"Feature","geometry":{"type":"Point","coordinates":[-101.80464,45.05385]},"properties":{"id":"ora-sd-158","name":"Red Elm (RWIS)","state":"SD","provider":"South Dakota DOT","hls":null,"snapshot":"https://sd.cdn.iteris-atis.com/camera_images/SDRLM/1/latest.jpg","refreshMs":30000,"attribution":"Ora (Warner Varnado) · South Dakota DOT"}},{"type":"Feature","geometry":{"type":"Point","coordinates":[-103.515,44.096]},"properties":{"id":"ora-sd-159","name":"Silver City (RWIS)","state":"SD","provider":"South Dakota DOT","hls":null,"snapshot":"https://sd.cdn.iteris-atis.com/camera_images/SDSLV/1/latest.jpg","refreshMs":30000,"attribution":"Ora (Warner Varnado) · South Dakota DOT"}},{"type":"Feature","geometry":{"type":"Point","coordinates":[-97.052,45.315]},"properties":{"id":"ora-sd-160","name":"Summit (RWIS)","state":"SD","provider":"South Dakota DOT","hls":null,"snapshot":"https://sd.cdn.iteris-atis.com/camera_images/SDSMT/1/latest.jpg","refreshMs":30000,"attribution":"Ora (Warner Varnado) · South Dakota DOT"}},{"type":"Feature","geometry":{"type":"Point","coordinates":[-101.06649,45.43323]},"properties":{"id":"ora-sd-161","name":"Timber Lake (RWIS)","state":"SD","provider":"South Dakota DOT","hls":null,"snapshot":"https://sd.cdn.iteris-atis.com/camera_images/SDTML/0/latest.jpg","refreshMs":30000,"attribution":"Ora (Warner Varnado) · South Dakota DOT"}},{"type":"Feature","geometry":{"type":"Point","coordinates":[-99.61,45.201]},"properties":{"id":"ora-sd-162","name":"Tolstoy (RWIS)","state":"SD","provider":"South Dakota DOT","hls":null,"snapshot":"https://sd.cdn.iteris-atis.com/camera_images/SDTOL/1/latest.jpg","refreshMs":30000,"attribution":"Ora (Warner Varnado) · South Dakota DOT"}},{"type":"Feature","geometry":{"type":"Point","coordinates":[-97.991,43.241]},"properties":{"id":"ora-sd-163","name":"Tripp (RWIS)","state":"SD","provider":"South Dakota DOT","hls":null,"snapshot":"https://sd.cdn.iteris-atis.com/camera_images/SDTRP/1/latest.jpg","refreshMs":30000,"attribution":"Ora (Warner Varnado) · South Dakota DOT"}},{"type":"Feature","geometry":{"type":"Point","coordinates":[-102.72290661,44.56115787]},"properties":{"id":"ora-sd-164","name":"Union Center (RWIS)","state":"SD","provider":"South Dakota DOT","hls":null,"snapshot":"https://sd.cdn.iteris-atis.com/camera_images/SDUSN/1/latest.jpg","refreshMs":30000,"attribution":"Ora (Warner Varnado) · South Dakota DOT"}},{"type":"Feature","geometry":{"type":"Point","coordinates":[-96.853,45.921]},"properties":{"id":"ora-sd-165","name":"Victor (RWIS)","state":"SD","provider":"South Dakota DOT","hls":null,"snapshot":"https://sd.cdn.iteris-atis.com/camera_images/SDVCT/1/latest.jpg","refreshMs":30000,"attribution":"Ora (Warner Varnado) · South Dakota DOT"}},{"type":"Feature","geometry":{"type":"Point","coordinates":[-100.332,44.05]},"properties":{"id":"ora-sd-166","name":"Vivian (RWIS)","state":"SD","provider":"South Dakota DOT","hls":null,"snapshot":"https://sd.cdn.iteris-atis.com/camera_images/SDVIV/1/latest.jpg","refreshMs":30000,"attribution":"Ora (Warner Varnado) · South Dakota DOT"}},{"type":"Feature","geometry":{"type":"Point","coordinates":[-102.503,44.097]},"properties":{"id":"ora-sd-167","name":"Wasta (RWIS)","state":"SD","provider":"South Dakota DOT","hls":null,"snapshot":"https://sd.cdn.iteris-atis.com/camera_images/SDWAS/1/latest.jpg","refreshMs":30000,"attribution":"Ora (Warner Varnado) · South Dakota DOT"}},{"type":"Feature","geometry":{"type":"Point","coordinates":[-100.06511944,43.3866944]},"properties":{"id":"ora-sd-168","name":"Witten (RWIS)","state":"SD","provider":"South Dakota DOT","hls":null,"snapshot":"https://sd.cdn.iteris-atis.com/camera_images/SDWIT/1/latest.jpg","refreshMs":30000,"attribution":"Ora (Warner Varnado) · South Dakota DOT"}},{"type":"Feature","geometry":{"type":"Point","coordinates":[-98.4985583,44.45728056]},"properties":{"id":"ora-sd-169","name":"Wolsey (RWIS)","state":"SD","provider":"South Dakota DOT","hls":null,"snapshot":"https://sd.cdn.iteris-atis.com/camera_images/SDWOL/1/latest.jpg","refreshMs":30000,"attribution":"Ora (Warner Varnado) · South Dakota DOT"}}]}