{"type":"FeatureCollection","features":[{"type":"Feature","geometry":{"type":"Point","coordinates":[-72.782259,44.352994]},"properties":{"id":"ora-vt-0","name":"WATERBURY I-89 North","state":"VT","provider":"VTrans (NewEngland511)","hls":null,"snapshot":"https://www.newengland511.org/map/Cctv/950","refreshMs":30000,"attribution":"Ora (Warner Varnado) · VTrans (NewEngland511)"}},{"type":"Feature","geometry":{"type":"Point","coordinates":[-73.147801,44.629548]},"properties":{"id":"ora-vt-1","name":"MILTON I-89 North","state":"VT","provider":"VTrans (NewEngland511)","hls":null,"snapshot":"https://www.newengland511.org/map/Cctv/951","refreshMs":30000,"attribution":"Ora (Warner Varnado) · VTrans (NewEngland511)"}},{"type":"Feature","geometry":{"type":"Point","coordinates":[-72.797847,42.853125]},"properties":{"id":"ora-vt-2","name":"MARLBORO VT-9 East","state":"VT","provider":"VTrans (NewEngland511)","hls":null,"snapshot":"https://www.newengland511.org/map/Cctv/953","refreshMs":30000,"attribution":"Ora (Warner Varnado) · VTrans (NewEngland511)"}},{"type":"Feature","geometry":{"type":"Point","coordinates":[-72.46305,43.18166]},"properties":{"id":"ora-vt-3","name":"ROCKINGHAM I-91 South","state":"VT","provider":"VTrans (NewEngland511)","hls":null,"snapshot":"https://www.newengland511.org/map/Cctv/954","refreshMs":30000,"attribution":"Ora (Warner Varnado) · VTrans (NewEngland511)"}},{"type":"Feature","geometry":{"type":"Point","coordinates":[-72.63989,44.27331]},"properties":{"id":"ora-vt-4","name":"MIDDLESEX I-89 North","state":"VT","provider":"VTrans (NewEngland511)","hls":null,"snapshot":"https://www.newengland511.org/map/Cctv/956","refreshMs":30000,"attribution":"Ora (Warner Varnado) · VTrans (NewEngland511)"}},{"type":"Feature","geometry":{"type":"Point","coordinates":[-73.050249,43.767145]},"properties":{"id":"ora-vt-5","name":"BRANDON US-7 North","state":"VT","provider":"VTrans (NewEngland511)","hls":null,"snapshot":"https://www.newengland511.org/map/Cctv/957","refreshMs":30000,"attribution":"Ora (Warner Varnado) · VTrans (NewEngland511)"}},{"type":"Feature","geometry":{"type":"Point","coordinates":[-72.1314,44.6388]},"properties":{"id":"ora-vt-6","name":"SHEFFIELD RW I-91 South","state":"VT","provider":"VTrans (NewEngland511)","hls":null,"snapshot":"https://www.newengland511.org/map/Cctv/958","refreshMs":30000,"attribution":"Ora (Warner Varnado) · VTrans (NewEngland511)"}},{"type":"Feature","geometry":{"type":"Point","coordinates":[-72.091722,44.156981]},"properties":{"id":"ora-vt-7","name":"NEWBURY I-91 South","state":"VT","provider":"VTrans (NewEngland511)","hls":null,"snapshot":"https://www.newengland511.org/map/Cctv/959","refreshMs":30000,"attribution":"Ora (Warner Varnado) · VTrans (NewEngland511)"}},{"type":"Feature","geometry":{"type":"Point","coordinates":[-73.280173,43.608231]},"properties":{"id":"ora-vt-8","name":"FAIR HAVEN VT-22A North","state":"VT","provider":"VTrans (NewEngland511)","hls":null,"snapshot":"https://www.newengland511.org/map/Cctv/960","refreshMs":30000,"attribution":"Ora (Warner Varnado) · VTrans (NewEngland511)"}},{"type":"Feature","geometry":{"type":"Point","coordinates":[-73.06527,43.60444]},"properties":{"id":"ora-vt-9","name":"W RUTLAND US-4 West","state":"VT","provider":"VTrans (NewEngland511)","hls":null,"snapshot":"https://www.newengland511.org/map/Cctv/962","refreshMs":30000,"attribution":"Ora (Warner Varnado) · VTrans (NewEngland511)"}},{"type":"Feature","geometry":{"type":"Point","coordinates":[-72.449061,43.137367]},"properties":{"id":"ora-vt-10","name":"Bellows Falls Arch Bridge CCTV","state":"VT","provider":"VTrans (NewEngland511)","hls":null,"snapshot":"https://www.newengland511.org/map/Cctv/963","refreshMs":30000,"attribution":"Ora (Warner Varnado) · VTrans (NewEngland511)"}},{"type":"Feature","geometry":{"type":"Point","coordinates":[-72.02146,44.4022]},"properties":{"id":"ora-vt-11","name":"ST.JOHNSBURY I-91 South","state":"VT","provider":"VTrans (NewEngland511)","hls":null,"snapshot":"https://www.newengland511.org/map/Cctv/964","refreshMs":30000,"attribution":"Ora (Warner Varnado) · VTrans (NewEngland511)"}},{"type":"Feature","geometry":{"type":"Point","coordinates":[-73.248821,44.198495]},"properties":{"id":"ora-vt-12","name":"FERRISBURGH US-7","state":"VT","provider":"VTrans (NewEngland511)","hls":null,"snapshot":"https://www.newengland511.org/map/Cctv/965","refreshMs":30000,"attribution":"Ora (Warner Varnado) · VTrans (NewEngland511)"}},{"type":"Feature","geometry":{"type":"Point","coordinates":[-72.373582,43.662454]},"properties":{"id":"ora-vt-13","name":"HARTFORD I-89 South","state":"VT","provider":"VTrans (NewEngland511)","hls":null,"snapshot":"https://www.newengland511.org/map/Cctv/966","refreshMs":30000,"attribution":"Ora (Warner Varnado) · VTrans (NewEngland511)"}},{"type":"Feature","geometry":{"type":"Point","coordinates":[-72.750494,43.355475]},"properties":{"id":"ora-vt-14","name":"LUDLOW VT-100 South","state":"VT","provider":"VTrans (NewEngland511)","hls":null,"snapshot":"https://www.newengland511.org/map/Cctv/967","refreshMs":30000,"attribution":"Ora (Warner Varnado) · VTrans (NewEngland511)"}},{"type":"Feature","geometry":{"type":"Point","coordinates":[-72.911881,44.379049]},"properties":{"id":"ora-vt-15","name":"BOLTON I-89 SB RT2 North","state":"VT","provider":"VTrans (NewEngland511)","hls":null,"snapshot":"https://www.newengland511.org/map/Cctv/968","refreshMs":30000,"attribution":"Ora (Warner Varnado) · VTrans (NewEngland511)"}},{"type":"Feature","geometry":{"type":"Point","coordinates":[-73.147572,42.986549]},"properties":{"id":"ora-vt-16","name":"Shaftsbury US-7","state":"VT","provider":"VTrans (NewEngland511)","hls":null,"snapshot":"https://www.newengland511.org/map/Cctv/969","refreshMs":30000,"attribution":"Ora (Warner Varnado) · VTrans (NewEngland511)"}},{"type":"Feature","geometry":{"type":"Point","coordinates":[-72.126381,44.975052]},"properties":{"id":"ora-vt-17","name":"DERBY I-91 South","state":"VT","provider":"VTrans (NewEngland511)","hls":null,"snapshot":"https://www.newengland511.org/map/Cctv/970","refreshMs":30000,"attribution":"Ora (Warner Varnado) · VTrans (NewEngland511)"}},{"type":"Feature","geometry":{"type":"Point","coordinates":[-72.50389,44.91272]},"properties":{"id":"ora-vt-18","name":"WESTFIELD VT-242 North","state":"VT","provider":"VTrans (NewEngland511)","hls":null,"snapshot":"https://www.newengland511.org/map/Cctv/971","refreshMs":30000,"attribution":"Ora (Warner Varnado) · VTrans (NewEngland511)"}},{"type":"Feature","geometry":{"type":"Point","coordinates":[-72.50459,44.91222]},"properties":{"id":"ora-vt-19","name":"WESTFIELD VT-242 EB West","state":"VT","provider":"VTrans (NewEngland511)","hls":null,"snapshot":"https://www.newengland511.org/map/Cctv/972","refreshMs":30000,"attribution":"Ora (Warner Varnado) · VTrans (NewEngland511)"}},{"type":"Feature","geometry":{"type":"Point","coordinates":[-73.177508,44.504281]},"properties":{"id":"ora-vt-20","name":"COLCHESTER Exit 16 NB","state":"VT","provider":"VTrans (NewEngland511)","hls":null,"snapshot":"https://www.newengland511.org/map/Cctv/973","refreshMs":30000,"attribution":"Ora (Warner Varnado) · VTrans (NewEngland511)"}},{"type":"Feature","geometry":{"type":"Point","coordinates":[-72.97122,42.89463]},"properties":{"id":"ora-vt-21","name":"SEARSBURG VT-9 East","state":"VT","provider":"VTrans (NewEngland511)","hls":null,"snapshot":"https://www.newengland511.org/map/Cctv/975","refreshMs":30000,"attribution":"Ora (Warner Varnado) · VTrans (NewEngland511)"}},{"type":"Feature","geometry":{"type":"Point","coordinates":[-72.95997,43.20552]},"properties":{"id":"ora-vt-22","name":"WINHALL VT-11 EB West","state":"VT","provider":"VTrans (NewEngland511)","hls":null,"snapshot":"https://www.newengland511.org/map/Cctv/976","refreshMs":30000,"attribution":"Ora (Warner Varnado) · VTrans (NewEngland511)"}},{"type":"Feature","geometry":{"type":"Point","coordinates":[-72.215463,43.813062]},"properties":{"id":"ora-vt-23","name":"THETFORD I-91 North","state":"VT","provider":"VTrans (NewEngland511)","hls":null,"snapshot":"https://www.newengland511.org/map/Cctv/979","refreshMs":30000,"attribution":"Ora (Warner Varnado) · VTrans (NewEngland511)"}},{"type":"Feature","geometry":{"type":"Point","coordinates":[-72.427604,43.261268]},"properties":{"id":"ora-vt-24","name":"Springfield VT-11 NH Border CCTV","state":"VT","provider":"VTrans (NewEngland511)","hls":null,"snapshot":"https://www.newengland511.org/map/Cctv/980","refreshMs":30000,"attribution":"Ora (Warner Varnado) · VTrans (NewEngland511)"}},{"type":"Feature","geometry":{"type":"Point","coordinates":[-73.062877,44.433885]},"properties":{"id":"ora-vt-25","name":"WILLISTON I-89 North","state":"VT","provider":"VTrans (NewEngland511)","hls":null,"snapshot":"https://www.newengland511.org/map/Cctv/982","refreshMs":30000,"attribution":"Ora (Warner Varnado) · VTrans (NewEngland511)"}},{"type":"Feature","geometry":{"type":"Point","coordinates":[-72.287198,44.366367]},"properties":{"id":"ora-vt-26","name":"CABOT US-2 East","state":"VT","provider":"VTrans (NewEngland511)","hls":null,"snapshot":"https://www.newengland511.org/map/Cctv/983","refreshMs":30000,"attribution":"Ora (Warner Varnado) · VTrans (NewEngland511)"}},{"type":"Feature","geometry":{"type":"Point","coordinates":[-72.609458,44.042818]},"properties":{"id":"ora-vt-27","name":"BROOKFIELD GUA I-89 North","state":"VT","provider":"VTrans (NewEngland511)","hls":null,"snapshot":"https://www.newengland511.org/map/Cctv/984","refreshMs":30000,"attribution":"Ora (Warner Varnado) · VTrans (NewEngland511)"}},{"type":"Feature","geometry":{"type":"Point","coordinates":[-72.030289,44.716117]},"properties":{"id":"ora-vt-28","name":"WESTMORE VT-5A South","state":"VT","provider":"VTrans (NewEngland511)","hls":null,"snapshot":"https://www.newengland511.org/map/Cctv/985","refreshMs":30000,"attribution":"Ora (Warner Varnado) · VTrans (NewEngland511)"}},{"type":"Feature","geometry":{"type":"Point","coordinates":[-72.967163,43.510494]},"properties":{"id":"ora-vt-29","name":"CLARENDON US-7 North","state":"VT","provider":"VTrans (NewEngland511)","hls":null,"snapshot":"https://www.newengland511.org/map/Cctv/987","refreshMs":30000,"attribution":"Ora (Warner Varnado) · VTrans (NewEngland511)"}},{"type":"Feature","geometry":{"type":"Point","coordinates":[-73.139901,44.63852]},"properties":{"id":"ora-vt-30","name":"MILTON BRIDGE I-89 NB North","state":"VT","provider":"VTrans (NewEngland511)","hls":null,"snapshot":"https://www.newengland511.org/map/Cctv/988","refreshMs":30000,"attribution":"Ora (Warner Varnado) · VTrans (NewEngland511)"}},{"type":"Feature","geometry":{"type":"Point","coordinates":[-72.567728,42.812656]},"properties":{"id":"ora-vt-31","name":"GUILFORD I-91 North","state":"VT","provider":"VTrans (NewEngland511)","hls":null,"snapshot":"https://www.newengland511.org/map/Cctv/989","refreshMs":30000,"attribution":"Ora (Warner Varnado) · VTrans (NewEngland511)"}},{"type":"Feature","geometry":{"type":"Point","coordinates":[-72.606547,44.065745]},"properties":{"id":"ora-vt-32","name":"BROOKFIELD I-89 North","state":"VT","provider":"VTrans (NewEngland511)","hls":null,"snapshot":"https://www.newengland511.org/map/Cctv/990","refreshMs":30000,"attribution":"Ora (Warner Varnado) · VTrans (NewEngland511)"}},{"type":"Feature","geometry":{"type":"Point","coordinates":[-72.374182,43.662454]},"properties":{"id":"ora-vt-33","name":"HARTFORD I-89 SB North","state":"VT","provider":"VTrans (NewEngland511)","hls":null,"snapshot":"https://www.newengland511.org/map/Cctv/991","refreshMs":30000,"attribution":"Ora (Warner Varnado) · VTrans (NewEngland511)"}},{"type":"Feature","geometry":{"type":"Point","coordinates":[-73.077883,44.754764]},"properties":{"id":"ora-vt-34","name":"GEORGIA I-89 South","state":"VT","provider":"VTrans (NewEngland511)","hls":null,"snapshot":"https://www.newengland511.org/map/Cctv/992","refreshMs":30000,"attribution":"Ora (Warner Varnado) · VTrans (NewEngland511)"}},{"type":"Feature","geometry":{"type":"Point","coordinates":[-72.8315,43.66388]},"properties":{"id":"ora-vt-35","name":"MENDON MOUNTAIN US-4 EB West","state":"VT","provider":"VTrans (NewEngland511)","hls":null,"snapshot":"https://www.newengland511.org/map/Cctv/993","refreshMs":30000,"attribution":"Ora (Warner Varnado) · VTrans (NewEngland511)"}},{"type":"Feature","geometry":{"type":"Point","coordinates":[-72.300608,44.176511]},"properties":{"id":"ora-vt-36","name":"TOPSHAM US-302 West","state":"VT","provider":"VTrans (NewEngland511)","hls":null,"snapshot":"https://www.newengland511.org/map/Cctv/994","refreshMs":30000,"attribution":"Ora (Warner Varnado) · VTrans (NewEngland511)"}},{"type":"Feature","geometry":{"type":"Point","coordinates":[-72.756308,44.344532]},"properties":{"id":"ora-vt-37","name":"WATERBURY I-89 Exit 10 South","state":"VT","provider":"VTrans (NewEngland511)","hls":null,"snapshot":"https://www.newengland511.org/map/Cctv/995","refreshMs":30000,"attribution":"Ora (Warner Varnado) · VTrans (NewEngland511)"}},{"type":"Feature","geometry":{"type":"Point","coordinates":[-72.374039,44.534464]},"properties":{"id":"ora-vt-38","name":"HARDWICK VT-14","state":"VT","provider":"VTrans (NewEngland511)","hls":null,"snapshot":"https://www.newengland511.org/map/Cctv/998","refreshMs":30000,"attribution":"Ora (Warner Varnado) · VTrans (NewEngland511)"}},{"type":"Feature","geometry":{"type":"Point","coordinates":[-72.57245,42.87369]},"properties":{"id":"ora-vt-39","name":"BRATTLEBORO BRIDGE I-91 South","state":"VT","provider":"VTrans (NewEngland511)","hls":null,"snapshot":"https://www.newengland511.org/map/Cctv/999","refreshMs":30000,"attribution":"Ora (Warner Varnado) · VTrans (NewEngland511)"}},{"type":"Feature","geometry":{"type":"Point","coordinates":[-72.57205,42.87399]},"properties":{"id":"ora-vt-40","name":"BRATTLEBORO BRIDGE I-91 SB North","state":"VT","provider":"VTrans (NewEngland511)","hls":null,"snapshot":"https://www.newengland511.org/map/Cctv/1000","refreshMs":30000,"attribution":"Ora (Warner Varnado) · VTrans (NewEngland511)"}},{"type":"Feature","geometry":{"type":"Point","coordinates":[-73.09439,42.87799]},"properties":{"id":"ora-vt-41","name":"WOODFORD VT-9 East","state":"VT","provider":"VTrans (NewEngland511)","hls":null,"snapshot":"https://www.newengland511.org/map/Cctv/1001","refreshMs":30000,"attribution":"Ora (Warner Varnado) · VTrans (NewEngland511)"}},{"type":"Feature","geometry":{"type":"Point","coordinates":[-73.347043,44.686718]},"properties":{"id":"ora-vt-42","name":"GRAND ISLE VT-314 West","state":"VT","provider":"VTrans (NewEngland511)","hls":null,"snapshot":"https://www.newengland511.org/map/Cctv/1002","refreshMs":30000,"attribution":"Ora (Warner Varnado) · VTrans (NewEngland511)"}},{"type":"Feature","geometry":{"type":"Point","coordinates":[-73.279803,43.6079]},"properties":{"id":"ora-vt-43","name":"FAIR HAVEN 22A NB South","state":"VT","provider":"VTrans (NewEngland511)","hls":null,"snapshot":"https://www.newengland511.org/map/Cctv/1003","refreshMs":30000,"attribution":"Ora (Warner Varnado) · VTrans (NewEngland511)"}},{"type":"Feature","geometry":{"type":"Point","coordinates":[-72.786579,43.45176]},"properties":{"id":"ora-vt-44","name":"MOUNT HOLLY VT-103 East","state":"VT","provider":"VTrans (NewEngland511)","hls":null,"snapshot":"https://www.newengland511.org/map/Cctv/1005","refreshMs":30000,"attribution":"Ora (Warner Varnado) · VTrans (NewEngland511)"}},{"type":"Feature","geometry":{"type":"Point","coordinates":[-72.778063,44.526127]},"properties":{"id":"ora-vt-45","name":"Stowe VT-108","state":"VT","provider":"VTrans (NewEngland511)","hls":null,"snapshot":"https://www.newengland511.org/map/Cctv/1006","refreshMs":30000,"attribution":"Ora (Warner Varnado) · VTrans (NewEngland511)"}},{"type":"Feature","geometry":{"type":"Point","coordinates":[-73.2929,43.586352]},"properties":{"id":"ora-vt-46","name":"FAIR HAVEN US-4 East","state":"VT","provider":"VTrans (NewEngland511)","hls":null,"snapshot":"https://www.newengland511.org/map/Cctv/1007","refreshMs":30000,"attribution":"Ora (Warner Varnado) · VTrans (NewEngland511)"}},{"type":"Feature","geometry":{"type":"Point","coordinates":[-71.92287,44.38222]},"properties":{"id":"ora-vt-47","name":"WATERFORD I-93 South","state":"VT","provider":"VTrans (NewEngland511)","hls":null,"snapshot":"https://www.newengland511.org/map/Cctv/1008","refreshMs":30000,"attribution":"Ora (Warner Varnado) · VTrans (NewEngland511)"}},{"type":"Feature","geometry":{"type":"Point","coordinates":[-72.95937,43.20552]},"properties":{"id":"ora-vt-48","name":"WINHALL VT-11 East","state":"VT","provider":"VTrans (NewEngland511)","hls":null,"snapshot":"https://www.newengland511.org/map/Cctv/1011","refreshMs":30000,"attribution":"Ora (Warner Varnado) · VTrans (NewEngland511)"}},{"type":"Feature","geometry":{"type":"Point","coordinates":[-73.14001,44.63812]},"properties":{"id":"ora-vt-49","name":"MILTON BRIDGE I-89 South","state":"VT","provider":"VTrans (NewEngland511)","hls":null,"snapshot":"https://www.newengland511.org/map/Cctv/1012","refreshMs":30000,"attribution":"Ora (Warner Varnado) · VTrans (NewEngland511)"}},{"type":"Feature","geometry":{"type":"Point","coordinates":[-73.293056,44.12222]},"properties":{"id":"ora-vt-50","name":"PANTON VT-22A South","state":"VT","provider":"VTrans (NewEngland511)","hls":null,"snapshot":"https://www.newengland511.org/map/Cctv/1013","refreshMs":30000,"attribution":"Ora (Warner Varnado) · VTrans (NewEngland511)"}},{"type":"Feature","geometry":{"type":"Point","coordinates":[-72.030393,44.716517]},"properties":{"id":"ora-vt-51","name":"WESTMORE VT-5A NB North","state":"VT","provider":"VTrans (NewEngland511)","hls":null,"snapshot":"https://www.newengland511.org/map/Cctv/1014","refreshMs":30000,"attribution":"Ora (Warner Varnado) · VTrans (NewEngland511)"}},{"type":"Feature","geometry":{"type":"Point","coordinates":[-72.911881,44.379449]},"properties":{"id":"ora-vt-52","name":"BOLTON I-89 South","state":"VT","provider":"VTrans (NewEngland511)","hls":null,"snapshot":"https://www.newengland511.org/map/Cctv/1015","refreshMs":30000,"attribution":"Ora (Warner Varnado) · VTrans (NewEngland511)"}},{"type":"Feature","geometry":{"type":"Point","coordinates":[-71.56346,44.63578]},"properties":{"id":"ora-vt-53","name":"MAIDSTONE VT-102 North","state":"VT","provider":"VTrans (NewEngland511)","hls":null,"snapshot":"https://www.newengland511.org/map/Cctv/1016","refreshMs":30000,"attribution":"Ora (Warner Varnado) · VTrans (NewEngland511)"}},{"type":"Feature","geometry":{"type":"Point","coordinates":[-72.472803,43.02411]},"properties":{"id":"ora-vt-54","name":"WESTMINSTER I-91 South","state":"VT","provider":"VTrans (NewEngland511)","hls":null,"snapshot":"https://www.newengland511.org/map/Cctv/1017","refreshMs":30000,"attribution":"Ora (Warner Varnado) · VTrans (NewEngland511)"}},{"type":"Feature","geometry":{"type":"Point","coordinates":[-72.8309,43.66408]},"properties":{"id":"ora-vt-55","name":"MENDON MOUNTAIN US-4 East","state":"VT","provider":"VTrans (NewEngland511)","hls":null,"snapshot":"https://www.newengland511.org/map/Cctv/1018","refreshMs":30000,"attribution":"Ora (Warner Varnado) · VTrans (NewEngland511)"}},{"type":"Feature","geometry":{"type":"Point","coordinates":[-72.606547,44.065345]},"properties":{"id":"ora-vt-56","name":"BROOKFIELD I-89 NB South","state":"VT","provider":"VTrans (NewEngland511)","hls":null,"snapshot":"https://www.newengland511.org/map/Cctv/1019","refreshMs":30000,"attribution":"Ora (Warner Varnado) · VTrans (NewEngland511)"}},{"type":"Feature","geometry":{"type":"Point","coordinates":[-73.18473,44.554777]},"properties":{"id":"ora-vt-57","name":"COLCHESTER I-89 South","state":"VT","provider":"VTrans (NewEngland511)","hls":null,"snapshot":"https://www.newengland511.org/map/Cctv/1020","refreshMs":30000,"attribution":"Ora (Warner Varnado) · VTrans (NewEngland511)"}},{"type":"Feature","geometry":{"type":"Point","coordinates":[-73.347043,44.686318]},"properties":{"id":"ora-vt-58","name":"GRAND ISLE VT-314 South","state":"VT","provider":"VTrans (NewEngland511)","hls":null,"snapshot":"https://www.newengland511.org/map/Cctv/1021","refreshMs":30000,"attribution":"Ora (Warner Varnado) · VTrans (NewEngland511)"}},{"type":"Feature","geometry":{"type":"Point","coordinates":[-73.062843,44.43308]},"properties":{"id":"ora-vt-59","name":"I-89 MM 81.35 SB WILLISTON","state":"VT","provider":"VTrans (NewEngland511)","hls":null,"snapshot":"https://www.newengland511.org/map/Cctv/1022","refreshMs":30000,"attribution":"Ora (Warner Varnado) · VTrans (NewEngland511)"}},{"type":"Feature","geometry":{"type":"Point","coordinates":[-72.603841,43.851763]},"properties":{"id":"ora-vt-60","name":"BETHEL I-89 North","state":"VT","provider":"VTrans (NewEngland511)","hls":null,"snapshot":"https://www.newengland511.org/map/Cctv/1023","refreshMs":30000,"attribution":"Ora (Warner Varnado) · VTrans (NewEngland511)"}},{"type":"Feature","geometry":{"type":"Point","coordinates":[-72.930035,44.209618]},"properties":{"id":"ora-vt-61","name":"BUELS GORE VT-17 East","state":"VT","provider":"VTrans (NewEngland511)","hls":null,"snapshot":"https://www.newengland511.org/map/Cctv/1024","refreshMs":30000,"attribution":"Ora (Warner Varnado) · VTrans (NewEngland511)"}},{"type":"Feature","geometry":{"type":"Point","coordinates":[-73.242972,44.627625]},"properties":{"id":"ora-vt-62","name":"MILTON US-2 West","state":"VT","provider":"VTrans (NewEngland511)","hls":null,"snapshot":"https://www.newengland511.org/map/Cctv/1025","refreshMs":30000,"attribution":"Ora (Warner Varnado) · VTrans (NewEngland511)"}},{"type":"Feature","geometry":{"type":"Point","coordinates":[-72.414582,43.402698]},"properties":{"id":"ora-vt-63","name":"WEATHERSFIELD I-91 South","state":"VT","provider":"VTrans (NewEngland511)","hls":null,"snapshot":"https://www.newengland511.org/map/Cctv/1026","refreshMs":30000,"attribution":"Ora (Warner Varnado) · VTrans (NewEngland511)"}},{"type":"Feature","geometry":{"type":"Point","coordinates":[-72.7475,44.34028]},"properties":{"id":"ora-vt-64","name":"WATERBURY 1-89 Exit 10 North","state":"VT","provider":"VTrans (NewEngland511)","hls":null,"snapshot":"https://www.newengland511.org/map/Cctv/1027","refreshMs":30000,"attribution":"Ora (Warner Varnado) · VTrans (NewEngland511)"}},{"type":"Feature","geometry":{"type":"Point","coordinates":[-72.31538,43.68285]},"properties":{"id":"ora-vt-65","name":"WILDER I-91 South","state":"VT","provider":"VTrans (NewEngland511)","hls":null,"snapshot":"https://www.newengland511.org/map/Cctv/1028","refreshMs":30000,"attribution":"Ora (Warner Varnado) · VTrans (NewEngland511)"}},{"type":"Feature","geometry":{"type":"Point","coordinates":[-72.74725,44.34]},"properties":{"id":"ora-vt-66","name":"I-89 NB Exit 10 Waterbury South","state":"VT","provider":"VTrans (NewEngland511)","hls":null,"snapshot":"https://www.newengland511.org/map/Cctv/1029","refreshMs":30000,"attribution":"Ora (Warner Varnado) · VTrans (NewEngland511)"}},{"type":"Feature","geometry":{"type":"Point","coordinates":[-72.347842,43.62101]},"properties":{"id":"ora-vt-67","name":"HARTFORD I-91 North","state":"VT","provider":"VTrans (NewEngland511)","hls":null,"snapshot":"https://www.newengland511.org/map/Cctv/1030","refreshMs":30000,"attribution":"Ora (Warner Varnado) · VTrans (NewEngland511)"}},{"type":"Feature","geometry":{"type":"Point","coordinates":[-73.199637,44.449335]},"properties":{"id":"ora-vt-68","name":"I-189 SOUTH BURLINGTON","state":"VT","provider":"VTrans (NewEngland511)","hls":null,"snapshot":"https://www.newengland511.org/map/Cctv/1230","refreshMs":30000,"attribution":"Ora (Warner Varnado) · VTrans (NewEngland511)"}},{"type":"Feature","geometry":{"type":"Point","coordinates":[-72.72275,44.419617]},"properties":{"id":"ora-vt-69","name":"Waterbury VT-100","state":"VT","provider":"VTrans (NewEngland511)","hls":null,"snapshot":"https://www.newengland511.org/map/Cctv/1231","refreshMs":30000,"attribution":"Ora (Warner Varnado) · VTrans (NewEngland511)"}},{"type":"Feature","geometry":{"type":"Point","coordinates":[-71.67818,45.00595]},"properties":{"id":"ora-vt-70","name":"CANAAN VT-114 South","state":"VT","provider":"VTrans (NewEngland511)","hls":null,"snapshot":"https://www.newengland511.org/map/Cctv/1232","refreshMs":30000,"attribution":"Ora (Warner Varnado) · VTrans (NewEngland511)"}},{"type":"Feature","geometry":{"type":"Point","coordinates":[-73.227072,44.975151]},"properties":{"id":"ora-vt-71","name":"Alburgh CCTV","state":"VT","provider":"VTrans (NewEngland511)","hls":null,"snapshot":"https://www.newengland511.org/map/Cctv/1234","refreshMs":30000,"attribution":"Ora (Warner Varnado) · VTrans (NewEngland511)"}},{"type":"Feature","geometry":{"type":"Point","coordinates":[-73.227872,44.975151]},"properties":{"id":"ora-vt-72","name":"Alburgh CCTV West","state":"VT","provider":"VTrans (NewEngland511)","hls":null,"snapshot":"https://www.newengland511.org/map/Cctv/1235","refreshMs":30000,"attribution":"Ora (Warner Varnado) · VTrans (NewEngland511)"}},{"type":"Feature","geometry":{"type":"Point","coordinates":[-73.20299,42.90512]},"properties":{"id":"ora-vt-73","name":"BENNINGTON US-7 North","state":"VT","provider":"VTrans (NewEngland511)","hls":null,"snapshot":"https://www.newengland511.org/map/Cctv/1422","refreshMs":30000,"attribution":"Ora (Warner Varnado) · VTrans (NewEngland511)"}},{"type":"Feature","geometry":{"type":"Point","coordinates":[-72.583354,44.212323]},"properties":{"id":"ora-vt-74","name":"BERLIN I-89 South","state":"VT","provider":"VTrans (NewEngland511)","hls":null,"snapshot":"https://www.newengland511.org/map/Cctv/1423","refreshMs":30000,"attribution":"Ora (Warner Varnado) · VTrans (NewEngland511)"}},{"type":"Feature","geometry":{"type":"Point","coordinates":[-72.50455,44.986428]},"properties":{"id":"ora-vt-75","name":"JAY VT-105 West","state":"VT","provider":"VTrans (NewEngland511)","hls":null,"snapshot":"https://www.newengland511.org/map/Cctv/1424","refreshMs":30000,"attribution":"Ora (Warner Varnado) · VTrans (NewEngland511)"}},{"type":"Feature","geometry":{"type":"Point","coordinates":[-72.457778,44.753611]},"properties":{"id":"ora-vt-76","name":"LOWELL VT-100 North","state":"VT","provider":"VTrans (NewEngland511)","hls":null,"snapshot":"https://www.newengland511.org/map/Cctv/1425","refreshMs":30000,"attribution":"Ora (Warner Varnado) · VTrans (NewEngland511)"}},{"type":"Feature","geometry":{"type":"Point","coordinates":[-73.3311,44.99878]},"properties":{"id":"ora-vt-77","name":"ALBURGH US-2 East","state":"VT","provider":"VTrans (NewEngland511)","hls":null,"snapshot":"https://www.newengland511.org/map/Cctv/1426","refreshMs":30000,"attribution":"Ora (Warner Varnado) · VTrans (NewEngland511)"}},{"type":"Feature","geometry":{"type":"Point","coordinates":[-72.708178,44.940486]},"properties":{"id":"ora-vt-78","name":"BERKSHIRE VT-105","state":"VT","provider":"VTrans (NewEngland511)","hls":null,"snapshot":"https://www.newengland511.org/map/Cctv/1427","refreshMs":30000,"attribution":"Ora (Warner Varnado) · VTrans (NewEngland511)"}},{"type":"Feature","geometry":{"type":"Point","coordinates":[-72.361728,44.819214]},"properties":{"id":"ora-vt-79","name":"LOWELL VT-58","state":"VT","provider":"VTrans (NewEngland511)","hls":null,"snapshot":"https://www.newengland511.org/map/Cctv/1428","refreshMs":30000,"attribution":"Ora (Warner Varnado) · VTrans (NewEngland511)"}},{"type":"Feature","geometry":{"type":"Point","coordinates":[-72.968256,43.943853]},"properties":{"id":"ora-vt-80","name":"Ripton VT-125 Snowbowl","state":"VT","provider":"VTrans (NewEngland511)","hls":null,"snapshot":"https://www.newengland511.org/map/Cctv/1843","refreshMs":30000,"attribution":"Ora (Warner Varnado) · VTrans (NewEngland511)"}},{"type":"Feature","geometry":{"type":"Point","coordinates":[-72.396251,43.63706]},"properties":{"id":"ora-vt-81","name":"QUECHEE US-4","state":"VT","provider":"VTrans (NewEngland511)","hls":null,"snapshot":"https://www.newengland511.org/map/Cctv/1848","refreshMs":30000,"attribution":"Ora (Warner Varnado) · VTrans (NewEngland511)"}},{"type":"Feature","geometry":{"type":"Point","coordinates":[-72.70565,43.412989]},"properties":{"id":"ora-vt-82","name":"LUDLOW VT-100","state":"VT","provider":"VTrans (NewEngland511)","hls":null,"snapshot":"https://www.newengland511.org/map/Cctv/1849","refreshMs":30000,"attribution":"Ora (Warner Varnado) · VTrans (NewEngland511)"}},{"type":"Feature","geometry":{"type":"Point","coordinates":[-73.183796,44.470027]},"properties":{"id":"ora-vt-83","name":"I-89 South Burlington Exit-14 CCTV-1","state":"VT","provider":"VTrans (NewEngland511)","hls":null,"snapshot":"https://www.newengland511.org/map/Cctv/2064","refreshMs":30000,"attribution":"Ora (Warner Varnado) · VTrans (NewEngland511)"}},{"type":"Feature","geometry":{"type":"Point","coordinates":[-73.183796,44.470027]},"properties":{"id":"ora-vt-84","name":"I-89 South Burlington Exit-14 CCTV-2","state":"VT","provider":"VTrans (NewEngland511)","hls":null,"snapshot":"https://www.newengland511.org/map/Cctv/2065","refreshMs":30000,"attribution":"Ora (Warner Varnado) · VTrans (NewEngland511)"}},{"type":"Feature","geometry":{"type":"Point","coordinates":[-73.183796,44.470027]},"properties":{"id":"ora-vt-85","name":"I-89 South Burlington Exit-14 CCTV-3","state":"VT","provider":"VTrans (NewEngland511)","hls":null,"snapshot":"https://www.newengland511.org/map/Cctv/2066","refreshMs":30000,"attribution":"Ora (Warner Varnado) · VTrans (NewEngland511)"}},{"type":"Feature","geometry":{"type":"Point","coordinates":[-73.183796,44.470027]},"properties":{"id":"ora-vt-86","name":"I-89 South Burlington Exit-14 CCTV-4","state":"VT","provider":"VTrans (NewEngland511)","hls":null,"snapshot":"https://www.newengland511.org/map/Cctv/2067","refreshMs":30000,"attribution":"Ora (Warner Varnado) · VTrans (NewEngland511)"}},{"type":"Feature","geometry":{"type":"Point","coordinates":[-72.594131,44.248912]},"properties":{"id":"ora-vt-87","name":"I-89 SB MM 52.75 Montpelier","state":"VT","provider":"VTrans (NewEngland511)","hls":null,"snapshot":"https://www.newengland511.org/map/Cctv/2279","refreshMs":30000,"attribution":"Ora (Warner Varnado) · VTrans (NewEngland511)"}},{"type":"Feature","geometry":{"type":"Point","coordinates":[-73.007568,42.81419]},"properties":{"id":"ora-vt-88","name":"Readsboro VT-8","state":"VT","provider":"VTrans (NewEngland511)","hls":null,"snapshot":"https://www.newengland511.org/map/Cctv/2280","refreshMs":30000,"attribution":"Ora (Warner Varnado) · VTrans (NewEngland511)"}}]}