{"type":"FeatureCollection","features":[{"type":"Feature","geometry":{"type":"Point","coordinates":[-78.078892,39.302863]},"properties":{"id":"ora-wv-0","name":"I-81 @ 0.5","state":"WV","provider":"West Virginia DOT","hls":"https://vtc1.roadsummary.com/rtplive/CAM117/playlist.m3u8","snapshot":null,"refreshMs":30000,"attribution":"Ora (Warner Varnado) · West Virginia DOT"}},{"type":"Feature","geometry":{"type":"Point","coordinates":[-77.9893,39.464]},"properties":{"id":"ora-wv-1","name":"I-81 @ 13 King Street","state":"WV","provider":"West Virginia DOT","hls":"https://vtc1.roadsummary.com/rtplive/CAM029/playlist.m3u8","snapshot":null,"refreshMs":30000,"attribution":"Ora (Warner Varnado) · West Virginia DOT"}},{"type":"Feature","geometry":{"type":"Point","coordinates":[-77.91237,39.54489]},"properties":{"id":"ora-wv-2","name":"I-81 @ 20","state":"WV","provider":"West Virginia DOT","hls":"https://vtc1.roadsummary.com/rtplive/CAM026/playlist.m3u8","snapshot":null,"refreshMs":30000,"attribution":"Ora (Warner Varnado) · West Virginia DOT"}},{"type":"Feature","geometry":{"type":"Point","coordinates":[-77.87397,39.58044]},"properties":{"id":"ora-wv-3","name":"I-81 @ 23","state":"WV","provider":"West Virginia DOT","hls":"https://vtc1.roadsummary.com/rtplive/CAM059/playlist.m3u8","snapshot":null,"refreshMs":30000,"attribution":"Ora (Warner Varnado) · West Virginia DOT"}},{"type":"Feature","geometry":{"type":"Point","coordinates":[-77.8492,39.5851]},"properties":{"id":"ora-wv-4","name":"I-81 @ 25 Rest Area","state":"WV","provider":"West Virginia DOT","hls":"https://vtc1.roadsummary.com/rtplive/CAM002/playlist.m3u8","snapshot":null,"refreshMs":30000,"attribution":"Ora (Warner Varnado) · West Virginia DOT"}},{"type":"Feature","geometry":{"type":"Point","coordinates":[-78.0481,39.3624]},"properties":{"id":"ora-wv-5","name":"I-81 @ 5 Inwood","state":"WV","provider":"West Virginia DOT","hls":"https://vtc1.roadsummary.com/rtplive/CAM031/playlist.m3u8","snapshot":null,"refreshMs":30000,"attribution":"Ora (Warner Varnado) · West Virginia DOT"}},{"type":"Feature","geometry":{"type":"Point","coordinates":[-78.02632,39.40431]},"properties":{"id":"ora-wv-6","name":"I-81 @ 8","state":"WV","provider":"West Virginia DOT","hls":"https://vtc1.roadsummary.com/rtplive/CAM051/playlist.m3u8","snapshot":null,"refreshMs":30000,"attribution":"Ora (Warner Varnado) · West Virginia DOT"}},{"type":"Feature","geometry":{"type":"Point","coordinates":[-78.006252,39.420573]},"properties":{"id":"ora-wv-7","name":"I-81 @ 9","state":"WV","provider":"West Virginia DOT","hls":"https://vtc1.roadsummary.com/rtplive/CAM056/playlist.m3u8","snapshot":null,"refreshMs":30000,"attribution":"Ora (Warner Varnado) · West Virginia DOT"}},{"type":"Feature","geometry":{"type":"Point","coordinates":[-81.835828,38.136553]},"properties":{"id":"ora-wv-8","name":"US-119 @ CR4 Lory Place","state":"WV","provider":"West Virginia DOT","hls":"https://vtc1.roadsummary.com/rtplive/CAM101/playlist.m3u8","snapshot":null,"refreshMs":30000,"attribution":"Ora (Warner Varnado) · West Virginia DOT"}},{"type":"Feature","geometry":{"type":"Point","coordinates":[-80.66544,38.700392]},"properties":{"id":"ora-wv-9","name":"I-79 @ 67","state":"WV","provider":"West Virginia DOT","hls":"https://vtc1.roadsummary.com/rtplive/CAM102/playlist.m3u8","snapshot":null,"refreshMs":30000,"attribution":"Ora (Warner Varnado) · West Virginia DOT"}},{"type":"Feature","geometry":{"type":"Point","coordinates":[-80.662914,38.856115]},"properties":{"id":"ora-wv-10","name":"I-79 @ 79","state":"WV","provider":"West Virginia DOT","hls":"https://vtc1.roadsummary.com/rtplive/CAM044/playlist.m3u8","snapshot":null,"refreshMs":30000,"attribution":"Ora (Warner Varnado) · West Virginia DOT"}},{"type":"Feature","geometry":{"type":"Point","coordinates":[-80.75696,38.61807]},"properties":{"id":"ora-wv-11","name":"I-79 @ US-19 Exit 57","state":"WV","provider":"West Virginia DOT","hls":"https://vtc1.roadsummary.com/rtplive/CAM080/playlist.m3u8","snapshot":null,"refreshMs":30000,"attribution":"Ora (Warner Varnado) · West Virginia DOT"}},{"type":"Feature","geometry":{"type":"Point","coordinates":[-82.40494,38.392375]},"properties":{"id":"ora-wv-12","name":"I-64 @ 11 Hal Greer I/C","state":"WV","provider":"West Virginia DOT","hls":"https://vtc1.roadsummary.com/rtplive/CAM011/playlist.m3u8","snapshot":null,"refreshMs":30000,"attribution":"Ora (Warner Varnado) · West Virginia DOT"}},{"type":"Feature","geometry":{"type":"Point","coordinates":[-82.349856,38.414544]},"properties":{"id":"ora-wv-13","name":"I-64 @ 15 29th St exit(RT 60)","state":"WV","provider":"West Virginia DOT","hls":"https://vtc1.roadsummary.com/rtplive/CAM036/playlist.m3u8","snapshot":null,"refreshMs":30000,"attribution":"Ora (Warner Varnado) · West Virginia DOT"}},{"type":"Feature","geometry":{"type":"Point","coordinates":[-82.348222,38.413903]},"properties":{"id":"ora-wv-14","name":"I-64 @ 15B","state":"WV","provider":"West Virginia DOT","hls":"https://vtc1.roadsummary.com/rtplive/CAM135/playlist.m3u8","snapshot":null,"refreshMs":30000,"attribution":"Ora (Warner Varnado) · West Virginia DOT"}},{"type":"Feature","geometry":{"type":"Point","coordinates":[-82.278413,38.415595]},"properties":{"id":"ora-wv-15","name":"I-64 @ 18.6","state":"WV","provider":"West Virginia DOT","hls":"https://vtc1.roadsummary.com/rtplive/CAM091/playlist.m3u8","snapshot":null,"refreshMs":30000,"attribution":"Ora (Warner Varnado) · West Virginia DOT"}},{"type":"Feature","geometry":{"type":"Point","coordinates":[-82.26015,38.416798]},"properties":{"id":"ora-wv-16","name":"I-64 @ 20 Barboursville I/C","state":"WV","provider":"West Virginia DOT","hls":"https://vtc1.roadsummary.com/rtplive/CAM045/playlist.m3u8","snapshot":null,"refreshMs":30000,"attribution":"Ora (Warner Varnado) · West Virginia DOT"}},{"type":"Feature","geometry":{"type":"Point","coordinates":[-82.122833,38.438777]},"properties":{"id":"ora-wv-17","name":"I-64 @ 28 Milton I/C","state":"WV","provider":"West Virginia DOT","hls":"https://vtc1.roadsummary.com/rtplive/CAM012/playlist.m3u8","snapshot":null,"refreshMs":30000,"attribution":"Ora (Warner Varnado) · West Virginia DOT"}},{"type":"Feature","geometry":{"type":"Point","coordinates":[-81.270555,37.965555]},"properties":{"id":"ora-wv-18","name":"I-77 @ 58.5","state":"WV","provider":"West Virginia DOT","hls":"https://vtc1.roadsummary.com/rtplive/CAM106/playlist.m3u8","snapshot":null,"refreshMs":30000,"attribution":"Ora (Warner Varnado) · West Virginia DOT"}},{"type":"Feature","geometry":{"type":"Point","coordinates":[-81.3558,38.0275]},"properties":{"id":"ora-wv-19","name":"I-77 @ 66","state":"WV","provider":"West Virginia DOT","hls":"https://vtc1.roadsummary.com/rtplive/CAM019/playlist.m3u8","snapshot":null,"refreshMs":30000,"attribution":"Ora (Warner Varnado) · West Virginia DOT"}},{"type":"Feature","geometry":{"type":"Point","coordinates":[-81.087666,38.066666]},"properties":{"id":"ora-wv-20","name":"US 19 @ New River Gorge Bridge","state":"WV","provider":"West Virginia DOT","hls":"https://vtc1.roadsummary.com/rtplive/CAM046/playlist.m3u8","snapshot":null,"refreshMs":30000,"attribution":"Ora (Warner Varnado) · West Virginia DOT"}},{"type":"Feature","geometry":{"type":"Point","coordinates":[-81.159183,37.923121]},"properties":{"id":"ora-wv-21","name":"US-19 @ Glen Jean I/C","state":"WV","provider":"West Virginia DOT","hls":"https://vtc1.roadsummary.com/rtplive/CAM039/playlist.m3u8","snapshot":null,"refreshMs":30000,"attribution":"Ora (Warner Varnado) · West Virginia DOT"}},{"type":"Feature","geometry":{"type":"Point","coordinates":[-79.21127,39.21517]},"properties":{"id":"ora-wv-22","name":"WV-48 @ Communications Dr","state":"WV","provider":"West Virginia DOT","hls":"https://vtc1.roadsummary.com/rtplive/CAM037/playlist.m3u8","snapshot":null,"refreshMs":30000,"attribution":"Ora (Warner Varnado) · West Virginia DOT"}},{"type":"Feature","geometry":{"type":"Point","coordinates":[-80.27177,37.79268]},"properties":{"id":"ora-wv-23","name":"I-64 @ 179","state":"WV","provider":"West Virginia DOT","hls":"https://vtc1.roadsummary.com/rtplive/CAM083/playlist.m3u8","snapshot":null,"refreshMs":30000,"attribution":"Ora (Warner Varnado) · West Virginia DOT"}},{"type":"Feature","geometry":{"type":"Point","coordinates":[-80.427215,37.817133]},"properties":{"id":"ora-wv-24","name":"US-219 @ Lewisburg","state":"WV","provider":"West Virginia DOT","hls":"https://vtc1.roadsummary.com/rtplive/CAM047/playlist.m3u8","snapshot":null,"refreshMs":30000,"attribution":"Ora (Warner Varnado) · West Virginia DOT"}},{"type":"Feature","geometry":{"type":"Point","coordinates":[-80.2853,39.2751]},"properties":{"id":"ora-wv-25","name":"I-79 @ MM 119 Clarksburg","state":"WV","provider":"West Virginia DOT","hls":"https://vtc1.roadsummary.com/rtplive/CAM028/playlist.m3u8","snapshot":null,"refreshMs":30000,"attribution":"Ora (Warner Varnado) · West Virginia DOT"}},{"type":"Feature","geometry":{"type":"Point","coordinates":[-80.3922,39.2847]},"properties":{"id":"ora-wv-26","name":"US-50 @ MM 75.5","state":"WV","provider":"West Virginia DOT","hls":"https://vtc1.roadsummary.com/rtplive/CAM001/playlist.m3u8","snapshot":null,"refreshMs":30000,"attribution":"Ora (Warner Varnado) · West Virginia DOT"}},{"type":"Feature","geometry":{"type":"Point","coordinates":[-81.66368,38.734229]},"properties":{"id":"ora-wv-27","name":"I-77 @ 130","state":"WV","provider":"West Virginia DOT","hls":"https://vtc1.roadsummary.com/rtplive/CAM096/playlist.m3u8","snapshot":null,"refreshMs":30000,"attribution":"Ora (Warner Varnado) · West Virginia DOT"}},{"type":"Feature","geometry":{"type":"Point","coordinates":[-81.703727,38.948497]},"properties":{"id":"ora-wv-28","name":"I-77 @ 148","state":"WV","provider":"West Virginia DOT","hls":"https://vtc1.roadsummary.com/rtplive/CAM084/playlist.m3u8","snapshot":null,"refreshMs":30000,"attribution":"Ora (Warner Varnado) · West Virginia DOT"}},{"type":"Feature","geometry":{"type":"Point","coordinates":[-77.839628,39.29506]},"properties":{"id":"ora-wv-29","name":"US-340 @ John Adams Link Bridge","state":"WV","provider":"West Virginia DOT","hls":"https://vtc1.roadsummary.com/rtplive/CAM098/playlist.m3u8","snapshot":null,"refreshMs":30000,"attribution":"Ora (Warner Varnado) · West Virginia DOT"}},{"type":"Feature","geometry":{"type":"Point","coordinates":[-77.790967,39.314265]},"properties":{"id":"ora-wv-30","name":"US-340 @ WV-230","state":"WV","provider":"West Virginia DOT","hls":"https://vtc1.roadsummary.com/rtplive/CAM099/playlist.m3u8","snapshot":null,"refreshMs":30000,"attribution":"Ora (Warner Varnado) · West Virginia DOT"}},{"type":"Feature","geometry":{"type":"Point","coordinates":[-77.843056,39.309723]},"properties":{"id":"ora-wv-31","name":"WV-9 @ 65.5","state":"WV","provider":"West Virginia DOT","hls":"https://vtc1.roadsummary.com/rtplive/CAM119/playlist.m3u8","snapshot":null,"refreshMs":30000,"attribution":"Ora (Warner Varnado) · West Virginia DOT"}},{"type":"Feature","geometry":{"type":"Point","coordinates":[-77.764616,39.262684]},"properties":{"id":"ora-wv-32","name":"WV-9 @ Chestnut Hill","state":"WV","provider":"West Virginia DOT","hls":"https://vtc1.roadsummary.com/rtplive/CAM105/playlist.m3u8","snapshot":null,"refreshMs":30000,"attribution":"Ora (Warner Varnado) · West Virginia DOT"}},{"type":"Feature","geometry":{"type":"Point","coordinates":[-81.81766,38.427372]},"properties":{"id":"ora-wv-33","name":"I-64 @ 46","state":"WV","provider":"West Virginia DOT","hls":"https://vtc1.roadsummary.com/rtplive/CAM120/playlist.m3u8","snapshot":null,"refreshMs":30000,"attribution":"Ora (Warner Varnado) · West Virginia DOT"}},{"type":"Feature","geometry":{"type":"Point","coordinates":[-81.795833,38.413611]},"properties":{"id":"ora-wv-34","name":"I-64 @ 47 Crosslanes","state":"WV","provider":"West Virginia DOT","hls":"https://vtc1.roadsummary.com/rtplive/CAM022/playlist.m3u8","snapshot":null,"refreshMs":30000,"attribution":"Ora (Warner Varnado) · West Virginia DOT"}},{"type":"Feature","geometry":{"type":"Point","coordinates":[-81.767631,38.386527]},"properties":{"id":"ora-wv-35","name":"I-64 @ 50 Institute","state":"WV","provider":"West Virginia DOT","hls":"https://vtc1.roadsummary.com/rtplive/CAM097/playlist.m3u8","snapshot":null,"refreshMs":30000,"attribution":"Ora (Warner Varnado) · West Virginia DOT"}},{"type":"Feature","geometry":{"type":"Point","coordinates":[-81.7362,38.3616]},"properties":{"id":"ora-wv-36","name":"I-64 @ 53 Dunbar","state":"WV","provider":"West Virginia DOT","hls":"https://vtc1.roadsummary.com/rtplive/CAM009/playlist.m3u8","snapshot":null,"refreshMs":30000,"attribution":"Ora (Warner Varnado) · West Virginia DOT"}},{"type":"Feature","geometry":{"type":"Point","coordinates":[-81.7067,38.3593]},"properties":{"id":"ora-wv-37","name":"I-64 @ 55","state":"WV","provider":"West Virginia DOT","hls":"https://vtc1.roadsummary.com/rtplive/CAM122/playlist.m3u8","snapshot":null,"refreshMs":30000,"attribution":"Ora (Warner Varnado) · West Virginia DOT"}},{"type":"Feature","geometry":{"type":"Point","coordinates":[-81.688388,38.364722]},"properties":{"id":"ora-wv-38","name":"I-64 @ 55.2 Montrose I/C","state":"WV","provider":"West Virginia DOT","hls":"https://vtc1.roadsummary.com/rtplive/CAM013/playlist.m3u8","snapshot":null,"refreshMs":30000,"attribution":"Ora (Warner Varnado) · West Virginia DOT"}},{"type":"Feature","geometry":{"type":"Point","coordinates":[-81.6512,38.354972]},"properties":{"id":"ora-wv-39","name":"I-64 @ 58 Oakwood I/C","state":"WV","provider":"West Virginia DOT","hls":"https://vtc1.roadsummary.com/rtplive/CAM014/playlist.m3u8","snapshot":null,"refreshMs":30000,"attribution":"Ora (Warner Varnado) · West Virginia DOT"}},{"type":"Feature","geometry":{"type":"Point","coordinates":[-81.6353,38.3591]},"properties":{"id":"ora-wv-40","name":"I-64 @ 58.2 Lotto bld 1","state":"WV","provider":"West Virginia DOT","hls":"https://vtc1.roadsummary.com/rtplive/CAM038/playlist.m3u8","snapshot":null,"refreshMs":30000,"attribution":"Ora (Warner Varnado) · West Virginia DOT"}},{"type":"Feature","geometry":{"type":"Point","coordinates":[-81.633287,38.359052]},"properties":{"id":"ora-wv-41","name":"I-64 @ 58.3 Lotto bld 2","state":"WV","provider":"West Virginia DOT","hls":"https://vtc1.roadsummary.com/rtplive/CAM042/playlist.m3u8","snapshot":null,"refreshMs":30000,"attribution":"Ora (Warner Varnado) · West Virginia DOT"}},{"type":"Feature","geometry":{"type":"Point","coordinates":[-81.6304,38.360361]},"properties":{"id":"ora-wv-42","name":"I-64 @ 58.5 Bigley I/C","state":"WV","provider":"West Virginia DOT","hls":"https://vtc1.roadsummary.com/rtplive/CAM089/playlist.m3u8","snapshot":null,"refreshMs":30000,"attribution":"Ora (Warner Varnado) · West Virginia DOT"}},{"type":"Feature","geometry":{"type":"Point","coordinates":[-81.670454,38.3632]},"properties":{"id":"ora-wv-43","name":"I-64 MM 56.4","state":"WV","provider":"West Virginia DOT","hls":"https://vtc1.roadsummary.com/rtplive/CAM048/playlist.m3u8","snapshot":null,"refreshMs":30000,"attribution":"Ora (Warner Varnado) · West Virginia DOT"}},{"type":"Feature","geometry":{"type":"Point","coordinates":[-81.80556,38.42139]},"properties":{"id":"ora-wv-44","name":"I-64 WB @ MM 46.6","state":"WV","provider":"West Virginia DOT","hls":"https://vtc1.roadsummary.com/rtplive/CAM136/playlist.m3u8","snapshot":null,"refreshMs":30000,"attribution":"Ora (Warner Varnado) · West Virginia DOT"}},{"type":"Feature","geometry":{"type":"Point","coordinates":[-81.4468,38.1526]},"properties":{"id":"ora-wv-45","name":"I-77 @ 79","state":"WV","provider":"West Virginia DOT","hls":"https://vtc1.roadsummary.com/rtplive/CAM049/playlist.m3u8","snapshot":null,"refreshMs":30000,"attribution":"Ora (Warner Varnado) · West Virginia DOT"}},{"type":"Feature","geometry":{"type":"Point","coordinates":[-81.6261,38.3515]},"properties":{"id":"ora-wv-46","name":"I-77 @ 100","state":"WV","provider":"West Virginia DOT","hls":"https://vtc1.roadsummary.com/rtplive/CAM079/playlist.m3u8","snapshot":null,"refreshMs":30000,"attribution":"Ora (Warner Varnado) · West Virginia DOT"}},{"type":"Feature","geometry":{"type":"Point","coordinates":[-81.3883,38.129167]},"properties":{"id":"ora-wv-47","name":"I-77 @ 74.0","state":"WV","provider":"West Virginia DOT","hls":"https://vtc1.roadsummary.com/rtplive/CAM111/playlist.m3u8","snapshot":null,"refreshMs":30000,"attribution":"Ora (Warner Varnado) · West Virginia DOT"}},{"type":"Feature","geometry":{"type":"Point","coordinates":[-81.525,38.211111]},"properties":{"id":"ora-wv-48","name":"I-77 @ 86.5","state":"WV","provider":"West Virginia DOT","hls":"https://vtc1.roadsummary.com/rtplive/CAM016/playlist.m3u8","snapshot":null,"refreshMs":30000,"attribution":"Ora (Warner Varnado) · West Virginia DOT"}},{"type":"Feature","geometry":{"type":"Point","coordinates":[-81.5661,38.302778]},"properties":{"id":"ora-wv-49","name":"I-77 @ 94","state":"WV","provider":"West Virginia DOT","hls":"https://vtc1.roadsummary.com/rtplive/CAM052/playlist.m3u8","snapshot":null,"refreshMs":30000,"attribution":"Ora (Warner Varnado) · West Virginia DOT"}},{"type":"Feature","geometry":{"type":"Point","coordinates":[-81.5658,38.3086]},"properties":{"id":"ora-wv-50","name":"I-77 @ 95 McCorkle","state":"WV","provider":"West Virginia DOT","hls":"https://vtc1.roadsummary.com/rtplive/CAM112/playlist.m3u8","snapshot":null,"refreshMs":30000,"attribution":"Ora (Warner Varnado) · West Virginia DOT"}},{"type":"Feature","geometry":{"type":"Point","coordinates":[-81.5982,38.3344]},"properties":{"id":"ora-wv-51","name":"I-77 @ 98 35th St","state":"WV","provider":"West Virginia DOT","hls":"https://vtc1.roadsummary.com/rtplive/CAM081/playlist.m3u8","snapshot":null,"refreshMs":30000,"attribution":"Ora (Warner Varnado) · West Virginia DOT"}},{"type":"Feature","geometry":{"type":"Point","coordinates":[-81.6101,38.3397]},"properties":{"id":"ora-wv-52","name":"I-77 @ 99 Greenbrier Exit","state":"WV","provider":"West Virginia DOT","hls":"https://vtc1.roadsummary.com/rtplive/CAM008/playlist.m3u8","snapshot":null,"refreshMs":30000,"attribution":"Ora (Warner Varnado) · West Virginia DOT"}},{"type":"Feature","geometry":{"type":"Point","coordinates":[-81.556944,38.317208]},"properties":{"id":"ora-wv-53","name":"I-77/I-64 @ 95 US 60 IC","state":"WV","provider":"West Virginia DOT","hls":"https://vtc1.roadsummary.com/rtplive/CAM053/playlist.m3u8","snapshot":null,"refreshMs":30000,"attribution":"Ora (Warner Varnado) · West Virginia DOT"}},{"type":"Feature","geometry":{"type":"Point","coordinates":[-81.684953,38.340208]},"properties":{"id":"ora-wv-54","name":"US-119 @ Eureka Rd","state":"WV","provider":"West Virginia DOT","hls":"https://vtc1.roadsummary.com/rtplive/CAM113/playlist.m3u8","snapshot":null,"refreshMs":30000,"attribution":"Ora (Warner Varnado) · West Virginia DOT"}},{"type":"Feature","geometry":{"type":"Point","coordinates":[-81.7176,38.3202]},"properties":{"id":"ora-wv-55","name":"US-119 @ Southridge","state":"WV","provider":"West Virginia DOT","hls":"https://vtc1.roadsummary.com/rtplive/CAM054/playlist.m3u8","snapshot":null,"refreshMs":30000,"attribution":"Ora (Warner Varnado) · West Virginia DOT"}},{"type":"Feature","geometry":{"type":"Point","coordinates":[-81.6503,38.3493]},"properties":{"id":"ora-wv-56","name":"US-119 to I-64 I/C","state":"WV","provider":"West Virginia DOT","hls":"https://vtc1.roadsummary.com/rtplive/CAM121/playlist.m3u8","snapshot":null,"refreshMs":30000,"attribution":"Ora (Warner Varnado) · West Virginia DOT"}},{"type":"Feature","geometry":{"type":"Point","coordinates":[-81.833612,38.389351]},"properties":{"id":"ora-wv-57","name":"US-60 @ 3rd St","state":"WV","provider":"West Virginia DOT","hls":"https://vtc1.roadsummary.com/rtplive/CAM055/playlist.m3u8","snapshot":null,"refreshMs":30000,"attribution":"Ora (Warner Varnado) · West Virginia DOT"}},{"type":"Feature","geometry":{"type":"Point","coordinates":[-81.49757,38.1967]},"properties":{"id":"ora-wv-58","name":"US-60 @ Chelyan","state":"WV","provider":"West Virginia DOT","hls":"https://vtc1.roadsummary.com/rtplive/CAM090/playlist.m3u8","snapshot":null,"refreshMs":30000,"attribution":"Ora (Warner Varnado) · West Virginia DOT"}},{"type":"Feature","geometry":{"type":"Point","coordinates":[-81.663586,38.341488]},"properties":{"id":"ora-wv-59","name":"US119 @ Oakwood Rd","state":"WV","provider":"West Virginia DOT","hls":"https://vtc1.roadsummary.com/rtplive/CAM063/playlist.m3u8","snapshot":null,"refreshMs":30000,"attribution":"Ora (Warner Varnado) · West Virginia DOT"}},{"type":"Feature","geometry":{"type":"Point","coordinates":[-81.7107,38.3324]},"properties":{"id":"ora-wv-60","name":"US119 @ Trace Fork","state":"WV","provider":"West Virginia DOT","hls":"https://vtc1.roadsummary.com/rtplive/CAM057/playlist.m3u8","snapshot":null,"refreshMs":30000,"attribution":"Ora (Warner Varnado) · West Virginia DOT"}},{"type":"Feature","geometry":{"type":"Point","coordinates":[-82.049696,37.888808]},"properties":{"id":"ora-wv-61","name":"US-119 @ Fry Dr","state":"WV","provider":"West Virginia DOT","hls":"https://vtc1.roadsummary.com/rtplive/CAM100/playlist.m3u8","snapshot":null,"refreshMs":30000,"attribution":"Ora (Warner Varnado) · West Virginia DOT"}},{"type":"Feature","geometry":{"type":"Point","coordinates":[-81.12519,37.285033]},"properties":{"id":"ora-wv-62","name":"I-77 @ 1 East River Mountain Tunnel","state":"WV","provider":"West Virginia DOT","hls":"https://vtc1.roadsummary.com/rtplive/CAM130/playlist.m3u8","snapshot":null,"refreshMs":30000,"attribution":"Ora (Warner Varnado) · West Virginia DOT"}},{"type":"Feature","geometry":{"type":"Point","coordinates":[-81.0607,37.4084]},"properties":{"id":"ora-wv-63","name":"I-77 @ 14.0","state":"WV","provider":"West Virginia DOT","hls":"https://vtc1.roadsummary.com/rtplive/CAM107/playlist.m3u8","snapshot":null,"refreshMs":30000,"attribution":"Ora (Warner Varnado) · West Virginia DOT"}},{"type":"Feature","geometry":{"type":"Point","coordinates":[-81.063241,37.311333]},"properties":{"id":"ora-wv-64","name":"I-77 @ 4.5","state":"WV","provider":"West Virginia DOT","hls":"https://vtc1.roadsummary.com/rtplive/CAM021/playlist.m3u8","snapshot":null,"refreshMs":30000,"attribution":"Ora (Warner Varnado) · West Virginia DOT"}},{"type":"Feature","geometry":{"type":"Point","coordinates":[-81.0479,37.3633]},"properties":{"id":"ora-wv-65","name":"I-77 @ 9","state":"WV","provider":"West Virginia DOT","hls":"https://vtc1.roadsummary.com/rtplive/CAM061/playlist.m3u8","snapshot":null,"refreshMs":30000,"attribution":"Ora (Warner Varnado) · West Virginia DOT"}},{"type":"Feature","geometry":{"type":"Point","coordinates":[-81.06,37.393889]},"properties":{"id":"ora-wv-66","name":"I-77 @12.5","state":"WV","provider":"West Virginia DOT","hls":"https://vtc1.roadsummary.com/rtplive/CAM108/playlist.m3u8","snapshot":null,"refreshMs":30000,"attribution":"Ora (Warner Varnado) · West Virginia DOT"}},{"type":"Feature","geometry":{"type":"Point","coordinates":[-81.1635,37.2735]},"properties":{"id":"ora-wv-67","name":"US-460 @ 1 US 52 I/C","state":"WV","provider":"West Virginia DOT","hls":"https://vtc1.roadsummary.com/rtplive/CAM034/playlist.m3u8","snapshot":null,"refreshMs":30000,"attribution":"Ora (Warner Varnado) · West Virginia DOT"}},{"type":"Feature","geometry":{"type":"Point","coordinates":[-81.12138,37.34356]},"properties":{"id":"ora-wv-68","name":"US-460 @ 11","state":"WV","provider":"West Virginia DOT","hls":"https://vtc1.roadsummary.com/rtplive/CAM087/playlist.m3u8","snapshot":null,"refreshMs":30000,"attribution":"Ora (Warner Varnado) · West Virginia DOT"}},{"type":"Feature","geometry":{"type":"Point","coordinates":[-81.04166,37.36393]},"properties":{"id":"ora-wv-69","name":"US-460 @ 16","state":"WV","provider":"West Virginia DOT","hls":"https://vtc1.roadsummary.com/rtplive/CAM088/playlist.m3u8","snapshot":null,"refreshMs":30000,"attribution":"Ora (Warner Varnado) · West Virginia DOT"}},{"type":"Feature","geometry":{"type":"Point","coordinates":[-81.0563,37.3619]},"properties":{"id":"ora-wv-70","name":"US-460 @ Ambrose","state":"WV","provider":"West Virginia DOT","hls":"https://vtc1.roadsummary.com/rtplive/CAM124/playlist.m3u8","snapshot":null,"refreshMs":30000,"attribution":"Ora (Warner Varnado) · West Virginia DOT"}},{"type":"Feature","geometry":{"type":"Point","coordinates":[-79.004432,39.362122]},"properties":{"id":"ora-wv-71","name":"US-50 @ US-220","state":"WV","provider":"West Virginia DOT","hls":"https://vtc1.roadsummary.com/rtplive/CAM043/playlist.m3u8","snapshot":null,"refreshMs":30000,"attribution":"Ora (Warner Varnado) · West Virginia DOT"}},{"type":"Feature","geometry":{"type":"Point","coordinates":[-78.94717,39.423752]},"properties":{"id":"ora-wv-72","name":"WV-46 @ country mile road","state":"WV","provider":"West Virginia DOT","hls":"https://vtc1.roadsummary.com/rtplive/CAM134/playlist.m3u8","snapshot":null,"refreshMs":30000,"attribution":"Ora (Warner Varnado) · West Virginia DOT"}},{"type":"Feature","geometry":{"type":"Point","coordinates":[-79.963784,39.652203]},"properties":{"id":"ora-wv-73","name":"Van Voorhis Elmer Prince","state":"WV","provider":"West Virginia DOT","hls":"https://vtc1.roadsummary.com/rtplive/CAM005/playlist.m3u8","snapshot":null,"refreshMs":30000,"attribution":"Ora (Warner Varnado) · West Virginia DOT"}},{"type":"Feature","geometry":{"type":"Point","coordinates":[-79.955,39.657888]},"properties":{"id":"ora-wv-74","name":"ChestnutRidge/Pineview","state":"WV","provider":"West Virginia DOT","hls":"https://vtc1.roadsummary.com/rtplive/CAM064/playlist.m3u8","snapshot":null,"refreshMs":30000,"attribution":"Ora (Warner Varnado) · West Virginia DOT"}},{"type":"Feature","geometry":{"type":"Point","coordinates":[-79.954,39.585195]},"properties":{"id":"ora-wv-75","name":"I-68 @ 1 US-119","state":"WV","provider":"West Virginia DOT","hls":"https://vtc1.roadsummary.com/rtplive/CAM065/playlist.m3u8","snapshot":null,"refreshMs":30000,"attribution":"Ora (Warner Varnado) · West Virginia DOT"}},{"type":"Feature","geometry":{"type":"Point","coordinates":[-79.835969,39.657824]},"properties":{"id":"ora-wv-76","name":"I-68 @ 11.5","state":"WV","provider":"West Virginia DOT","hls":"https://vtc1.roadsummary.com/rtplive/CAM024/playlist.m3u8","snapshot":null,"refreshMs":30000,"attribution":"Ora (Warner Varnado) · West Virginia DOT"}},{"type":"Feature","geometry":{"type":"Point","coordinates":[-79.968964,39.579646]},"properties":{"id":"ora-wv-77","name":"I-79 @ .3 I-68 I/C - A","state":"WV","provider":"West Virginia DOT","hls":"https://vtc1.roadsummary.com/rtplive/CAM092/playlist.m3u8","snapshot":null,"refreshMs":30000,"attribution":"Ora (Warner Varnado) · West Virginia DOT"}},{"type":"Feature","geometry":{"type":"Point","coordinates":[-79.97909,39.582321]},"properties":{"id":"ora-wv-78","name":"I-79 @ .4 I-68 I/C - B","state":"WV","provider":"West Virginia DOT","hls":"https://vtc1.roadsummary.com/rtplive/CAM093/playlist.m3u8","snapshot":null,"refreshMs":30000,"attribution":"Ora (Warner Varnado) · West Virginia DOT"}},{"type":"Feature","geometry":{"type":"Point","coordinates":[-79.976389,39.573268]},"properties":{"id":"ora-wv-79","name":"I-79 @ .6 I-68 I/C - C","state":"WV","provider":"West Virginia DOT","hls":"https://vtc1.roadsummary.com/rtplive/CAM094/playlist.m3u8","snapshot":null,"refreshMs":30000,"attribution":"Ora (Warner Varnado) · West Virginia DOT"}},{"type":"Feature","geometry":{"type":"Point","coordinates":[-80.002455,39.639141]},"properties":{"id":"ora-wv-80","name":"I-79 @ 153","state":"WV","provider":"West Virginia DOT","hls":"https://vtc1.roadsummary.com/rtplive/CAM116/playlist.m3u8","snapshot":null,"refreshMs":30000,"attribution":"Ora (Warner Varnado) · West Virginia DOT"}},{"type":"Feature","geometry":{"type":"Point","coordinates":[-79.959,39.629662]},"properties":{"id":"ora-wv-81","name":"University Dr/Westover Bridge","state":"WV","provider":"West Virginia DOT","hls":"https://vtc1.roadsummary.com/rtplive/CAM066/playlist.m3u8","snapshot":null,"refreshMs":30000,"attribution":"Ora (Warner Varnado) · West Virginia DOT"}},{"type":"Feature","geometry":{"type":"Point","coordinates":[-79.8455,39.6879]},"properties":{"id":"ora-wv-82","name":"WV-43 @ Goodwin Hill Road","state":"WV","provider":"West Virginia DOT","hls":"https://vtc1.roadsummary.com/rtplive/CAM025/playlist.m3u8","snapshot":null,"refreshMs":30000,"attribution":"Ora (Warner Varnado) · West Virginia DOT"}},{"type":"Feature","geometry":{"type":"Point","coordinates":[-79.9799,39.6494]},"properties":{"id":"ora-wv-83","name":"WV-705 @ Patteson Drive","state":"WV","provider":"West Virginia DOT","hls":"https://vtc1.roadsummary.com/rtplive/CAM007/playlist.m3u8","snapshot":null,"refreshMs":30000,"attribution":"Ora (Warner Varnado) · West Virginia DOT"}},{"type":"Feature","geometry":{"type":"Point","coordinates":[-79.937,39.652902]},"properties":{"id":"ora-wv-84","name":"WV-705 @ Stewartstown","state":"WV","provider":"West Virginia DOT","hls":"https://vtc1.roadsummary.com/rtplive/CAM067/playlist.m3u8","snapshot":null,"refreshMs":30000,"attribution":"Ora (Warner Varnado) · West Virginia DOT"}},{"type":"Feature","geometry":{"type":"Point","coordinates":[-79.932,39.642056]},"properties":{"id":"ora-wv-85","name":"WV-705/Mileground US-119","state":"WV","provider":"West Virginia DOT","hls":"https://vtc1.roadsummary.com/rtplive/CAM095/playlist.m3u8","snapshot":null,"refreshMs":30000,"attribution":"Ora (Warner Varnado) · West Virginia DOT"}},{"type":"Feature","geometry":{"type":"Point","coordinates":[-79.9999,39.6596]},"properties":{"id":"ora-wv-86","name":"WV7 @ CRT 19/24","state":"WV","provider":"West Virginia DOT","hls":"https://vtc1.roadsummary.com/rtplive/CAM006/playlist.m3u8","snapshot":null,"refreshMs":30000,"attribution":"Ora (Warner Varnado) · West Virginia DOT"}},{"type":"Feature","geometry":{"type":"Point","coordinates":[-80.698,40.052]},"properties":{"id":"ora-wv-87","name":"I-470 @ 1.8","state":"WV","provider":"West Virginia DOT","hls":"https://vtc1.roadsummary.com/rtplive/CAM123/playlist.m3u8","snapshot":null,"refreshMs":30000,"attribution":"Ora (Warner Varnado) · West Virginia DOT"}},{"type":"Feature","geometry":{"type":"Point","coordinates":[-80.6646,40.0492]},"properties":{"id":"ora-wv-88","name":"I-470 @ 4 I-70 Split","state":"WV","provider":"West Virginia DOT","hls":"https://vtc1.roadsummary.com/rtplive/CAM118/playlist.m3u8","snapshot":null,"refreshMs":30000,"attribution":"Ora (Warner Varnado) · West Virginia DOT"}},{"type":"Feature","geometry":{"type":"Point","coordinates":[-80.715,40.073355]},"properties":{"id":"ora-wv-89","name":"I-70 @ 1 US-250","state":"WV","provider":"West Virginia DOT","hls":"https://vtc1.roadsummary.com/rtplive/CAM070/playlist.m3u8","snapshot":null,"refreshMs":30000,"attribution":"Ora (Warner Varnado) · West Virginia DOT"}},{"type":"Feature","geometry":{"type":"Point","coordinates":[-80.591856,40.062976]},"properties":{"id":"ora-wv-90","name":"I-70 @ 10 CabellasDr2","state":"WV","provider":"West Virginia DOT","hls":"https://vtc1.roadsummary.com/rtplive/CAM069/playlist.m3u8","snapshot":null,"refreshMs":30000,"attribution":"Ora (Warner Varnado) · West Virginia DOT"}},{"type":"Feature","geometry":{"type":"Point","coordinates":[-80.5675,40.0674]},"properties":{"id":"ora-wv-91","name":"I-70 @ 11 Dallas Pike","state":"WV","provider":"West Virginia DOT","hls":"https://vtc1.roadsummary.com/rtplive/CAM035/playlist.m3u8","snapshot":null,"refreshMs":30000,"attribution":"Ora (Warner Varnado) · West Virginia DOT"}},{"type":"Feature","geometry":{"type":"Point","coordinates":[-80.691871,40.066749]},"properties":{"id":"ora-wv-92","name":"I-70 @ 2 Washington Ave","state":"WV","provider":"West Virginia DOT","hls":"https://vtc1.roadsummary.com/rtplive/CAM114/playlist.m3u8","snapshot":null,"refreshMs":30000,"attribution":"Ora (Warner Varnado) · West Virginia DOT"}},{"type":"Feature","geometry":{"type":"Point","coordinates":[-80.627527,40.04358]},"properties":{"id":"ora-wv-93","name":"I-70 @ 7","state":"WV","provider":"West Virginia DOT","hls":"https://vtc1.roadsummary.com/rtplive/CAM068/playlist.m3u8","snapshot":null,"refreshMs":30000,"attribution":"Ora (Warner Varnado) · West Virginia DOT"}},{"type":"Feature","geometry":{"type":"Point","coordinates":[-80.619,40.044]},"properties":{"id":"ora-wv-94","name":"I-70 @ 7.5 2 Mile Hill","state":"WV","provider":"West Virginia DOT","hls":"https://vtc1.roadsummary.com/rtplive/CAM017/playlist.m3u8","snapshot":null,"refreshMs":30000,"attribution":"Ora (Warner Varnado) · West Virginia DOT"}},{"type":"Feature","geometry":{"type":"Point","coordinates":[-79.524788,39.65795]},"properties":{"id":"ora-wv-95","name":"I-68 @ 29.4 Hazelton","state":"WV","provider":"West Virginia DOT","hls":"https://vtc1.roadsummary.com/rtplive/CAM020/playlist.m3u8","snapshot":null,"refreshMs":30000,"attribution":"Ora (Warner Varnado) · West Virginia DOT"}},{"type":"Feature","geometry":{"type":"Point","coordinates":[-82.019,38.440408]},"properties":{"id":"ora-wv-96","name":"I-64 @ 34 Hurricane Exit","state":"WV","provider":"West Virginia DOT","hls":"https://vtc1.roadsummary.com/rtplive/CAM071/playlist.m3u8","snapshot":null,"refreshMs":30000,"attribution":"Ora (Warner Varnado) · West Virginia DOT"}},{"type":"Feature","geometry":{"type":"Point","coordinates":[-81.936463,38.456367]},"properties":{"id":"ora-wv-97","name":"I-64 @ 39 Teays Valley I/C","state":"WV","provider":"West Virginia DOT","hls":"https://vtc1.roadsummary.com/rtplive/CAM015/playlist.m3u8","snapshot":null,"refreshMs":30000,"attribution":"Ora (Warner Varnado) · West Virginia DOT"}},{"type":"Feature","geometry":{"type":"Point","coordinates":[-81.883393,38.455917]},"properties":{"id":"ora-wv-98","name":"I-64 @ 43","state":"WV","provider":"West Virginia DOT","hls":"https://vtc1.roadsummary.com/rtplive/CAM115/playlist.m3u8","snapshot":null,"refreshMs":30000,"attribution":"Ora (Warner Varnado) · West Virginia DOT"}},{"type":"Feature","geometry":{"type":"Point","coordinates":[-81.848089,38.448035]},"properties":{"id":"ora-wv-99","name":"I-64 @ 44 St. Albans","state":"WV","provider":"West Virginia DOT","hls":"https://vtc1.roadsummary.com/rtplive/CAM062/playlist.m3u8","snapshot":null,"refreshMs":30000,"attribution":"Ora (Warner Varnado) · West Virginia DOT"}},{"type":"Feature","geometry":{"type":"Point","coordinates":[-81.832802,38.440585]},"properties":{"id":"ora-wv-100","name":"I-64 @ 45 Nitro","state":"WV","provider":"West Virginia DOT","hls":"https://vtc1.roadsummary.com/rtplive/CAM027/playlist.m3u8","snapshot":null,"refreshMs":30000,"attribution":"Ora (Warner Varnado) · West Virginia DOT"}},{"type":"Feature","geometry":{"type":"Point","coordinates":[-82.01674,38.57853]},"properties":{"id":"ora-wv-101","name":"US-35 @ Shamrock Ln","state":"WV","provider":"West Virginia DOT","hls":"https://vtc1.roadsummary.com/rtplive/CAM138/playlist.m3u8","snapshot":null,"refreshMs":30000,"attribution":"Ora (Warner Varnado) · West Virginia DOT"}},{"type":"Feature","geometry":{"type":"Point","coordinates":[-81.923969,38.479447]},"properties":{"id":"ora-wv-102","name":"US-35 @ WV-34 I/C","state":"WV","provider":"West Virginia DOT","hls":"https://vtc1.roadsummary.com/rtplive/CAM085/playlist.m3u8","snapshot":null,"refreshMs":30000,"attribution":"Ora (Warner Varnado) · West Virginia DOT"}},{"type":"Feature","geometry":{"type":"Point","coordinates":[-81.1474,37.762]},"properties":{"id":"ora-wv-103","name":"I-64 @ 124","state":"WV","provider":"West Virginia DOT","hls":"https://vtc1.roadsummary.com/rtplive/CAM082/playlist.m3u8","snapshot":null,"refreshMs":30000,"attribution":"Ora (Warner Varnado) · West Virginia DOT"}},{"type":"Feature","geometry":{"type":"Point","coordinates":[-81.1195,37.5829]},"properties":{"id":"ora-wv-104","name":"I-77 @ 26.5","state":"WV","provider":"West Virginia DOT","hls":"https://vtc1.roadsummary.com/rtplive/CAM109/playlist.m3u8","snapshot":null,"refreshMs":30000,"attribution":"Ora (Warner Varnado) · West Virginia DOT"}},{"type":"Feature","geometry":{"type":"Point","coordinates":[-81.194,37.729444]},"properties":{"id":"ora-wv-105","name":"I-77 @ 39","state":"WV","provider":"West Virginia DOT","hls":"https://vtc1.roadsummary.com/rtplive/CAM050/playlist.m3u8","snapshot":null,"refreshMs":30000,"attribution":"Ora (Warner Varnado) · West Virginia DOT"}},{"type":"Feature","geometry":{"type":"Point","coordinates":[-81.217,37.793889]},"properties":{"id":"ora-wv-106","name":"I-77 @ 44.0","state":"WV","provider":"West Virginia DOT","hls":"https://vtc1.roadsummary.com/rtplive/CAM075/playlist.m3u8","snapshot":null,"refreshMs":30000,"attribution":"Ora (Warner Varnado) · West Virginia DOT"}},{"type":"Feature","geometry":{"type":"Point","coordinates":[-81.214646,37.836891]},"properties":{"id":"ora-wv-107","name":"I-77 @ 48 North Beckley I/C","state":"WV","provider":"West Virginia DOT","hls":"https://vtc1.roadsummary.com/rtplive/CAM041/playlist.m3u8","snapshot":null,"refreshMs":30000,"attribution":"Ora (Warner Varnado) · West Virginia DOT"}},{"type":"Feature","geometry":{"type":"Point","coordinates":[-81.18761,37.865]},"properties":{"id":"ora-wv-108","name":"US-19 Bradley","state":"WV","provider":"West Virginia DOT","hls":"https://vtc1.roadsummary.com/rtplive/CAM032/playlist.m3u8","snapshot":null,"refreshMs":30000,"attribution":"Ora (Warner Varnado) · West Virginia DOT"}},{"type":"Feature","geometry":{"type":"Point","coordinates":[-81.188158,37.858273]},"properties":{"id":"ora-wv-109","name":"US-19/Appalachian Heights Road","state":"WV","provider":"West Virginia DOT","hls":"https://vtc1.roadsummary.com/rtplive/CAM040/playlist.m3u8","snapshot":null,"refreshMs":30000,"attribution":"Ora (Warner Varnado) · West Virginia DOT"}},{"type":"Feature","geometry":{"type":"Point","coordinates":[-79.57435,39.146928]},"properties":{"id":"ora-wv-110","name":"US-219 @ The Park and Ride","state":"WV","provider":"West Virginia DOT","hls":"https://vtc1.roadsummary.com/rtplive/CAM018/playlist.m3u8","snapshot":null,"refreshMs":30000,"attribution":"Ora (Warner Varnado) · West Virginia DOT"}},{"type":"Feature","geometry":{"type":"Point","coordinates":[-80.8564,39.658384]},"properties":{"id":"ora-wv-111","name":"New Martinsville Bridge","state":"WV","provider":"West Virginia DOT","hls":"https://vtc1.roadsummary.com/rtplive/CAM010/playlist.m3u8","snapshot":null,"refreshMs":30000,"attribution":"Ora (Warner Varnado) · West Virginia DOT"}},{"type":"Feature","geometry":{"type":"Point","coordinates":[-81.531943,39.257866]},"properties":{"id":"ora-wv-112","name":"US-50 @ RT 47","state":"WV","provider":"West Virginia DOT","hls":"https://vtc1.roadsummary.com/rtplive/CAM131/playlist.m3u8","snapshot":null,"refreshMs":30000,"attribution":"Ora (Warner Varnado) · West Virginia DOT"}},{"type":"Feature","geometry":{"type":"Point","coordinates":[-81.499246,39.267825]},"properties":{"id":"ora-wv-113","name":"I-77 @ 176 US 50 I/C","state":"WV","provider":"West Virginia DOT","hls":"https://vtc1.roadsummary.com/rtplive/CAM078/playlist.m3u8","snapshot":null,"refreshMs":30000,"attribution":"Ora (Warner Varnado) · West Virginia DOT"}},{"type":"Feature","geometry":{"type":"Point","coordinates":[-81.434787,39.399201]},"properties":{"id":"ora-wv-114","name":"I-77 @ 186.7","state":"WV","provider":"West Virginia DOT","hls":"https://vtc1.roadsummary.com/rtplive/CAM103/playlist.m3u8","snapshot":null,"refreshMs":30000,"attribution":"Ora (Warner Varnado) · West Virginia DOT"}},{"type":"Feature","geometry":{"type":"Point","coordinates":[-81.391601,39.245175]},"properties":{"id":"ora-wv-115","name":"US-50 @ MM 16.5","state":"WV","provider":"West Virginia DOT","hls":"https://vtc1.roadsummary.com/rtplive/CAM004/playlist.m3u8","snapshot":null,"refreshMs":30000,"attribution":"Ora (Warner Varnado) · West Virginia DOT"}},{"type":"Feature","geometry":{"type":"Point","coordinates":[-81.556041,39.258034]},"properties":{"id":"ora-wv-116","name":"US-50 @ MM 6.5(Division St.)","state":"WV","provider":"West Virginia DOT","hls":"https://vtc1.roadsummary.com/rtplive/CAM129/playlist.m3u8","snapshot":null,"refreshMs":30000,"attribution":"Ora (Warner Varnado) · West Virginia DOT"}},{"type":"Feature","geometry":{"type":"Point","coordinates":[-80.428425,39.022477]},"properties":{"id":"ora-wv-117","name":"I-79 @ 99 US-33 Weston","state":"WV","provider":"West Virginia DOT","hls":"https://vtc1.roadsummary.com/rtplive/CAM058/playlist.m3u8","snapshot":null,"refreshMs":30000,"attribution":"Ora (Warner Varnado) · West Virginia DOT"}},{"type":"Feature","geometry":{"type":"Point","coordinates":[-80.425292,39.024386]},"properties":{"id":"ora-wv-118","name":"I-79 @ 99.5 US-119 Weston","state":"WV","provider":"West Virginia DOT","hls":"https://vtc1.roadsummary.com/rtplive/CAM072/playlist.m3u8","snapshot":null,"refreshMs":30000,"attribution":"Ora (Warner Varnado) · West Virginia DOT"}},{"type":"Feature","geometry":{"type":"Point","coordinates":[-77.96051,39.49638]},"properties":{"id":"ora-wv-119","name":"I-81 @ 16","state":"WV","provider":"West Virginia DOT","hls":"https://vtc1.roadsummary.com/rtplive/CAM030/playlist.m3u8","snapshot":null,"refreshMs":30000,"attribution":"Ora (Warner Varnado) · West Virginia DOT"}},{"type":"Feature","geometry":{"type":"Point","coordinates":[-81.5811,38.3299]},"properties":{"id":"ora-wv-120","name":"I-77 MM 97.2","state":"WV","provider":"West Virginia DOT","hls":"https://vtc1.roadsummary.com/rtplive/CAM003/playlist.m3u8","snapshot":null,"refreshMs":30000,"attribution":"Ora (Warner Varnado) · West Virginia DOT"}},{"type":"Feature","geometry":{"type":"Point","coordinates":[-77.98896,39.44195]},"properties":{"id":"ora-wv-121","name":"I-81 @ 12","state":"WV","provider":"West Virginia DOT","hls":"https://vtc1.roadsummary.com/rtplive/CAM060/playlist.m3u8","snapshot":null,"refreshMs":30000,"attribution":"Ora (Warner Varnado) · West Virginia DOT"}},{"type":"Feature","geometry":{"type":"Point","coordinates":[-80.167773,39.443042]},"properties":{"id":"ora-wv-122","name":"I-79 @ 133 Kingmont","state":"WV","provider":"West Virginia DOT","hls":"https://vtc1.roadsummary.com/rtplive/CAM074/playlist.m3u8","snapshot":null,"refreshMs":30000,"attribution":"Ora (Warner Varnado) · West Virginia DOT"}},{"type":"Feature","geometry":{"type":"Point","coordinates":[-80.144749,39.456651]},"properties":{"id":"ora-wv-123","name":"I-79 @ 135","state":"WV","provider":"West Virginia DOT","hls":"https://vtc1.roadsummary.com/rtplive/CAM073/playlist.m3u8","snapshot":null,"refreshMs":30000,"attribution":"Ora (Warner Varnado) · West Virginia DOT"}},{"type":"Feature","geometry":{"type":"Point","coordinates":[-80.7246,40.0719]},"properties":{"id":"ora-wv-124","name":"I-70 @ 5 Wheeling Tunnel","state":"WV","provider":"West Virginia DOT","hls":"https://vtc1.roadsummary.com/rtplive/CAM125/playlist.m3u8","snapshot":null,"refreshMs":30000,"attribution":"Ora (Warner Varnado) · West Virginia DOT"}},{"type":"Feature","geometry":{"type":"Point","coordinates":[-81.5295,39.1897]},"properties":{"id":"ora-wv-125","name":"I-77 @ 172 Mineral Wells I/C","state":"WV","provider":"West Virginia DOT","hls":"https://vtc1.roadsummary.com/rtplive/CAM077/playlist.m3u8","snapshot":null,"refreshMs":30000,"attribution":"Ora (Warner Varnado) · West Virginia DOT"}},{"type":"Feature","geometry":{"type":"Point","coordinates":[-81.895,38.531907]},"properties":{"id":"ora-wv-126","name":"WV 817/Winfield Rd","state":"WV","provider":"West Virginia DOT","hls":"https://vtc1.roadsummary.com/rtplive/CAM104/playlist.m3u8","snapshot":null,"refreshMs":30000,"attribution":"Ora (Warner Varnado) · West Virginia DOT"}}]}